{"type":"FeatureCollection","features":[{"type":"Feature","id":"220aa1ac-70e8-4a70-8dcd-95ca91334f8d","geometry":{"type":"Polygon","coordinates":[[[9, 1195],[9, 1223],[138, 1223],[138, 1195],[9, 1195]]]},"properties":{"objectType":"annotation","name":"date","classification":{"name":"date","color":[0, 255, 0]}}},{"type":"Feature","id":"0a22a5ba-d092-44f4-9dbd-45a2da65f9fb","geometry":{"type":"Polygon","coordinates":[[[589, 992],[589, 1019],[672, 1019],[672, 992],[589, 992]]]},"properties":{"objectType":"annotation","name":"total","classification":{"name":"total","color":[255, 255, 0]}}},{"type":"Feature","id":"0f0e5aeb-9c50-4f91-8fe4-3b58aec4869b","geometry":{"type":"Polygon","coordinates":[[[60, 353],[60, 449],[601, 449],[601, 353],[60, 353]]]},"properties":{"objectType":"annotation","name":"address","classification":{"name":"address","color":[0, 0, 255]}}},{"type":"Feature","id":"f46742fe-9cee-4e96-adec-3dd7316843af","geometry":{"type":"Polygon","coordinates":[[[159, 285],[159, 312],[522, 312],[522, 285],[159, 285]]]},"properties":{"objectType":"annotation","name":"company","classification":{"name":"company","color":[255, 0, 0]}}}]}