{"type":"FeatureCollection","features":[{"type":"Feature","id":"40128198-dd08-4fd6-859b-d821e2fc2ede","geometry":{"type":"Polygon","coordinates":[[[247, 239],[247, 271],[529, 271],[529, 239],[247, 239]]]},"properties":{"objectType":"annotation","name":"company","classification":{"name":"company","color":[255, 0, 0]}}},{"type":"Feature","id":"5a97c07b-e966-4482-a855-564341c4f172","geometry":{"type":"Polygon","coordinates":[[[554, 1501],[554, 1532],[632, 1532],[632, 1501],[554, 1501]]]},"properties":{"objectType":"annotation","name":"total","classification":{"name":"total","color":[255, 255, 0]}}},{"type":"Feature","id":"076c9cd7-cc16-469f-9f90-c8576c650cfc","geometry":{"type":"Polygon","coordinates":[[[520, 740],[520, 776],[635, 776],[635, 740],[520, 740]]]},"properties":{"objectType":"annotation","name":"date","classification":{"name":"date","color":[0, 255, 0]}}},{"type":"Feature","id":"a191d85b-ecc9-4fe0-9f74-94564be23db0","geometry":{"type":"Polygon","coordinates":[[[247, 400],[247, 512],[531, 512],[531, 400],[247, 400]]]},"properties":{"objectType":"annotation","name":"address","classification":{"name":"address","color":[0, 0, 255]}}}]}