{"type":"FeatureCollection","features":[{"type":"Feature","id":"24122146-e12a-49bc-b6fa-bdadd0ece22a","geometry":{"type":"Polygon","coordinates":[[[773, 1369],[773, 1405],[874, 1405],[874, 1369],[773, 1369]]]},"properties":{"objectType":"annotation","name":"total","classification":{"name":"total","color":[255, 255, 0]}}},{"type":"Feature","id":"50a1716f-7850-439e-83e9-515890e95e93","geometry":{"type":"Polygon","coordinates":[[[49, 1706],[49, 1740],[213, 1740],[213, 1706],[49, 1706]]]},"properties":{"objectType":"annotation","name":"date","classification":{"name":"date","color":[0, 255, 0]}}},{"type":"Feature","id":"98fddc00-be06-4823-869a-32cb45f7cc1d","geometry":{"type":"Polygon","coordinates":[[[172, 343],[172, 383],[728, 383],[728, 343],[172, 343]]]},"properties":{"objectType":"annotation","name":"company","classification":{"name":"company","color":[255, 0, 0]}}},{"type":"Feature","id":"f9ea31f9-416a-4e69-ad70-5981549d69a3","geometry":{"type":"Polygon","coordinates":[[[107, 429],[107, 553],[785, 553],[785, 429],[107, 429]]]},"properties":{"objectType":"annotation","name":"address","classification":{"name":"address","color":[0, 0, 255]}}}]}