{"type":"FeatureCollection","features":[{"type":"Feature","id":"e0e0b8bd-afae-4cce-9348-b12a9fe5aa67","geometry":{"type":"Polygon","coordinates":[[[2832, 3297],[2832, 3344],[3025, 3344],[3025, 3297],[2832, 3297]]]},"properties":{"objectType":"annotation","name":"total","classification":{"name":"total","color":[255, 255, 0]}}},{"type":"Feature","id":"643a958e-8ad0-4c17-898f-3a61624cd4f7","geometry":{"type":"Polygon","coordinates":[[[2855, 1867],[2855, 1923],[3163, 1923],[3163, 1867],[2855, 1867]]]},"properties":{"objectType":"annotation","name":"date","classification":{"name":"date","color":[0, 255, 0]}}},{"type":"Feature","id":"bec55e88-4b19-4777-af4b-d72b00659fc1","geometry":{"type":"Polygon","coordinates":[[[1744, 1095],[1744, 1251],[3170, 1251],[3170, 1095],[1744, 1095]]]},"properties":{"objectType":"annotation","name":"address","classification":{"name":"address","color":[0, 0, 255]}}},{"type":"Feature","id":"b821baa3-646d-471a-a0d0-cbb4b4f6cb97","geometry":{"type":"Polygon","coordinates":[[[2208, 798],[2208, 846],[2720, 846],[2720, 798],[2208, 798]]]},"properties":{"objectType":"annotation","name":"company","classification":{"name":"company","color":[255, 0, 0]}}}]}