{"type":"FeatureCollection","features":[{"type":"Feature","id":"109f2940-2061-4723-a2d9-cf1d02c7f943","geometry":{"type":"Polygon","coordinates":[[[179, 230],[179, 263],[515, 263],[515, 230],[179, 230]]]},"properties":{"objectType":"annotation","name":"address","classification":{"name":"address","color":[0, 0, 255]}}},{"type":"Feature","id":"8347dccf-e316-441a-a8bf-cbded1a65a54","geometry":{"type":"Polygon","coordinates":[[[500, 973],[500, 1030],[581, 1030],[581, 973],[500, 973]]]},"properties":{"objectType":"annotation","name":"total","classification":{"name":"total","color":[255, 255, 0]}}},{"type":"Feature","id":"86e15a6b-2a12-4aed-b3f4-2d5e325fb914","geometry":{"type":"Polygon","coordinates":[[[102, 548],[102, 582],[260, 582],[260, 548],[102, 548]]]},"properties":{"objectType":"annotation","name":"date","classification":{"name":"date","color":[0, 255, 0]}}},{"type":"Feature","id":"5e80c8fc-3e4c-48fd-8156-93ab76c519ba","geometry":{"type":"Polygon","coordinates":[[[276, 156],[276, 192],[549, 192],[549, 156],[276, 156]]]},"properties":{"objectType":"annotation","name":"company","classification":{"name":"company","color":[255, 0, 0]}}}]}