{"type":"FeatureCollection","features":[{"type":"Feature","id":"ff43387e-469c-487b-b2f1-dbb37632bf99","geometry":{"type":"Polygon","coordinates":[[[669, 1425],[669, 1456],[755, 1456],[755, 1425],[669, 1425]]]},"properties":{"objectType":"annotation","name":"total","classification":{"name":"total","color":[255, 255, 0]}}},{"type":"Feature","id":"b7b566ae-eebc-4676-ae83-b32f1d09e1a5","geometry":{"type":"Polygon","coordinates":[[[662, 698],[662, 728],[834, 728],[834, 698],[662, 698]]]},"properties":{"objectType":"annotation","name":"date","classification":{"name":"date","color":[0, 255, 0]}}},{"type":"Feature","id":"752bfcf4-a5db-4283-8776-346279eee12b","geometry":{"type":"Polygon","coordinates":[[[241, 320],[241, 445],[677, 445],[677, 320],[241, 320]]]},"properties":{"objectType":"annotation","name":"address","classification":{"name":"address","color":[0, 0, 255]}}},{"type":"Feature","id":"fc2ce7f7-cfc7-4bb8-81a0-caf1a02c8c02","geometry":{"type":"Polygon","coordinates":[[[92, 217],[92, 255],[829, 255],[829, 217],[92, 217]]]},"properties":{"objectType":"annotation","name":"company","classification":{"name":"company","color":[255, 0, 0]}}}]}