{"type":"FeatureCollection","features":[{"type":"Feature","id":"2781b836-ed39-4e3a-983c-9f2984abf785","geometry":{"type":"Polygon","coordinates":[[[577, 1015],[577, 1044],[666, 1044],[666, 1015],[577, 1015]]]},"properties":{"objectType":"annotation","name":"total","classification":{"name":"total","color":[255, 255, 0]}}},{"type":"Feature","id":"eb0ab266-db5b-4d6a-bcc7-cd284ba69118","geometry":{"type":"Polygon","coordinates":[[[33, 491],[33, 523],[177, 523],[177, 491],[33, 491]]]},"properties":{"objectType":"annotation","name":"date","classification":{"name":"date","color":[0, 255, 0]}}},{"type":"Feature","id":"9b214277-e320-4ae2-9655-9242c731f796","geometry":{"type":"Polygon","coordinates":[[[54, 292],[54, 362],[663, 362],[663, 292],[54, 292]]]},"properties":{"objectType":"annotation","name":"address","classification":{"name":"address","color":[0, 0, 255]}}},{"type":"Feature","id":"a4640fe2-481a-4e5f-8b31-c114328bc765","geometry":{"type":"Polygon","coordinates":[[[114, 93],[114, 207],[644, 207],[644, 93],[114, 93]]]},"properties":{"objectType":"annotation","name":"company","classification":{"name":"company","color":[255, 0, 0]}}}]}