{"type":"FeatureCollection","features":[{"type":"Feature","id":"f5d7b2da-55d9-474f-9517-034bda7b3431","geometry":{"type":"Polygon","coordinates":[[[466, 1077],[466, 1109],[588, 1109],[588, 1077],[466, 1077]]]},"properties":{"objectType":"annotation","name":"total","classification":{"name":"total","color":[255, 255, 0]}}},{"type":"Feature","id":"8f92aca4-f05e-4e9f-878d-198d46e27d5d","geometry":{"type":"Polygon","coordinates":[[[368, 530],[368, 560],[522, 560],[522, 530],[368, 530]]]},"properties":{"objectType":"annotation","name":"date","classification":{"name":"date","color":[0, 255, 0]}}},{"type":"Feature","id":"be2abb7c-91d7-4277-9fbc-bef20a66eb28","geometry":{"type":"Polygon","coordinates":[[[144, 279],[144, 389],[543, 389],[543, 279],[144, 279]]]},"properties":{"objectType":"annotation","name":"address","classification":{"name":"address","color":[0, 0, 255]}}},{"type":"Feature","id":"2d31ad55-b2f7-4949-9790-cbe14e16c898","geometry":{"type":"Polygon","coordinates":[[[153, 235],[153, 272],[530, 272],[530, 235],[153, 235]]]},"properties":{"objectType":"annotation","name":"company","classification":{"name":"company","color":[255, 0, 0]}}}]}