{"type":"FeatureCollection","features":[{"type":"Feature","id":"a1679f7e-e91f-40cd-8901-76fc0aa0f210","geometry":{"type":"Polygon","coordinates":[[[150, 133],[150, 154],[472, 154],[472, 133],[150, 133]]]},"properties":{"objectType":"annotation","name":"company","classification":{"name":"company","color":[255, 0, 0]}}},{"type":"Feature","id":"406129aa-f9bb-4ff6-9bf2-62b426dc44da","geometry":{"type":"Polygon","coordinates":[[[441, 599],[441, 617],[502, 617],[502, 599],[441, 599]]]},"properties":{"objectType":"annotation","name":"total","classification":{"name":"total","color":[255, 255, 0]}}},{"type":"Feature","id":"4a2f7ef6-dcda-4348-b15c-046788d43d6e","geometry":{"type":"Polygon","coordinates":[[[116, 338],[116, 356],[211, 356],[211, 338],[116, 338]]]},"properties":{"objectType":"annotation","name":"date","classification":{"name":"date","color":[0, 255, 0]}}},{"type":"Feature","id":"693b76cd-325d-4bbc-9e9f-dc5b61794373","geometry":{"type":"Polygon","coordinates":[[[135, 179],[135, 270],[490, 270],[490, 179],[135, 179]]]},"properties":{"objectType":"annotation","name":"address","classification":{"name":"address","color":[0, 0, 255]}}}]}