{"type":"FeatureCollection","features":[{"type":"Feature","id":"5a54d677-973b-4d64-a734-af918f429b01","geometry":{"type":"Polygon","coordinates":[[[220, 452],[220, 481],[364, 481],[364, 452],[220, 452]]]},"properties":{"objectType":"annotation","name":"date","classification":{"name":"date","color":[0, 255, 0]}}},{"type":"Feature","id":"e131f04a-342b-48c5-a9d0-b1fe017b45ce","geometry":{"type":"Polygon","coordinates":[[[111, 209],[111, 279],[600, 279],[600, 209],[111, 209]]]},"properties":{"objectType":"annotation","name":"address","classification":{"name":"address","color":[0, 0, 255]}}},{"type":"Feature","id":"cdf85e03-eeda-4aa9-9bb0-61f2742bbc64","geometry":{"type":"Polygon","coordinates":[[[146, 168],[146, 199],[567, 199],[567, 168],[146, 168]]]},"properties":{"objectType":"annotation","name":"company","classification":{"name":"company","color":[255, 0, 0]}}},{"type":"Feature","id":"f9aec8dd-2a2d-4211-8929-1a9382bd2fc2","geometry":{"type":"Polygon","coordinates":[[[604, 777],[604, 799],[664, 799],[664, 777],[604, 777]]]},"properties":{"objectType":"annotation","name":"total","classification":{"name":"total","color":[255, 255, 0]}}}]}