{"type":"FeatureCollection","features":[{"type":"Feature","id":"37528003-93ac-4789-88e0-44503e4a22ff","geometry":{"type":"Polygon","coordinates":[[[54, 920],[54, 955],[195, 955],[195, 920],[54, 920]]]},"properties":{"objectType":"annotation","name":"date","classification":{"name":"date","color":[0, 255, 0]}}},{"type":"Feature","id":"26dc3de0-e08d-458d-95df-9c0cdd5d3112","geometry":{"type":"Polygon","coordinates":[[[568, 657],[568, 684],[624, 684],[624, 657],[568, 657]]]},"properties":{"objectType":"annotation","name":"total","classification":{"name":"total","color":[255, 255, 0]}}},{"type":"Feature","id":"d20dd5ac-1bd8-43d4-bad9-ce4aa3931a66","geometry":{"type":"Polygon","coordinates":[[[123, 140],[123, 255],[533, 255],[533, 140],[123, 140]]]},"properties":{"objectType":"annotation","name":"address","classification":{"name":"address","color":[0, 0, 255]}}},{"type":"Feature","id":"8901179f-94ab-41cb-90be-e408dd259efa","geometry":{"type":"Polygon","coordinates":[[[137, 102],[137, 136],[375, 136],[375, 102],[137, 102]]]},"properties":{"objectType":"annotation","name":"company","classification":{"name":"company","color":[255, 0, 0]}}}]}