{"type":"FeatureCollection","features":[{"type":"Feature","id":"f2f0257d-eae7-48d7-8824-b3076a2c9375","geometry":{"type":"Polygon","coordinates":[[[208, 696],[208, 731],[386, 731],[386, 696],[208, 696]]]},"properties":{"objectType":"annotation","name":"date","classification":{"name":"date","color":[0, 255, 0]}}},{"type":"Feature","id":"afb50cf5-1475-4e35-96ee-564350cf5643","geometry":{"type":"Polygon","coordinates":[[[121, 352],[121, 479],[699, 479],[699, 352],[121, 352]]]},"properties":{"objectType":"annotation","name":"address","classification":{"name":"address","color":[0, 0, 255]}}},{"type":"Feature","id":"c9ac5a53-1d1a-4b55-86a2-5551d45065dd","geometry":{"type":"Polygon","coordinates":[[[614, 1247],[614, 1281],[752, 1281],[752, 1247],[614, 1247]]]},"properties":{"objectType":"annotation","name":"total","classification":{"name":"total","color":[255, 255, 0]}}},{"type":"Feature","id":"88d4f6e1-c318-4f22-9310-ff22ced4c00c","geometry":{"type":"Polygon","coordinates":[[[243, 269],[243, 305],[563, 305],[563, 269],[243, 269]]]},"properties":{"objectType":"annotation","name":"company","classification":{"name":"company","color":[255, 0, 0]}}}]}