{"type":"FeatureCollection","features":[{"type":"Feature","id":"fb55d3f1-ee82-44f6-b525-160c05ab8dad","geometry":{"type":"Polygon","coordinates":[[[636, 935],[636, 983],[705, 983],[705, 935],[636, 935]]]},"properties":{"objectType":"annotation","name":"total","classification":{"name":"total","color":[255, 255, 0]}}},{"type":"Feature","id":"db6ee825-2c48-41c5-879b-3153212fe3e3","geometry":{"type":"Polygon","coordinates":[[[152, 586],[152, 616],[294, 616],[294, 586],[152, 586]]]},"properties":{"objectType":"annotation","name":"date","classification":{"name":"date","color":[0, 255, 0]}}},{"type":"Feature","id":"dc1366ce-7eaa-4bba-a466-535da32d174c","geometry":{"type":"Polygon","coordinates":[[[140, 375],[140, 437],[591, 437],[591, 375],[140, 375]]]},"properties":{"objectType":"annotation","name":"address","classification":{"name":"address","color":[0, 0, 255]}}},{"type":"Feature","id":"e6f06c41-ef2b-4538-9ad2-78dd1bb2d93a","geometry":{"type":"Polygon","coordinates":[[[111, 268],[111, 298],[647, 298],[647, 268],[111, 268]]]},"properties":{"objectType":"annotation","name":"company","classification":{"name":"company","color":[255, 0, 0]}}}]}