{"type":"FeatureCollection","features":[{"type":"Feature","id":"73f93a8b-c11f-443b-a74e-9c1ab51158fc","geometry":{"type":"Polygon","coordinates":[[[8, 1180],[8, 1207],[133, 1207],[133, 1180],[8, 1180]]]},"properties":{"objectType":"annotation","name":"date","classification":{"name":"date","color":[0, 255, 0]}}},{"type":"Feature","id":"0fdd4296-e09f-4372-a66a-4403d1090d59","geometry":{"type":"Polygon","coordinates":[[[575, 981],[575, 1009],[655, 1009],[655, 981],[575, 981]]]},"properties":{"objectType":"annotation","name":"total","classification":{"name":"total","color":[255, 255, 0]}}},{"type":"Feature","id":"8a57c503-d50b-42d4-9177-f7483e908d85","geometry":{"type":"Polygon","coordinates":[[[47, 339],[47, 438],[582, 438],[582, 339],[47, 339]]]},"properties":{"objectType":"annotation","name":"address","classification":{"name":"address","color":[0, 0, 255]}}},{"type":"Feature","id":"c3325c66-8cde-4812-b790-72537e3a2e4e","geometry":{"type":"Polygon","coordinates":[[[142, 273],[142, 305],[503, 305],[503, 273],[142, 273]]]},"properties":{"objectType":"annotation","name":"company","classification":{"name":"company","color":[255, 0, 0]}}}]}