{"type":"FeatureCollection","features":[{"type":"Feature","id":"a0e97e66-2040-4088-86c9-3a6b5d2b9802","geometry":{"type":"Polygon","coordinates":[[[485, 798],[485, 825],[552, 825],[552, 798],[485, 798]]]},"properties":{"objectType":"annotation","name":"total","classification":{"name":"total","color":[255, 255, 0]}}},{"type":"Feature","id":"3b516945-a61a-4e9d-b9d2-d625c61b4381","geometry":{"type":"Polygon","coordinates":[[[274, 536],[274, 565],[406, 565],[406, 536],[274, 536]]]},"properties":{"objectType":"annotation","name":"date","classification":{"name":"date","color":[0, 255, 0]}}},{"type":"Feature","id":"c6a11cd1-8854-4b95-81af-5d62b8902bd5","geometry":{"type":"Polygon","coordinates":[[[33, 178],[33, 273],[553, 273],[553, 178],[33, 178]]]},"properties":{"objectType":"annotation","name":"address","classification":{"name":"address","color":[0, 0, 255]}}},{"type":"Feature","id":"7a7b851b-746e-4e86-a2b9-c401bb40cb9f","geometry":{"type":"Polygon","coordinates":[[[72, 81],[72, 108],[500, 108],[500, 81],[72, 81]]]},"properties":{"objectType":"annotation","name":"company","classification":{"name":"company","color":[255, 0, 0]}}}]}