{"type":"FeatureCollection","features":[{"type":"Feature","id":"fb5636a7-4dd9-4a21-a1c6-1e59108fb633","geometry":{"type":"Polygon","coordinates":[[[259, 337],[259, 374],[632, 374],[632, 337],[259, 337]]]},"properties":{"objectType":"annotation","name":"company","classification":{"name":"company","color":[255, 0, 0]}}},{"type":"Feature","id":"a44aa77c-0f45-45d4-b862-1757cff70f6a","geometry":{"type":"Polygon","coordinates":[[[33, 1314],[33, 1349],[194, 1349],[194, 1314],[33, 1314]]]},"properties":{"objectType":"annotation","name":"date","classification":{"name":"date","color":[0, 255, 0]}}},{"type":"Feature","id":"4c914a80-b56e-4731-b492-c3f024e919c1","geometry":{"type":"Polygon","coordinates":[[[775, 980],[775, 1013],[857, 1013],[857, 980],[775, 980]]]},"properties":{"objectType":"annotation","name":"total","classification":{"name":"total","color":[255, 255, 0]}}},{"type":"Feature","id":"cdf548c9-470d-4ec1-9292-ae3ed42056a3","geometry":{"type":"Polygon","coordinates":[[[95, 423],[95, 547],[769, 547],[769, 423],[95, 423]]]},"properties":{"objectType":"annotation","name":"address","classification":{"name":"address","color":[0, 0, 255]}}}]}