{"type":"FeatureCollection","features":[{"type":"Feature","id":"843be395-1ee8-429b-a27f-daaf2824fd30","geometry":{"type":"Polygon","coordinates":[[[2966, 2856],[2966, 2904],[3074, 2904],[3074, 2856],[2966, 2856]]]},"properties":{"objectType":"annotation","name":"total","classification":{"name":"total","color":[255, 255, 0]}}},{"type":"Feature","id":"48916a66-03dc-472e-988e-4d0c8c83e95d","geometry":{"type":"Polygon","coordinates":[[[1776, 1785],[1776, 1939],[2915, 1939],[2915, 1785],[1776, 1785]]]},"properties":{"objectType":"annotation","name":"address","classification":{"name":"address","color":[0, 0, 255]}}},{"type":"Feature","id":"9a63464a-8cb6-4a01-aef0-97ec07b961c2","geometry":{"type":"Polygon","coordinates":[[[2112, 1622],[2112, 1689],[2419, 1689],[2419, 1622],[2112, 1622]]]},"properties":{"objectType":"annotation","name":"date","classification":{"name":"date","color":[0, 255, 0]}}},{"type":"Feature","id":"56cb1210-8990-4306-9654-c5bb4463dd3d","geometry":{"type":"Polygon","coordinates":[[[1683, 1538],[1683, 1610],[3005, 1610],[3005, 1538],[1683, 1538]]]},"properties":{"objectType":"annotation","name":"company","classification":{"name":"company","color":[255, 0, 0]}}}]}