{"type":"FeatureCollection","features":[{"type":"Feature","id":"da4d9d5c-c2b4-40d6-8b02-64dd0ea2da9b","geometry":{"type":"Polygon","coordinates":[[[625, 604],[625, 616],[650, 616],[650, 604],[625, 604]]]},"properties":{"objectType":"annotation","name":"total","classification":{"name":"total","color":[255, 255, 0]}}},{"type":"Feature","id":"b1063f90-a5c0-4d00-93b0-7d9353c9c3af","geometry":{"type":"Polygon","coordinates":[[[369, 370],[369, 402],[619, 402],[619, 370],[369, 370]]]},"properties":{"objectType":"annotation","name":"address","classification":{"name":"address","color":[0, 0, 255]}}},{"type":"Feature","id":"9f8e05a1-6b27-4a16-9df5-96a450a4498e","geometry":{"type":"Polygon","coordinates":[[[350, 317],[350, 332],[639, 332],[639, 317],[350, 317]]]},"properties":{"objectType":"annotation","name":"company","classification":{"name":"company","color":[255, 0, 0]}}},{"type":"Feature","id":"5020e11b-bb9e-4b9d-85c8-7a9cb3d28d74","geometry":{"type":"Polygon","coordinates":[[[441, 334],[441, 347],[512, 347],[512, 334],[441, 334]]]},"properties":{"objectType":"annotation","name":"date","classification":{"name":"date","color":[0, 255, 0]}}}]}