{"type":"FeatureCollection","features":[{"type":"Feature","id":"e096d785-ef13-4cb8-9a77-d6dcb70fe9ff","geometry":{"type":"Polygon","coordinates":[[[509, 953],[509, 979],[580, 979],[580, 953],[509, 953]]]},"properties":{"objectType":"annotation","name":"total","classification":{"name":"total","color":[255, 255, 0]}}},{"type":"Feature","id":"a089ff1c-a6f3-4784-8577-eface469df08","geometry":{"type":"Polygon","coordinates":[[[495, 636],[495, 663],[609, 663],[609, 636],[495, 636]]]},"properties":{"objectType":"annotation","name":"date","classification":{"name":"date","color":[0, 255, 0]}}},{"type":"Feature","id":"9988e724-1493-4dc7-a7ed-c9c2b6346118","geometry":{"type":"Polygon","coordinates":[[[133, 314],[133, 429],[511, 429],[511, 314],[133, 314]]]},"properties":{"objectType":"annotation","name":"address","classification":{"name":"address","color":[0, 0, 255]}}},{"type":"Feature","id":"bc8be836-0b64-41bd-9b34-63ca43fb063f","geometry":{"type":"Polygon","coordinates":[[[123, 274],[123, 308],[364, 308],[364, 274],[123, 274]]]},"properties":{"objectType":"annotation","name":"company","classification":{"name":"company","color":[255, 0, 0]}}}]}