{"type":"FeatureCollection","features":[{"type":"Feature","id":"5a39df9c-f6d9-4ffe-af94-e1e13086f639","geometry":{"type":"Polygon","coordinates":[[[668, 1645],[668, 1675],[755, 1675],[755, 1645],[668, 1645]]]},"properties":{"objectType":"annotation","name":"total","classification":{"name":"total","color":[255, 255, 0]}}},{"type":"Feature","id":"ee7219dc-9f52-405e-bdee-d75c06c03973","geometry":{"type":"Polygon","coordinates":[[[661, 693],[661, 724],[832, 724],[832, 693],[661, 693]]]},"properties":{"objectType":"annotation","name":"date","classification":{"name":"date","color":[0, 255, 0]}}},{"type":"Feature","id":"b6bc7188-7eca-4012-b81a-c79b1165a12b","geometry":{"type":"Polygon","coordinates":[[[240, 317],[240, 445],[675, 445],[675, 317],[240, 317]]]},"properties":{"objectType":"annotation","name":"address","classification":{"name":"address","color":[0, 0, 255]}}},{"type":"Feature","id":"0bb106e9-cbf8-4a78-95b6-20a16a40f545","geometry":{"type":"Polygon","coordinates":[[[90, 215],[90, 253],[828, 253],[828, 215],[90, 215]]]},"properties":{"objectType":"annotation","name":"company","classification":{"name":"company","color":[255, 0, 0]}}}]}