{"type":"FeatureCollection","features":[{"type":"Feature","id":"40f5b385-4760-4512-b936-f2902e25331f","geometry":{"type":"Polygon","coordinates":[[[439, 1019],[439, 1042],[520, 1042],[520, 1019],[439, 1019]]]},"properties":{"objectType":"annotation","name":"total","classification":{"name":"total","color":[255, 255, 0]}}},{"type":"Feature","id":"e14066a8-f950-4c3b-8600-ccd39548df20","geometry":{"type":"Polygon","coordinates":[[[247, 652],[247, 676],[381, 676],[381, 652],[247, 652]]]},"properties":{"objectType":"annotation","name":"date","classification":{"name":"date","color":[0, 255, 0]}}},{"type":"Feature","id":"dc2fe85a-9d85-46cb-a148-f4c60021e1b6","geometry":{"type":"Polygon","coordinates":[[[206, 279],[206, 430],[501, 430],[501, 279],[206, 279]]]},"properties":{"objectType":"annotation","name":"address","classification":{"name":"address","color":[0, 0, 255]}}},{"type":"Feature","id":"bede2091-0b0a-4007-b586-b718482c4554","geometry":{"type":"Polygon","coordinates":[[[134, 230],[134, 267],[577, 267],[577, 230],[134, 230]]]},"properties":{"objectType":"annotation","name":"company","classification":{"name":"company","color":[255, 0, 0]}}}]}