{"type":"FeatureCollection","features":[{"type":"Feature","id":"708f0261-4f8a-4617-b6c5-d44bfd61cb8d","geometry":{"type":"Polygon","coordinates":[[[3021, 2657],[3021, 2728],[3153, 2728],[3153, 2657],[3021, 2657]]]},"properties":{"objectType":"annotation","name":"total","classification":{"name":"total","color":[255, 255, 0]}}},{"type":"Feature","id":"4c9423df-ffd8-4c3c-ae2d-3a5faa736c21","geometry":{"type":"Polygon","coordinates":[[[1748, 3350],[1748, 3434],[2091, 3434],[2091, 3350],[1748, 3350]]]},"properties":{"objectType":"annotation","name":"date","classification":{"name":"date","color":[0, 255, 0]}}},{"type":"Feature","id":"342d2ccb-2ddc-49fd-93be-99b190e13592","geometry":{"type":"Polygon","coordinates":[[[2039, 1176],[2039, 1454],[3056, 1454],[3056, 1176],[2039, 1176]]]},"properties":{"objectType":"annotation","name":"address","classification":{"name":"address","color":[0, 0, 255]}}},{"type":"Feature","id":"b70be611-9724-459a-a0a7-414f4a06d484","geometry":{"type":"Polygon","coordinates":[[[2075, 1078],[2075, 1157],[2635, 1157],[2635, 1078],[2075, 1078]]]},"properties":{"objectType":"annotation","name":"company","classification":{"name":"company","color":[255, 0, 0]}}}]}