{"type":"FeatureCollection","features":[{"type":"Feature","id":"6ec35bd7-5e7e-4977-97c6-b8b5842c7a3b","geometry":{"type":"Polygon","coordinates":[[[1713, 5757],[1713, 5838],[2062, 5838],[2062, 5757],[1713, 5757]]]},"properties":{"objectType":"annotation","name":"date","classification":{"name":"date","color":[0, 255, 0]}}},{"type":"Feature","id":"7a68d187-f719-427a-9646-2607dc5ed5fb","geometry":{"type":"Polygon","coordinates":[[[2915, 4968],[2915, 5038],[3116, 5038],[3116, 4968],[2915, 4968]]]},"properties":{"objectType":"annotation","name":"total","classification":{"name":"total","color":[255, 255, 0]}}},{"type":"Feature","id":"5d1f1a40-19fe-4975-a9d6-00df8d5c737c","geometry":{"type":"Polygon","coordinates":[[[1997, 435],[1997, 712],[3015, 712],[3015, 435],[1997, 435]]]},"properties":{"objectType":"annotation","name":"address","classification":{"name":"address","color":[0, 0, 255]}}},{"type":"Feature","id":"f0d764b6-f70f-4b0a-be30-bbeb97c7a59b","geometry":{"type":"Polygon","coordinates":[[[2032, 338],[2032, 422],[2592, 422],[2592, 338],[2032, 338]]]},"properties":{"objectType":"annotation","name":"company","classification":{"name":"company","color":[255, 0, 0]}}}]}