{"type":"FeatureCollection","features":[{"type":"Feature","id":"e5087178-ebbc-438f-bebf-15f1e8eda0a0","geometry":{"type":"Polygon","coordinates":[[[3124, 2814],[3124, 2863],[3232, 2863],[3232, 2814],[3124, 2814]]]},"properties":{"objectType":"annotation","name":"total","classification":{"name":"total","color":[255, 255, 0]}}},{"type":"Feature","id":"ee5da792-eea4-410e-9808-b87fc95b5d6e","geometry":{"type":"Polygon","coordinates":[[[1938, 1962],[1938, 2117],[3073, 2117],[3073, 1962],[1938, 1962]]]},"properties":{"objectType":"annotation","name":"address","classification":{"name":"address","color":[0, 0, 255]}}},{"type":"Feature","id":"395ae688-52ee-4fe0-a0a4-378630a0726c","geometry":{"type":"Polygon","coordinates":[[[2269, 1800],[2269, 1864],[2578, 1864],[2578, 1800],[2269, 1800]]]},"properties":{"objectType":"annotation","name":"date","classification":{"name":"date","color":[0, 255, 0]}}},{"type":"Feature","id":"3c30c4d4-73e0-4990-b82c-14465034a686","geometry":{"type":"Polygon","coordinates":[[[1843, 1716],[1843, 1784],[3165, 1784],[3165, 1716],[1843, 1716]]]},"properties":{"objectType":"annotation","name":"company","classification":{"name":"company","color":[255, 0, 0]}}}]}