{"type":"FeatureCollection","features":[{"type":"Feature","id":"7151f099-cbe0-47a0-a755-19ee5825ae6b","geometry":{"type":"Polygon","coordinates":[[[126, 185],[126, 291],[826, 291],[826, 185],[126, 185]]]},"properties":{"objectType":"annotation","name":"company","classification":{"name":"company","color":[255, 0, 0]}}},{"type":"Feature","id":"90b07830-d247-40e5-bb37-9b206f22c311","geometry":{"type":"Polygon","coordinates":[[[285, 584],[285, 616],[468, 616],[468, 584],[285, 584]]]},"properties":{"objectType":"annotation","name":"date","classification":{"name":"date","color":[0, 255, 0]}}},{"type":"Feature","id":"fd60f20b-fc78-4e85-8814-6a4fe92ac0a7","geometry":{"type":"Polygon","coordinates":[[[125, 353],[125, 424],[825, 424],[825, 353],[125, 353]]]},"properties":{"objectType":"annotation","name":"address","classification":{"name":"address","color":[0, 0, 255]}}},{"type":"Feature","id":"72fe1bab-4e3b-4a04-9344-ab88567af85d","geometry":{"type":"Polygon","coordinates":[[[779, 1515],[779, 1549],[862, 1549],[862, 1515],[779, 1515]]]},"properties":{"objectType":"annotation","name":"total","classification":{"name":"total","color":[255, 255, 0]}}}]}