{"type":"FeatureCollection","features":[{"type":"Feature","id":"04459211-7278-4e65-8cec-4ba172fb5974","geometry":{"type":"Polygon","coordinates":[[[660, 1524],[660, 1554],[763, 1554],[763, 1524],[660, 1524]]]},"properties":{"objectType":"annotation","name":"total","classification":{"name":"total","color":[255, 255, 0]}}},{"type":"Feature","id":"2e2dfc8d-2738-41b1-b9cd-48922cb0fcb8","geometry":{"type":"Polygon","coordinates":[[[673, 693],[673, 723],[840, 723],[840, 693],[673, 693]]]},"properties":{"objectType":"annotation","name":"date","classification":{"name":"date","color":[0, 255, 0]}}},{"type":"Feature","id":"cb506d10-af67-458b-9408-7cfd3de17f53","geometry":{"type":"Polygon","coordinates":[[[249, 317],[249, 444],[685, 444],[685, 317],[249, 317]]]},"properties":{"objectType":"annotation","name":"address","classification":{"name":"address","color":[0, 0, 255]}}},{"type":"Feature","id":"f5a55fda-4e24-40ce-b8ce-572e1066bfea","geometry":{"type":"Polygon","coordinates":[[[99, 214],[99, 252],[837, 252],[837, 214],[99, 214]]]},"properties":{"objectType":"annotation","name":"company","classification":{"name":"company","color":[255, 0, 0]}}}]}