{"type":"FeatureCollection","features":[{"type":"Feature","id":"ebe54150-e1f7-45a6-8a32-c675482deb94","geometry":{"type":"Polygon","coordinates":[[[463, 1353],[463, 1380],[540, 1380],[540, 1353],[463, 1353]]]},"properties":{"objectType":"annotation","name":"total","classification":{"name":"total","color":[255, 255, 0]}}},{"type":"Feature","id":"8203a604-e3b4-43a7-9944-3c99e9f3ba3f","geometry":{"type":"Polygon","coordinates":[[[262, 671],[262, 699],[384, 699],[384, 671],[262, 671]]]},"properties":{"objectType":"annotation","name":"date","classification":{"name":"date","color":[0, 255, 0]}}},{"type":"Feature","id":"835a7ed1-36f9-40a1-be33-6ca8afd34e4d","geometry":{"type":"Polygon","coordinates":[[[62, 307],[62, 337],[397, 337],[397, 307],[62, 307]]]},"properties":{"objectType":"annotation","name":"company","classification":{"name":"company","color":[255, 0, 0]}}},{"type":"Feature","id":"5fdd60b4-3cbc-466c-b639-2d41046bf4d5","geometry":{"type":"Polygon","coordinates":[[[63, 387],[63, 464],[485, 464],[485, 387],[63, 387]]]},"properties":{"objectType":"annotation","name":"address","classification":{"name":"address","color":[0, 0, 255]}}}]}