{"type":"FeatureCollection","features":[{"type":"Feature","id":"e0858a93-598d-4ab9-b41c-9d3eac4be0a1","geometry":{"type":"Polygon","coordinates":[[[520, 928],[520, 954],[590, 954],[590, 928],[520, 928]]]},"properties":{"objectType":"annotation","name":"total","classification":{"name":"total","color":[255, 255, 0]}}},{"type":"Feature","id":"f72464a5-5f46-4b9f-a3e3-fe9566caea0a","geometry":{"type":"Polygon","coordinates":[[[505, 732],[505, 758],[618, 758],[618, 732],[505, 732]]]},"properties":{"objectType":"annotation","name":"date","classification":{"name":"date","color":[0, 255, 0]}}},{"type":"Feature","id":"4e39db58-d5cf-444a-a0d2-7e6462fad1e1","geometry":{"type":"Polygon","coordinates":[[[136, 419],[136, 563],[516, 563],[516, 419],[136, 419]]]},"properties":{"objectType":"annotation","name":"address","classification":{"name":"address","color":[0, 0, 255]}}},{"type":"Feature","id":"213f7574-f0de-41b5-8a26-f24dc4f7be28","geometry":{"type":"Polygon","coordinates":[[[122, 379],[122, 406],[362, 406],[362, 379],[122, 379]]]},"properties":{"objectType":"annotation","name":"company","classification":{"name":"company","color":[255, 0, 0]}}}]}