{"type":"FeatureCollection","features":[{"type":"Feature","id":"ed7cfcba-0999-4166-8ef7-fe081fa1281d","geometry":{"type":"Polygon","coordinates":[[[147, 132],[147, 154],[471, 154],[471, 132],[147, 132]]]},"properties":{"objectType":"annotation","name":"company","classification":{"name":"company","color":[255, 0, 0]}}},{"type":"Feature","id":"835e943c-0759-4537-a65c-6f8d4b201a4f","geometry":{"type":"Polygon","coordinates":[[[133, 181],[133, 268],[490, 268],[490, 181],[133, 181]]]},"properties":{"objectType":"annotation","name":"address","classification":{"name":"address","color":[0, 0, 255]}}},{"type":"Feature","id":"1db11f3a-b08d-467e-be9c-1255de494c9f","geometry":{"type":"Polygon","coordinates":[[[451, 541],[451, 559],[501, 559],[501, 541],[451, 541]]]},"properties":{"objectType":"annotation","name":"total","classification":{"name":"total","color":[255, 255, 0]}}},{"type":"Feature","id":"32af56e7-5d60-47a1-9a4a-d2addca55759","geometry":{"type":"Polygon","coordinates":[[[116, 337],[116, 355],[211, 355],[211, 337],[116, 337]]]},"properties":{"objectType":"annotation","name":"date","classification":{"name":"date","color":[0, 255, 0]}}}]}