{"type":"FeatureCollection","features":[{"type":"Feature","id":"961111c1-d6a3-4370-bd11-fa66167b6a4e","geometry":{"type":"Polygon","coordinates":[[[183, 182],[183, 210],[501, 210],[501, 182],[183, 182]]]},"properties":{"objectType":"annotation","name":"company","classification":{"name":"company","color":[255, 0, 0]}}},{"type":"Feature","id":"2fcd24a2-a182-4e58-8040-aca2f1f31a48","geometry":{"type":"Polygon","coordinates":[[[568, 1449],[568, 1476],[650, 1476],[650, 1449],[568, 1449]]]},"properties":{"objectType":"annotation","name":"total","classification":{"name":"total","color":[255, 255, 0]}}},{"type":"Feature","id":"c447daaa-d879-43f4-b660-9f42d43b7c58","geometry":{"type":"Polygon","coordinates":[[[380, 559],[380, 585],[515, 585],[515, 559],[380, 559]]]},"properties":{"objectType":"annotation","name":"date","classification":{"name":"date","color":[0, 255, 0]}}},{"type":"Feature","id":"24554ed9-d563-4c5a-8b98-fb6678dca06e","geometry":{"type":"Polygon","coordinates":[[[103, 244],[103, 341],[586, 341],[586, 244],[103, 244]]]},"properties":{"objectType":"annotation","name":"address","classification":{"name":"address","color":[0, 0, 255]}}}]}