{"type":"FeatureCollection","features":[{"type":"Feature","id":"2bc4b79c-b5c1-4424-b22d-4c3616d6b6cb","geometry":{"type":"Polygon","coordinates":[[[457, 1220],[457, 1246],[600, 1246],[600, 1220],[457, 1220]]]},"properties":{"objectType":"annotation","name":"total","classification":{"name":"total","color":[255, 255, 0]}}},{"type":"Feature","id":"8d7388da-6784-4435-b6d0-e9329f452289","geometry":{"type":"Polygon","coordinates":[[[353, 650],[353, 678],[495, 678],[495, 650],[353, 650]]]},"properties":{"objectType":"annotation","name":"date","classification":{"name":"date","color":[0, 255, 0]}}},{"type":"Feature","id":"7a7970dc-c005-4f8d-babb-4f67038a2a4f","geometry":{"type":"Polygon","coordinates":[[[82, 246],[82, 280],[569, 280],[569, 246],[82, 246]]]},"properties":{"objectType":"annotation","name":"company","classification":{"name":"company","color":[255, 0, 0]}}},{"type":"Feature","id":"47d281bf-c917-4258-a972-61ba1e61c1d7","geometry":{"type":"Polygon","coordinates":[[[124, 327],[124, 439],[527, 439],[527, 327],[124, 327]]]},"properties":{"objectType":"annotation","name":"address","classification":{"name":"address","color":[0, 0, 255]}}}]}