{"type":"FeatureCollection","features":[{"type":"Feature","id":"f67355d3-9374-4860-8883-1bd0b3d91cea","geometry":{"type":"Polygon","coordinates":[[[501, 756],[501, 782],[644, 782],[644, 756],[501, 756]]]},"properties":{"objectType":"annotation","name":"total","classification":{"name":"total","color":[255, 255, 0]}}},{"type":"Feature","id":"164a264f-d78b-492c-bb05-eb34f3920d13","geometry":{"type":"Polygon","coordinates":[[[437, 515],[437, 542],[557, 542],[557, 515],[437, 515]]]},"properties":{"objectType":"annotation","name":"date","classification":{"name":"date","color":[0, 255, 0]}}},{"type":"Feature","id":"fbd46d0e-d65b-4627-ab5e-9accc737728a","geometry":{"type":"Polygon","coordinates":[[[59, 271],[59, 349],[629, 349],[629, 271],[59, 271]]]},"properties":{"objectType":"annotation","name":"address","classification":{"name":"address","color":[0, 0, 255]}}},{"type":"Feature","id":"1ad0ca52-490d-4a4e-8e9b-7a730bd0193f","geometry":{"type":"Polygon","coordinates":[[[119, 191],[119, 226],[588, 226],[588, 191],[119, 191]]]},"properties":{"objectType":"annotation","name":"company","classification":{"name":"company","color":[255, 0, 0]}}}]}