{"type":"FeatureCollection","features":[{"type":"Feature","id":"4a86c2bc-49fe-413b-aba8-648ddb0e3997","geometry":{"type":"Polygon","coordinates":[[[577, 1895],[577, 1963],[755, 1963],[755, 1895],[577, 1895]]]},"properties":{"objectType":"annotation","name":"total","classification":{"name":"total","color":[255, 255, 0]}}},{"type":"Feature","id":"9a8d5d6a-11ef-403c-883f-dd535ce66dac","geometry":{"type":"Polygon","coordinates":[[[209, 835],[209, 871],[388, 871],[388, 835],[209, 835]]]},"properties":{"objectType":"annotation","name":"date","classification":{"name":"date","color":[0, 255, 0]}}},{"type":"Feature","id":"1cf69eaf-cdf0-4f0d-bc53-20237939929f","geometry":{"type":"Polygon","coordinates":[[[192, 365],[192, 491],[595, 491],[595, 365],[192, 365]]]},"properties":{"objectType":"annotation","name":"address","classification":{"name":"address","color":[0, 0, 255]}}},{"type":"Feature","id":"2d24992f-3a4f-4a41-9fb4-5da46cad06d9","geometry":{"type":"Polygon","coordinates":[[[120, 319],[120, 357],[489, 357],[489, 319],[120, 319]]]},"properties":{"objectType":"annotation","name":"company","classification":{"name":"company","color":[255, 0, 0]}}}]}