{"type":"FeatureCollection","features":[{"type":"Feature","id":"6c566aab-cb79-482a-8223-6b31aea689f2","geometry":{"type":"Polygon","coordinates":[[[744, 966],[744, 1038],[843, 1038],[843, 966],[744, 966]]]},"properties":{"objectType":"annotation","name":"total","classification":{"name":"total","color":[255, 255, 0]}}},{"type":"Feature","id":"e0b00004-42a1-4c73-9fd2-2ce6807c0126","geometry":{"type":"Polygon","coordinates":[[[187, 519],[187, 557],[386, 557],[386, 519],[187, 519]]]},"properties":{"objectType":"annotation","name":"date","classification":{"name":"date","color":[0, 255, 0]}}},{"type":"Feature","id":"b4c135f3-6334-4025-8aa9-df48156f3f4d","geometry":{"type":"Polygon","coordinates":[[[48, 318],[48, 410],[884, 410],[884, 318],[48, 318]]]},"properties":{"objectType":"annotation","name":"address","classification":{"name":"address","color":[0, 0, 255]}}},{"type":"Feature","id":"9d4b4572-5526-46ea-a249-212d2aff6cf8","geometry":{"type":"Polygon","coordinates":[[[47, 189],[47, 271],[425, 271],[425, 189],[47, 189]]]},"properties":{"objectType":"annotation","name":"company","classification":{"name":"company","color":[255, 0, 0]}}}]}