{"type":"FeatureCollection","features":[{"type":"Feature","id":"5551aca2-675f-4f88-aebe-1a4fd9dea165","geometry":{"type":"Polygon","coordinates":[[[134, 178],[134, 215],[769, 215],[769, 178],[134, 178]]]},"properties":{"objectType":"annotation","name":"company","classification":{"name":"company","color":[255, 0, 0]}}},{"type":"Feature","id":"42293a6e-1f85-4042-86e2-385cc821e93f","geometry":{"type":"Polygon","coordinates":[[[721, 1272],[721, 1303],[806, 1303],[806, 1272],[721, 1272]]]},"properties":{"objectType":"annotation","name":"total","classification":{"name":"total","color":[255, 255, 0]}}},{"type":"Feature","id":"c342f865-fd1c-4b5f-8c16-d66aeeea0f0c","geometry":{"type":"Polygon","coordinates":[[[103, 511],[103, 542],[272, 542],[272, 511],[103, 511]]]},"properties":{"objectType":"annotation","name":"date","classification":{"name":"date","color":[0, 255, 0]}}},{"type":"Feature","id":"f881c827-a4d0-4911-9d35-fb599d92603b","geometry":{"type":"Polygon","coordinates":[[[175, 308],[175, 421],[724, 421],[724, 308],[175, 308]]]},"properties":{"objectType":"annotation","name":"address","classification":{"name":"address","color":[0, 0, 255]}}}]}