{"type":"FeatureCollection","features":[{"type":"Feature","id":"c181673f-dea3-4799-be00-120d47357e32","geometry":{"type":"Polygon","coordinates":[[[585, 893],[585, 926],[664, 926],[664, 893],[585, 893]]]},"properties":{"objectType":"annotation","name":"total","classification":{"name":"total","color":[255, 255, 0]}}},{"type":"Feature","id":"bd4b9cbb-2b4b-46c3-88e1-86d6c475568c","geometry":{"type":"Polygon","coordinates":[[[49, 627],[49, 657],[204, 657],[204, 627],[49, 627]]]},"properties":{"objectType":"annotation","name":"date","classification":{"name":"date","color":[0, 255, 0]}}},{"type":"Feature","id":"672fdd3c-db91-425f-8c56-6b45d78e7cf9","geometry":{"type":"Polygon","coordinates":[[[141, 302],[141, 423],[602, 423],[602, 302],[141, 302]]]},"properties":{"objectType":"annotation","name":"address","classification":{"name":"address","color":[0, 0, 255]}}},{"type":"Feature","id":"2586e23d-2cf5-4709-b19d-fd4d90fb9695","geometry":{"type":"Polygon","coordinates":[[[188, 262],[188, 303],[552, 303],[552, 262],[188, 262]]]},"properties":{"objectType":"annotation","name":"company","classification":{"name":"company","color":[255, 0, 0]}}}]}