{"type":"FeatureCollection","features":[{"type":"Feature","id":"87b5026c-5c1c-40c4-9eb5-a2efe5eab297","geometry":{"type":"Polygon","coordinates":[[[35, 1858],[35, 1893],[192, 1893],[192, 1858],[35, 1858]]]},"properties":{"objectType":"annotation","name":"date","classification":{"name":"date","color":[0, 255, 0]}}},{"type":"Feature","id":"7a03673b-10f1-480a-8690-a9af42073438","geometry":{"type":"Polygon","coordinates":[[[754, 1527],[754, 1561],[852, 1561],[852, 1527],[754, 1527]]]},"properties":{"objectType":"annotation","name":"total","classification":{"name":"total","color":[255, 255, 0]}}},{"type":"Feature","id":"6a2c1349-0940-4b46-aecc-5142a741ce7a","geometry":{"type":"Polygon","coordinates":[[[94, 419],[94, 584],[766, 584],[766, 419],[94, 419]]]},"properties":{"objectType":"annotation","name":"address","classification":{"name":"address","color":[0, 0, 255]}}},{"type":"Feature","id":"c728b85a-5611-43e7-bbf1-142cfa506b85","geometry":{"type":"Polygon","coordinates":[[[255, 376],[255, 416],[629, 416],[629, 376],[255, 376]]]},"properties":{"objectType":"annotation","name":"company","classification":{"name":"company","color":[255, 0, 0]}}}]}