{"type":"FeatureCollection","features":[{"type":"Feature","id":"9953f1b0-1a4a-4683-8eee-01425b870966","geometry":{"type":"Polygon","coordinates":[[[566, 1309],[566, 1337],[656, 1337],[656, 1309],[566, 1309]]]},"properties":{"objectType":"annotation","name":"total","classification":{"name":"total","color":[255, 255, 0]}}},{"type":"Feature","id":"56fe795b-ed36-4855-959f-6494f483a76c","geometry":{"type":"Polygon","coordinates":[[[277, 469],[277, 501],[440, 501],[440, 469],[277, 469]]]},"properties":{"objectType":"annotation","name":"date","classification":{"name":"date","color":[0, 255, 0]}}},{"type":"Feature","id":"50de6a49-1637-4d82-a49a-840f6254c464","geometry":{"type":"Polygon","coordinates":[[[153, 267],[153, 301],[532, 301],[532, 267],[153, 267]]]},"properties":{"objectType":"annotation","name":"address","classification":{"name":"address","color":[0, 0, 255]}}},{"type":"Feature","id":"d1f75186-841b-48e0-b5b0-c68b5b483254","geometry":{"type":"Polygon","coordinates":[[[138, 226],[138, 262],[542, 262],[542, 226],[138, 226]]]},"properties":{"objectType":"annotation","name":"company","classification":{"name":"company","color":[255, 0, 0]}}}]}