{"type":"FeatureCollection","features":[{"type":"Feature","id":"b587a55b-ebbf-4440-bfed-bda61dbd3f2b","geometry":{"type":"Polygon","coordinates":[[[753, 1146],[753, 1179],[853, 1179],[853, 1146],[753, 1146]]]},"properties":{"objectType":"annotation","name":"total","classification":{"name":"total","color":[255, 255, 0]}}},{"type":"Feature","id":"b0221dba-aa97-4eb7-b033-1ad9bafca0ff","geometry":{"type":"Polygon","coordinates":[[[30, 1480],[30, 1513],[194, 1513],[194, 1480],[30, 1480]]]},"properties":{"objectType":"annotation","name":"date","classification":{"name":"date","color":[0, 255, 0]}}},{"type":"Feature","id":"2835a048-22b0-45ce-9ecb-03e6384d069e","geometry":{"type":"Polygon","coordinates":[[[92, 469],[92, 589],[767, 589],[767, 469],[92, 469]]]},"properties":{"objectType":"annotation","name":"address","classification":{"name":"address","color":[0, 0, 255]}}},{"type":"Feature","id":"48b155ea-1d54-4d2b-ac73-5b85f657ee4a","geometry":{"type":"Polygon","coordinates":[[[215, 383],[215, 422],[668, 422],[668, 383],[215, 383]]]},"properties":{"objectType":"annotation","name":"company","classification":{"name":"company","color":[255, 0, 0]}}}]}