{"type":"FeatureCollection","features":[{"type":"Feature","id":"c274b617-06b0-4486-bbf4-085813f4a219","geometry":{"type":"Polygon","coordinates":[[[428, 1078],[428, 1122],[561, 1122],[561, 1078],[428, 1078]]]},"properties":{"objectType":"annotation","name":"total","classification":{"name":"total","color":[255, 255, 0]}}},{"type":"Feature","id":"1410cafe-43c7-4623-a4a8-d45bc4b3dc80","geometry":{"type":"Polygon","coordinates":[[[141, 519],[141, 543],[278, 543],[278, 519],[141, 519]]]},"properties":{"objectType":"annotation","name":"date","classification":{"name":"date","color":[0, 255, 0]}}},{"type":"Feature","id":"0bb44f10-cc69-448a-bf04-8bc2e606bca2","geometry":{"type":"Polygon","coordinates":[[[87, 223],[87, 304],[495, 304],[495, 223],[87, 223]]]},"properties":{"objectType":"annotation","name":"address","classification":{"name":"address","color":[0, 0, 255]}}},{"type":"Feature","id":"ebaf0c25-365e-40e6-9b84-e960825be7d3","geometry":{"type":"Polygon","coordinates":[[[59, 165],[59, 190],[361, 190],[361, 165],[59, 165]]]},"properties":{"objectType":"annotation","name":"company","classification":{"name":"company","color":[255, 0, 0]}}}]}