{"type":"FeatureCollection","features":[{"type":"Feature","id":"2a154afa-6542-43aa-a117-7bc66528e823","geometry":{"type":"Polygon","coordinates":[[[506, 1036],[506, 1062],[573, 1062],[573, 1036],[506, 1036]]]},"properties":{"objectType":"annotation","name":"total","classification":{"name":"total","color":[255, 255, 0]}}},{"type":"Feature","id":"68da0662-035a-46fb-b80f-024a3661f60d","geometry":{"type":"Polygon","coordinates":[[[61, 599],[61, 625],[172, 625],[172, 599],[61, 599]]]},"properties":{"objectType":"annotation","name":"date","classification":{"name":"date","color":[0, 255, 0]}}},{"type":"Feature","id":"beac05d3-32bb-4b2a-9e77-7acf49392f43","geometry":{"type":"Polygon","coordinates":[[[103, 358],[103, 473],[566, 473],[566, 358],[103, 358]]]},"properties":{"objectType":"annotation","name":"address","classification":{"name":"address","color":[0, 0, 255]}}},{"type":"Feature","id":"c792d1dc-9b05-43b8-9d6e-39799dd1c999","geometry":{"type":"Polygon","coordinates":[[[132, 67],[132, 240],[630, 240],[630, 67],[132, 67]]]},"properties":{"objectType":"annotation","name":"company","classification":{"name":"company","color":[255, 0, 0]}}}]}