{"type":"FeatureCollection","features":[{"type":"Feature","id":"3e7b2262-21ba-435c-aab1-433801053f38","geometry":{"type":"Polygon","coordinates":[[[675, 1648],[675, 1677],[763, 1677],[763, 1648],[675, 1648]]]},"properties":{"objectType":"annotation","name":"total","classification":{"name":"total","color":[255, 255, 0]}}},{"type":"Feature","id":"2096badf-c38c-4c0d-b485-3eff05e9e2ec","geometry":{"type":"Polygon","coordinates":[[[668, 695],[668, 726],[839, 726],[839, 695],[668, 695]]]},"properties":{"objectType":"annotation","name":"date","classification":{"name":"date","color":[0, 255, 0]}}},{"type":"Feature","id":"15a93a82-55e4-4d45-a3a5-2a35ad377b98","geometry":{"type":"Polygon","coordinates":[[[245, 318],[245, 445],[681, 445],[681, 318],[245, 318]]]},"properties":{"objectType":"annotation","name":"address","classification":{"name":"address","color":[0, 0, 255]}}},{"type":"Feature","id":"66ae97fd-19c9-4e36-bb5e-c1134974b3cf","geometry":{"type":"Polygon","coordinates":[[[94, 215],[94, 253],[833, 253],[833, 215],[94, 215]]]},"properties":{"objectType":"annotation","name":"company","classification":{"name":"company","color":[255, 0, 0]}}}]}