{"type":"FeatureCollection","features":[{"type":"Feature","id":"49bd3789-ce8a-41b3-a66c-2399767633fa","geometry":{"type":"Polygon","coordinates":[[[108, 130],[108, 249],[633, 249],[633, 130],[108, 130]]]},"properties":{"objectType":"annotation","name":"company","classification":{"name":"company","color":[255, 0, 0]}}},{"type":"Feature","id":"facc99f8-880a-4385-802c-89b8dc83f1dc","geometry":{"type":"Polygon","coordinates":[[[583, 916],[583, 945],[652, 945],[652, 916],[583, 916]]]},"properties":{"objectType":"annotation","name":"total","classification":{"name":"total","color":[255, 255, 0]}}},{"type":"Feature","id":"5730731c-eead-49f7-9f85-de69f4f7a63c","geometry":{"type":"Polygon","coordinates":[[[35, 568],[35, 599],[175, 599],[175, 568],[35, 568]]]},"properties":{"objectType":"annotation","name":"date","classification":{"name":"date","color":[0, 255, 0]}}},{"type":"Feature","id":"2a0657f5-2d27-4457-bdc8-9e8eb733738f","geometry":{"type":"Polygon","coordinates":[[[53, 337],[53, 403],[652, 403],[652, 337],[53, 337]]]},"properties":{"objectType":"annotation","name":"address","classification":{"name":"address","color":[0, 0, 255]}}}]}