{"type":"FeatureCollection","features":[{"type":"Feature","id":"4755c6fc-667e-4df1-a444-94d8e0bfef15","geometry":{"type":"Polygon","coordinates":[[[50, 276],[50, 316],[778, 316],[778, 276],[50, 276]]]},"properties":{"objectType":"annotation","name":"company","classification":{"name":"company","color":[255, 0, 0]}}},{"type":"Feature","id":"f03a27bf-cde5-49d5-80dd-a17207ced1cb","geometry":{"type":"Polygon","coordinates":[[[647, 1152],[647, 1190],[750, 1190],[750, 1152],[647, 1152]]]},"properties":{"objectType":"annotation","name":"total","classification":{"name":"total","color":[255, 255, 0]}}},{"type":"Feature","id":"6b503234-b3f7-4508-bb59-823f33e3b62e","geometry":{"type":"Polygon","coordinates":[[[423, 648],[423, 680],[591, 680],[591, 648],[423, 648]]]},"properties":{"objectType":"annotation","name":"date","classification":{"name":"date","color":[0, 255, 0]}}},{"type":"Feature","id":"0fb055fc-7a76-42d4-b57d-8e54792eae6a","geometry":{"type":"Polygon","coordinates":[[[51, 371],[51, 450],[762, 450],[762, 371],[51, 371]]]},"properties":{"objectType":"annotation","name":"address","classification":{"name":"address","color":[0, 0, 255]}}}]}