{"type":"FeatureCollection","features":[{"type":"Feature","id":"e6103a66-59c7-4648-8ae3-59567a136b72","geometry":{"type":"Polygon","coordinates":[[[518, 1503],[518, 1530],[604, 1530],[604, 1503],[518, 1503]]]},"properties":{"objectType":"annotation","name":"total","classification":{"name":"total","color":[255, 255, 0]}}},{"type":"Feature","id":"ba2981e6-de38-412a-b642-4427f3e827e6","geometry":{"type":"Polygon","coordinates":[[[34, 805],[34, 831],[173, 831],[173, 805],[34, 805]]]},"properties":{"objectType":"annotation","name":"date","classification":{"name":"date","color":[0, 255, 0]}}},{"type":"Feature","id":"3ba91003-24ef-4cb8-83a3-2aed0ccd40d0","geometry":{"type":"Polygon","coordinates":[[[31, 244],[31, 344],[585, 344],[585, 244],[31, 244]]]},"properties":{"objectType":"annotation","name":"address","classification":{"name":"address","color":[0, 0, 255]}}},{"type":"Feature","id":"37fbf31f-018d-4bc6-b7ee-34d8ff5b5fd3","geometry":{"type":"Polygon","coordinates":[[[31, 136],[31, 165],[486, 165],[486, 136],[31, 136]]]},"properties":{"objectType":"annotation","name":"company","classification":{"name":"company","color":[255, 0, 0]}}}]}