{"type":"FeatureCollection","features":[{"type":"Feature","id":"fdc716ac-e9d0-4fae-b5ed-4457ccea683c","geometry":{"type":"Polygon","coordinates":[[[52, 269],[52, 312],[787, 312],[787, 269],[52, 269]]]},"properties":{"objectType":"annotation","name":"company","classification":{"name":"company","color":[255, 0, 0]}}},{"type":"Feature","id":"2cd126de-3756-454d-91c0-216acf5748fc","geometry":{"type":"Polygon","coordinates":[[[54, 364],[54, 448],[771, 448],[771, 364],[54, 364]]]},"properties":{"objectType":"annotation","name":"address","classification":{"name":"address","color":[0, 0, 255]}}},{"type":"Feature","id":"7aebe8e9-670c-45e9-8078-549dd86e01bd","geometry":{"type":"Polygon","coordinates":[[[626, 1722],[626, 1761],[755, 1761],[755, 1722],[626, 1722]]]},"properties":{"objectType":"annotation","name":"total","classification":{"name":"total","color":[255, 255, 0]}}},{"type":"Feature","id":"324d0de8-de74-4422-8da2-38ddf24d2c4f","geometry":{"type":"Polygon","coordinates":[[[447, 645],[447, 678],[618, 678],[618, 645],[447, 645]]]},"properties":{"objectType":"annotation","name":"date","classification":{"name":"date","color":[0, 255, 0]}}}]}