{"type":"FeatureCollection","features":[{"type":"Feature","id":"87a68222-44a2-45e8-9606-5396d096565f","geometry":{"type":"Polygon","coordinates":[[[412, 910],[412, 953],[504, 953],[504, 910],[412, 910]]]},"properties":{"objectType":"annotation","name":"total","classification":{"name":"total","color":[255, 255, 0]}}},{"type":"Feature","id":"97bbbcc4-9e00-441e-88ce-ff102a8c4d6f","geometry":{"type":"Polygon","coordinates":[[[143, 535],[143, 557],[258, 557],[258, 535],[143, 535]]]},"properties":{"objectType":"annotation","name":"date","classification":{"name":"date","color":[0, 255, 0]}}},{"type":"Feature","id":"f0a922e5-9f21-4a16-b597-83efc0f5fde6","geometry":{"type":"Polygon","coordinates":[[[81, 256],[81, 308],[454, 308],[454, 256],[81, 256]]]},"properties":{"objectType":"annotation","name":"address","classification":{"name":"address","color":[0, 0, 255]}}},{"type":"Feature","id":"59e26a00-327b-4249-937f-31aca1b46de2","geometry":{"type":"Polygon","coordinates":[[[80, 229],[80, 250],[305, 250],[305, 229],[80, 229]]]},"properties":{"objectType":"annotation","name":"company","classification":{"name":"company","color":[255, 0, 0]}}}]}