{"type":"FeatureCollection","features":[{"type":"Feature","id":"3b42d428-ee97-4fc5-948c-d1d3f7ceb5be","geometry":{"type":"Polygon","coordinates":[[[589, 1016],[589, 1044],[660, 1044],[660, 1016],[589, 1016]]]},"properties":{"objectType":"annotation","name":"total","classification":{"name":"total","color":[255, 255, 0]}}},{"type":"Feature","id":"4cf624a5-67d8-45dd-9055-abc0efac91f9","geometry":{"type":"Polygon","coordinates":[[[39, 539],[39, 569],[179, 569],[179, 539],[39, 539]]]},"properties":{"objectType":"annotation","name":"date","classification":{"name":"date","color":[0, 255, 0]}}},{"type":"Feature","id":"4e3c1b8f-a77b-4115-8d59-8f90f7dc5639","geometry":{"type":"Polygon","coordinates":[[[55, 300],[55, 370],[657, 370],[657, 300],[55, 300]]]},"properties":{"objectType":"annotation","name":"address","classification":{"name":"address","color":[0, 0, 255]}}},{"type":"Feature","id":"27863cf8-3305-4bac-8f61-fb9c3d3f9f5f","geometry":{"type":"Polygon","coordinates":[[[110, 95],[110, 213],[638, 213],[638, 95],[110, 95]]]},"properties":{"objectType":"annotation","name":"company","classification":{"name":"company","color":[255, 0, 0]}}}]}