{"type":"FeatureCollection","features":[{"type":"Feature","id":"33c7e328-bba5-4e26-965b-67240bc7bc0a","geometry":{"type":"Polygon","coordinates":[[[498, 1102],[498, 1135],[622, 1135],[622, 1102],[498, 1102]]]},"properties":{"objectType":"annotation","name":"total","classification":{"name":"total","color":[255, 255, 0]}}},{"type":"Feature","id":"dac447b3-15dc-41c2-93d3-07cbb1f4b936","geometry":{"type":"Polygon","coordinates":[[[357, 520],[357, 544],[507, 544],[507, 520],[357, 520]]]},"properties":{"objectType":"annotation","name":"date","classification":{"name":"date","color":[0, 255, 0]}}},{"type":"Feature","id":"2f9d1fae-1878-405e-8354-983719f5dc01","geometry":{"type":"Polygon","coordinates":[[[133, 271],[133, 379],[531, 379],[531, 271],[133, 271]]]},"properties":{"objectType":"annotation","name":"address","classification":{"name":"address","color":[0, 0, 255]}}},{"type":"Feature","id":"d932a2ea-ce9d-4ba2-9cf8-bbeb19bf333b","geometry":{"type":"Polygon","coordinates":[[[140, 227],[140, 263],[516, 263],[516, 227],[140, 227]]]},"properties":{"objectType":"annotation","name":"company","classification":{"name":"company","color":[255, 0, 0]}}}]}