{"type":"FeatureCollection","features":[{"type":"Feature","id":"f2c44dbd-c1a0-4058-a65e-3a2859bfa8f2","geometry":{"type":"Polygon","coordinates":[[[636, 1070],[636, 1127],[855, 1127],[855, 1070],[636, 1070]]]},"properties":{"objectType":"annotation","name":"total","classification":{"name":"total","color":[255, 255, 0]}}},{"type":"Feature","id":"5f255dee-490b-41ae-834a-18e907c3d030","geometry":{"type":"Polygon","coordinates":[[[175, 438],[175, 467],[373, 467],[373, 438],[175, 438]]]},"properties":{"objectType":"annotation","name":"date","classification":{"name":"date","color":[0, 255, 0]}}},{"type":"Feature","id":"49a74bd2-9ecf-4a37-8f63-3c84a570699d","geometry":{"type":"Polygon","coordinates":[[[288, 213],[288, 327],[628, 327],[628, 213],[288, 213]]]},"properties":{"objectType":"annotation","name":"address","classification":{"name":"address","color":[0, 0, 255]}}},{"type":"Feature","id":"5e841741-0c79-4bbc-855b-9163f15a8cdf","geometry":{"type":"Polygon","coordinates":[[[272, 172],[272, 202],[651, 202],[651, 172],[272, 172]]]},"properties":{"objectType":"annotation","name":"company","classification":{"name":"company","color":[255, 0, 0]}}}]}