{"type":"FeatureCollection","features":[{"type":"Feature","id":"d3745062-137b-4da9-bb16-89bfcbcef4b9","geometry":{"type":"Polygon","coordinates":[[[400, 873],[400, 897],[488, 897],[488, 873],[400, 873]]]},"properties":{"objectType":"annotation","name":"total","classification":{"name":"total","color":[255, 255, 0]}}},{"type":"Feature","id":"250361c0-8618-43d4-a7b6-b06a3d00ace0","geometry":{"type":"Polygon","coordinates":[[[180, 643],[180, 668],[323, 668],[323, 643],[180, 643]]]},"properties":{"objectType":"annotation","name":"date","classification":{"name":"date","color":[0, 255, 0]}}},{"type":"Feature","id":"c4a51381-20af-4369-99a6-fcd3daad0d9b","geometry":{"type":"Polygon","coordinates":[[[66, 245],[66, 341],[407, 341],[407, 245],[66, 245]]]},"properties":{"objectType":"annotation","name":"address","classification":{"name":"address","color":[0, 0, 255]}}},{"type":"Feature","id":"272ad49a-2c6b-4eef-b476-4f613fc2b876","geometry":{"type":"Polygon","coordinates":[[[10, 209],[10, 241],[323, 241],[323, 209],[10, 209]]]},"properties":{"objectType":"annotation","name":"company","classification":{"name":"company","color":[255, 0, 0]}}}]}