{"type":"FeatureCollection","features":[{"type":"Feature","id":"efa7a972-e11b-4d62-817c-393c6e6df17b","geometry":{"type":"Polygon","coordinates":[[[683, 1423],[683, 1455],[770, 1455],[770, 1423],[683, 1423]]]},"properties":{"objectType":"annotation","name":"total","classification":{"name":"total","color":[255, 255, 0]}}},{"type":"Feature","id":"aeae350d-1dea-441b-bfec-88a5bd8431fb","geometry":{"type":"Polygon","coordinates":[[[677, 695],[677, 726],[848, 726],[848, 695],[677, 695]]]},"properties":{"objectType":"annotation","name":"date","classification":{"name":"date","color":[0, 255, 0]}}},{"type":"Feature","id":"c34c4b4c-5c6d-48f6-a328-39855e75ef46","geometry":{"type":"Polygon","coordinates":[[[255, 317],[255, 444],[692, 444],[692, 317],[255, 317]]]},"properties":{"objectType":"annotation","name":"address","classification":{"name":"address","color":[0, 0, 255]}}},{"type":"Feature","id":"58c0983a-627e-4fde-bc67-cc9c74ba92e7","geometry":{"type":"Polygon","coordinates":[[[104, 214],[104, 252],[845, 252],[845, 214],[104, 214]]]},"properties":{"objectType":"annotation","name":"company","classification":{"name":"company","color":[255, 0, 0]}}}]}