{"type":"FeatureCollection","features":[{"type":"Feature","id":"ad825ce6-1082-46d9-9d13-33dfea67c1a1","geometry":{"type":"Polygon","coordinates":[[[672, 1050],[672, 1085],[742, 1085],[742, 1050],[672, 1050]]]},"properties":{"objectType":"annotation","name":"total","classification":{"name":"total","color":[255, 255, 0]}}},{"type":"Feature","id":"95e98ff6-4371-422a-8b24-fa4a61de6bfb","geometry":{"type":"Polygon","coordinates":[[[639, 799],[639, 833],[780, 833],[780, 799],[639, 799]]]},"properties":{"objectType":"annotation","name":"date","classification":{"name":"date","color":[0, 255, 0]}}},{"type":"Feature","id":"99caf1bb-afbd-4b88-ad22-af67fc487977","geometry":{"type":"Polygon","coordinates":[[[187, 385],[187, 577],[655, 577],[655, 385],[187, 385]]]},"properties":{"objectType":"annotation","name":"address","classification":{"name":"address","color":[0, 0, 255]}}},{"type":"Feature","id":"98abc724-856f-4cd7-af70-6159e8900a90","geometry":{"type":"Polygon","coordinates":[[[169, 336],[169, 375],[469, 375],[469, 336],[169, 336]]]},"properties":{"objectType":"annotation","name":"company","classification":{"name":"company","color":[255, 0, 0]}}}]}