{"type":"FeatureCollection","features":[{"type":"Feature","id":"22b68b92-470c-40d2-a7f0-f5cf3683f3df","geometry":{"type":"Polygon","coordinates":[[[3041, 3786],[3041, 3868],[3282, 3868],[3282, 3786],[3041, 3786]]]},"properties":{"objectType":"annotation","name":"total","classification":{"name":"total","color":[255, 255, 0]}}},{"type":"Feature","id":"416599dc-7d2f-4ef1-a456-5ef7f5725e42","geometry":{"type":"Polygon","coordinates":[[[2027, 2318],[2027, 2379],[2355, 2379],[2355, 2318],[2027, 2318]]]},"properties":{"objectType":"annotation","name":"date","classification":{"name":"date","color":[0, 255, 0]}}},{"type":"Feature","id":"bd4c09bf-8da1-43db-851e-bcd22b5812b7","geometry":{"type":"Polygon","coordinates":[[[1951, 1555],[1951, 1831],[3188, 1831],[3188, 1555],[1951, 1555]]]},"properties":{"objectType":"annotation","name":"address","classification":{"name":"address","color":[0, 0, 255]}}},{"type":"Feature","id":"b5fbb9b4-a5b5-4541-a606-eea2e2a7213b","geometry":{"type":"Polygon","coordinates":[[[1878, 1332],[1878, 1416],[3284, 1416],[3284, 1332],[1878, 1332]]]},"properties":{"objectType":"annotation","name":"company","classification":{"name":"company","color":[255, 0, 0]}}}]}