{"type":"FeatureCollection","features":[{"type":"Feature","id":"6a410cca-fa88-4876-8f73-826b8eb55d9b","geometry":{"type":"Polygon","coordinates":[[[2827, 2772],[2827, 2849],[3018, 2849],[3018, 2772],[2827, 2772]]]},"properties":{"objectType":"annotation","name":"total","classification":{"name":"total","color":[255, 255, 0]}}},{"type":"Feature","id":"5ea20f50-aa70-43b2-8b31-d41bbba8d700","geometry":{"type":"Polygon","coordinates":[[[1606, 3472],[1606, 3558],[1952, 3558],[1952, 3472],[1606, 3472]]]},"properties":{"objectType":"annotation","name":"date","classification":{"name":"date","color":[0, 255, 0]}}},{"type":"Feature","id":"b79af87a-2103-4de2-b794-89f2f661e30a","geometry":{"type":"Polygon","coordinates":[[[1900, 1195],[1900, 1473],[2918, 1473],[2918, 1195],[1900, 1195]]]},"properties":{"objectType":"annotation","name":"address","classification":{"name":"address","color":[0, 0, 255]}}},{"type":"Feature","id":"030a97e7-60dc-48a1-b2be-b16ac0d6d63e","geometry":{"type":"Polygon","coordinates":[[[1935, 1101],[1935, 1180],[2496, 1180],[2496, 1101],[1935, 1101]]]},"properties":{"objectType":"annotation","name":"company","classification":{"name":"company","color":[255, 0, 0]}}}]}