{"type":"FeatureCollection","features":[{"type":"Feature","id":"30616c66-8c45-4196-a693-dcc961e42d6e","geometry":{"type":"Polygon","coordinates":[[[679, 1426],[679, 1456],[765, 1456],[765, 1426],[679, 1426]]]},"properties":{"objectType":"annotation","name":"total","classification":{"name":"total","color":[255, 255, 0]}}},{"type":"Feature","id":"02418777-a332-41d8-9b11-50e1ab2b0750","geometry":{"type":"Polygon","coordinates":[[[672, 695],[672, 727],[843, 727],[843, 695],[672, 695]]]},"properties":{"objectType":"annotation","name":"date","classification":{"name":"date","color":[0, 255, 0]}}},{"type":"Feature","id":"87c31cbb-a9b1-4db5-a8d4-ba8db4b43d61","geometry":{"type":"Polygon","coordinates":[[[249, 319],[249, 446],[686, 446],[686, 319],[249, 319]]]},"properties":{"objectType":"annotation","name":"address","classification":{"name":"address","color":[0, 0, 255]}}},{"type":"Feature","id":"8c424615-0573-4428-81e0-5650e04e174e","geometry":{"type":"Polygon","coordinates":[[[98, 217],[98, 255],[837, 255],[837, 217],[98, 217]]]},"properties":{"objectType":"annotation","name":"company","classification":{"name":"company","color":[255, 0, 0]}}}]}