{"type":"FeatureCollection","features":[{"type":"Feature","id":"d6898532-a793-4cd0-bf2b-f41f381260af","geometry":{"type":"Polygon","coordinates":[[[475, 928],[475, 955],[543, 955],[543, 928],[475, 928]]]},"properties":{"objectType":"annotation","name":"total","classification":{"name":"total","color":[255, 255, 0]}}},{"type":"Feature","id":"5a7db7f5-cee7-4618-9e05-f66cfec524bb","geometry":{"type":"Polygon","coordinates":[[[264, 600],[264, 629],[398, 629],[398, 600],[264, 600]]]},"properties":{"objectType":"annotation","name":"date","classification":{"name":"date","color":[0, 255, 0]}}},{"type":"Feature","id":"48c620bd-c650-428a-8362-71a846c08f9b","geometry":{"type":"Polygon","coordinates":[[[25, 241],[25, 335],[544, 335],[544, 241],[25, 241]]]},"properties":{"objectType":"annotation","name":"address","classification":{"name":"address","color":[0, 0, 255]}}},{"type":"Feature","id":"a8c78782-f5bb-4a2c-b839-beddea9c716b","geometry":{"type":"Polygon","coordinates":[[[65, 77],[65, 105],[491, 105],[491, 77],[65, 77]]]},"properties":{"objectType":"annotation","name":"company"}}]}