{"type":"FeatureCollection","features":[{"type":"Feature","id":"1b2c4805-5ebd-4634-9f1d-30e6dbcb3b41","geometry":{"type":"Polygon","coordinates":[[[667, 1022],[667, 1057],[742, 1057],[742, 1022],[667, 1022]]]},"properties":{"objectType":"annotation","name":"total","classification":{"name":"total","color":[255, 255, 0]}}},{"type":"Feature","id":"ae292f27-6468-4077-a924-abdeaae04fb7","geometry":{"type":"Polygon","coordinates":[[[46, 675],[46, 706],[221, 706],[221, 675],[46, 675]]]},"properties":{"objectType":"annotation","name":"date","classification":{"name":"date","color":[0, 255, 0]}}},{"type":"Feature","id":"1464e6de-8f88-413a-87d8-04d178e8e6c8","geometry":{"type":"Polygon","coordinates":[[[175, 156],[175, 288],[658, 288],[658, 156],[175, 156]]]},"properties":{"objectType":"annotation","name":"address","classification":{"name":"address","color":[0, 0, 255]}}},{"type":"Feature","id":"c4462fc7-b322-4e53-bb72-765e10c2c32a","geometry":{"type":"Polygon","coordinates":[[[258, 117],[258, 160],[571, 160],[571, 117],[258, 117]]]},"properties":{"objectType":"annotation","name":"company","classification":{"name":"company","color":[255, 0, 0]}}}]}