{"type":"FeatureCollection","features":[{"type":"Feature","id":"a1112733-cf5a-4e4d-be4f-c7440c36101e","geometry":{"type":"Polygon","coordinates":[[[697, 1316],[697, 1347],[764, 1347],[764, 1316],[697, 1316]]]},"properties":{"objectType":"annotation","name":"total","classification":{"name":"total","color":[255, 255, 0]}}},{"type":"Feature","id":"df0166e7-5821-4321-a4b5-397d03fbf878","geometry":{"type":"Polygon","coordinates":[[[673, 691],[673, 722],[843, 722],[843, 691],[673, 691]]]},"properties":{"objectType":"annotation","name":"date","classification":{"name":"date","color":[0, 255, 0]}}},{"type":"Feature","id":"a60a2c66-49f8-488f-b4d1-76af872b535c","geometry":{"type":"Polygon","coordinates":[[[249, 317],[249, 444],[685, 444],[685, 317],[249, 317]]]},"properties":{"objectType":"annotation","name":"address","classification":{"name":"address","color":[0, 0, 255]}}},{"type":"Feature","id":"05a9efdc-c591-4cbe-b3f1-eeb1d6cb53d6","geometry":{"type":"Polygon","coordinates":[[[98, 215],[98, 253],[837, 253],[837, 215],[98, 215]]]},"properties":{"objectType":"annotation","name":"company","classification":{"name":"company","color":[255, 0, 0]}}}]}