{"type":"FeatureCollection","features":[{"type":"Feature","id":"bfd8ae25-9294-4185-a785-0c6cdd99c0d5","geometry":{"type":"Polygon","coordinates":[[[11, 1175],[11, 1203],[143, 1203],[143, 1175],[11, 1175]]]},"properties":{"objectType":"annotation","name":"date","classification":{"name":"date","color":[0, 255, 0]}}},{"type":"Feature","id":"59be852d-0379-4ee4-9d69-43d4648fa396","geometry":{"type":"Polygon","coordinates":[[[593, 979],[593, 1007],[675, 1007],[675, 979],[593, 979]]]},"properties":{"objectType":"annotation","name":"total","classification":{"name":"total","color":[255, 255, 0]}}},{"type":"Feature","id":"7f83b774-6cdc-4c43-bd53-16ee6e1f80aa","geometry":{"type":"Polygon","coordinates":[[[71, 333],[71, 436],[612, 436],[612, 333],[71, 333]]]},"properties":{"objectType":"annotation","name":"address","classification":{"name":"address","color":[0, 0, 255]}}},{"type":"Feature","id":"7dbb6f41-4485-4364-a2b3-805819de7cc2","geometry":{"type":"Polygon","coordinates":[[[170, 268],[170, 301],[533, 301],[533, 268],[170, 268]]]},"properties":{"objectType":"annotation","name":"company","classification":{"name":"company","color":[255, 0, 0]}}}]}