{"type":"FeatureCollection","features":[{"type":"Feature","id":"56aba49a-444b-41b3-aef1-1d9a2ebf0ec1","geometry":{"type":"Polygon","coordinates":[[[498, 1021],[498, 1048],[645, 1048],[645, 1021],[498, 1021]]]},"properties":{"objectType":"annotation","name":"total","classification":{"name":"total","color":[255, 255, 0]}}},{"type":"Feature","id":"3a31bc07-cd80-4d8b-8acd-0960223e3e57","geometry":{"type":"Polygon","coordinates":[[[439, 781],[439, 808],[558, 808],[558, 781],[439, 781]]]},"properties":{"objectType":"annotation","name":"date","classification":{"name":"date","color":[0, 255, 0]}}},{"type":"Feature","id":"3fdbd8fa-ae8c-4426-9bdc-ef8d4475dc38","geometry":{"type":"Polygon","coordinates":[[[58, 542],[58, 618],[629, 618],[629, 542],[58, 542]]]},"properties":{"objectType":"annotation","name":"address","classification":{"name":"address","color":[0, 0, 255]}}},{"type":"Feature","id":"df8a4039-54d9-499b-9725-289d8b5b7437","geometry":{"type":"Polygon","coordinates":[[[119, 459],[119, 491],[587, 491],[587, 459],[119, 459]]]},"properties":{"objectType":"annotation","name":"company","classification":{"name":"company","color":[255, 0, 0]}}}]}