{"type":"FeatureCollection","features":[{"type":"Feature","id":"c8906bf6-1e1b-4890-8b06-cc5f4c474adf","geometry":{"type":"Polygon","coordinates":[[[570, 858],[570, 886],[640, 886],[640, 858],[570, 858]]]},"properties":{"objectType":"annotation","name":"total","classification":{"name":"total","color":[255, 255, 0]}}},{"type":"Feature","id":"bbf2106c-a20f-4afb-a34d-d5d8a4a9ab61","geometry":{"type":"Polygon","coordinates":[[[24, 540],[24, 571],[161, 571],[161, 540],[24, 540]]]},"properties":{"objectType":"annotation","name":"date","classification":{"name":"date","color":[0, 255, 0]}}},{"type":"Feature","id":"a1488d19-786a-4271-b4ca-6b5f781784fa","geometry":{"type":"Polygon","coordinates":[[[38, 294],[38, 369],[639, 369],[639, 294],[38, 294]]]},"properties":{"objectType":"annotation","name":"address","classification":{"name":"address","color":[0, 0, 255]}}},{"type":"Feature","id":"ce61fe8c-2be9-4f33-aeb9-174b8140ec9e","geometry":{"type":"Polygon","coordinates":[[[92, 87],[92, 211],[621, 211],[621, 87],[92, 87]]]},"properties":{"objectType":"annotation","name":"company","classification":{"name":"company","color":[255, 0, 0]}}}]}