{"type":"FeatureCollection","features":[{"type":"Feature","id":"137f674f-35bd-4aea-a383-e3dd6cab4cff","geometry":{"type":"Polygon","coordinates":[[[509, 1024],[509, 1050],[655, 1050],[655, 1024],[509, 1024]]]},"properties":{"objectType":"annotation","name":"total","classification":{"name":"total","color":[255, 255, 0]}}},{"type":"Feature","id":"8c83ed44-e24f-4425-833a-f6e3a0cbf049","geometry":{"type":"Polygon","coordinates":[[[477, 542],[477, 568],[628, 568],[628, 542],[477, 542]]]},"properties":{"objectType":"annotation","name":"date","classification":{"name":"date","color":[0, 255, 0]}}},{"type":"Feature","id":"f486b79a-2af2-43c6-8c93-a96b774f12de","geometry":{"type":"Polygon","coordinates":[[[123, 273],[123, 364],[589, 364],[589, 273],[123, 273]]]},"properties":{"objectType":"annotation","name":"address","classification":{"name":"address","color":[0, 0, 255]}}},{"type":"Feature","id":"0d8e94dd-d592-4983-b608-18f9038b5607","geometry":{"type":"Polygon","coordinates":[[[116, 242],[116, 271],[594, 271],[594, 242],[116, 242]]]},"properties":{"objectType":"annotation","name":"company","classification":{"name":"company","color":[255, 0, 0]}}}]}