{"type":"FeatureCollection","features":[{"type":"Feature","id":"c4f710e2-ea13-41f4-9fc9-c18bf2f36451","geometry":{"type":"Polygon","coordinates":[[[637, 609],[637, 621],[661, 621],[661, 609],[637, 609]]]},"properties":{"objectType":"annotation","name":"total","classification":{"name":"total","color":[255, 255, 0]}}},{"type":"Feature","id":"9db6cb13-5ff1-4e83-9187-8f5bcc7a77ba","geometry":{"type":"Polygon","coordinates":[[[380, 374],[380, 409],[629, 409],[629, 374],[380, 374]]]},"properties":{"objectType":"annotation","name":"address","classification":{"name":"address","color":[0, 0, 255]}}},{"type":"Feature","id":"b7f996dd-7232-4352-acfe-e109682a373f","geometry":{"type":"Polygon","coordinates":[[[452, 338],[452, 350],[522, 350],[522, 338],[452, 338]]]},"properties":{"objectType":"annotation","name":"date","classification":{"name":"date","color":[0, 255, 0]}}},{"type":"Feature","id":"2c5ed82b-e1d5-422c-bb4c-3ec576a90368","geometry":{"type":"Polygon","coordinates":[[[360, 320],[360, 336],[649, 336],[649, 320],[360, 320]]]},"properties":{"objectType":"annotation","name":"company","classification":{"name":"company","color":[255, 0, 0]}}}]}