{"type":"FeatureCollection","features":[{"type":"Feature","id":"00601403-bef0-4f6b-a9b8-7bcd7f4601b5","geometry":{"type":"Polygon","coordinates":[[[752, 1442],[752, 1475],[854, 1475],[854, 1442],[752, 1442]]]},"properties":{"objectType":"annotation","name":"total","classification":{"name":"total","color":[255, 255, 0]}}},{"type":"Feature","id":"1b19569b-3524-4955-a5c1-9073390f7a5c","geometry":{"type":"Polygon","coordinates":[[[32, 1778],[32, 1811],[195, 1811],[195, 1778],[32, 1778]]]},"properties":{"objectType":"annotation","name":"date","classification":{"name":"date","color":[0, 255, 0]}}},{"type":"Feature","id":"bdcbc38a-fd44-48aa-97fc-ac898cde7dad","geometry":{"type":"Polygon","coordinates":[[[94, 428],[94, 550],[767, 550],[767, 428],[94, 428]]]},"properties":{"objectType":"annotation","name":"address","classification":{"name":"address","color":[0, 0, 255]}}},{"type":"Feature","id":"98bc7af1-9a5a-4edd-8d15-2f46d0069624","geometry":{"type":"Polygon","coordinates":[[[217, 343],[217, 377],[669, 377],[669, 343],[217, 343]]]},"properties":{"objectType":"annotation","name":"company","classification":{"name":"company","color":[255, 0, 0]}}}]}