{"type":"FeatureCollection","features":[{"type":"Feature","id":"260a7197-4c2f-4776-bb82-9e8164b92e17","geometry":{"type":"Polygon","coordinates":[[[575, 1461],[575, 1489],[655, 1489],[655, 1461],[575, 1461]]]},"properties":{"objectType":"annotation","name":"total","classification":{"name":"total","color":[255, 255, 0]}}},{"type":"Feature","id":"9f77eba8-b043-4b2e-9855-438fda6b5cc3","geometry":{"type":"Polygon","coordinates":[[[340, 443],[340, 477],[500, 477],[500, 443],[340, 443]]]},"properties":{"objectType":"annotation","name":"date","classification":{"name":"date","color":[0, 255, 0]}}},{"type":"Feature","id":"d96271a6-c514-47e7-8d03-9c16207175d0","geometry":{"type":"Polygon","coordinates":[[[44, 326],[44, 437],[668, 437],[668, 326],[44, 326]]]},"properties":{"objectType":"annotation","name":"address","classification":{"name":"address","color":[0, 0, 255]}}},{"type":"Feature","id":"70a66b0d-cb0a-4bbb-9158-4875aeffc6ee","geometry":{"type":"Polygon","coordinates":[[[117, 285],[117, 318],[404, 318],[404, 285],[117, 285]]]},"properties":{"objectType":"annotation","name":"company","classification":{"name":"company","color":[255, 0, 0]}}}]}