{"type":"FeatureCollection","features":[{"type":"Feature","id":"47782656-7c4c-4a1a-9642-532923a0c513","geometry":{"type":"Polygon","coordinates":[[[791, 985],[791, 1019],[871, 1019],[871, 985],[791, 985]]]},"properties":{"objectType":"annotation","name":"total","classification":{"name":"total","color":[255, 255, 0]}}},{"type":"Feature","id":"969b569a-93d4-4e63-aa91-b3fc19f2ed97","geometry":{"type":"Polygon","coordinates":[[[46, 1322],[46, 1355],[209, 1355],[209, 1322],[46, 1322]]]},"properties":{"objectType":"annotation","name":"date","classification":{"name":"date","color":[0, 255, 0]}}},{"type":"Feature","id":"802bb489-3811-453a-9517-ac0dad8943ad","geometry":{"type":"Polygon","coordinates":[[[274, 346],[274, 380],[643, 380],[643, 346],[274, 346]]]},"properties":{"objectType":"annotation","name":"company","classification":{"name":"company","color":[255, 0, 0]}}},{"type":"Feature","id":"0b6ad662-212f-435a-901c-18db46363a60","geometry":{"type":"Polygon","coordinates":[[[108, 430],[108, 553],[786, 553],[786, 430],[108, 430]]]},"properties":{"objectType":"annotation","name":"address","classification":{"name":"address","color":[0, 0, 255]}}}]}