{"type":"FeatureCollection","features":[{"type":"Feature","id":"290973b9-58ab-40a2-b77a-9b4df35b8bb5","geometry":{"type":"Polygon","coordinates":[[[535, 944],[535, 971],[623, 971],[623, 944],[535, 944]]]},"properties":{"objectType":"annotation","name":"total","classification":{"name":"total","color":[255, 255, 0]}}},{"type":"Feature","id":"b2018666-fa74-4052-901e-f627b9c3d70f","geometry":{"type":"Polygon","coordinates":[[[475, 493],[475, 514],[594, 514],[594, 493],[475, 493]]]},"properties":{"objectType":"annotation","name":"date","classification":{"name":"date","color":[0, 255, 0]}}},{"type":"Feature","id":"4e322a32-e7ab-4302-be74-2f3d8fc2ca40","geometry":{"type":"Polygon","coordinates":[[[127, 218],[127, 271],[533, 271],[533, 218],[127, 218]]]},"properties":{"objectType":"annotation","name":"address","classification":{"name":"address","color":[0, 0, 255]}}},{"type":"Feature","id":"5a1596a6-5388-46e5-8e82-e19515d39f43","geometry":{"type":"Polygon","coordinates":[[[172, 146],[172, 173],[493, 173],[493, 146],[172, 146]]]},"properties":{"objectType":"annotation","name":"company","classification":{"name":"company","color":[255, 0, 0]}}}]}