{"type":"FeatureCollection","features":[{"type":"Feature","id":"7c12dc97-f534-48c5-bb8c-c4c2ca0a3b30","geometry":{"type":"Polygon","coordinates":[[[568, 1480],[568, 1510],[648, 1510],[648, 1480],[568, 1480]]]},"properties":{"objectType":"annotation","name":"total","classification":{"name":"total","color":[255, 255, 0]}}},{"type":"Feature","id":"662d393f-17a3-4baf-8de3-d76d06eaee5e","geometry":{"type":"Polygon","coordinates":[[[297, 1007],[297, 1040],[456, 1040],[456, 1007],[297, 1007]]]},"properties":{"objectType":"annotation","name":"date","classification":{"name":"date","color":[0, 255, 0]}}},{"type":"Feature","id":"d4cecf3f-469f-46bf-9ec4-c1500c827b20","geometry":{"type":"Polygon","coordinates":[[[27, 572],[27, 686],[648, 686],[648, 572],[27, 572]]]},"properties":{"objectType":"annotation","name":"address","classification":{"name":"address","color":[0, 0, 255]}}},{"type":"Feature","id":"8a3fd800-1f81-4163-ae49-d9c434590dba","geometry":{"type":"Polygon","coordinates":[[[73, 492],[73, 524],[600, 524],[600, 492],[73, 492]]]},"properties":{"objectType":"annotation","name":"company","classification":{"name":"company","color":[255, 0, 0]}}}]}