{"type":"FeatureCollection","features":[{"type":"Feature","id":"c5b9de47-5599-4ab9-a385-f0832baad449","geometry":{"type":"Polygon","coordinates":[[[473, 1551],[473, 1602],[620, 1602],[620, 1551],[473, 1551]]]},"properties":{"objectType":"annotation","name":"total","classification":{"name":"total","color":[255, 255, 0]}}},{"type":"Feature","id":"52dab24b-f2f4-4c23-9aa0-eff6274062e1","geometry":{"type":"Polygon","coordinates":[[[159, 714],[159, 744],[309, 744],[309, 714],[159, 714]]]},"properties":{"objectType":"annotation","name":"date","classification":{"name":"date","color":[0, 255, 0]}}},{"type":"Feature","id":"afbd3e37-a5ee-4541-bb02-fb5f0e6f1015","geometry":{"type":"Polygon","coordinates":[[[83, 311],[83, 382],[574, 382],[574, 311],[83, 311]]]},"properties":{"objectType":"annotation","name":"address","classification":{"name":"address","color":[0, 0, 255]}}},{"type":"Feature","id":"6f9b6787-42a7-4bcb-8bd6-421402028962","geometry":{"type":"Polygon","coordinates":[[[68, 273],[68, 304],[398, 304],[398, 273],[68, 273]]]},"properties":{"objectType":"annotation","name":"company","classification":{"name":"company","color":[255, 0, 0]}}}]}