{"type":"FeatureCollection","features":[{"type":"Feature","id":"7011d96e-f187-4466-8a3e-f2d610dbcb6a","geometry":{"type":"Polygon","coordinates":[[[616, 931],[616, 995],[802, 995],[802, 931],[616, 931]]]},"properties":{"objectType":"annotation","name":"total","classification":{"name":"total","color":[255, 255, 0]}}},{"type":"Feature","id":"d5c9edb4-4d10-48bf-bca0-9a7a3c2e993f","geometry":{"type":"Polygon","coordinates":[[[155, 701],[155, 747],[347, 747],[347, 701],[155, 701]]]},"properties":{"objectType":"annotation","name":"date","classification":{"name":"date","color":[0, 255, 0]}}},{"type":"Feature","id":"5900c049-7ca8-4168-a9d8-9897d54f597f","geometry":{"type":"Polygon","coordinates":[[[82, 218],[82, 344],[763, 344],[763, 218],[82, 218]]]},"properties":{"objectType":"annotation","name":"address","classification":{"name":"address","color":[0, 0, 255]}}},{"type":"Feature","id":"dd4e5ae9-20d1-442f-8d60-efe582d8f9ba","geometry":{"type":"Polygon","coordinates":[[[197, 173],[197, 208],[634, 208],[634, 173],[197, 173]]]},"properties":{"objectType":"annotation","name":"company","classification":{"name":"company","color":[255, 0, 0]}}}]}