{"type":"FeatureCollection","features":[{"type":"Feature","id":"37bef2c6-49cc-446e-8a31-0a3e8f339226","geometry":{"type":"Polygon","coordinates":[[[669, 1825],[669, 1849],[754, 1849],[754, 1825],[669, 1825]]]},"properties":{"objectType":"annotation","name":"total","classification":{"name":"total","color":[255, 255, 0]}}},{"type":"Feature","id":"f8ae6152-2645-43f0-aff4-ffd65a1818ac","geometry":{"type":"Polygon","coordinates":[[[704, 668],[704, 692],[844, 692],[844, 668],[704, 668]]]},"properties":{"objectType":"annotation","name":"date","classification":{"name":"date","color":[0, 255, 0]}}},{"type":"Feature","id":"e96b1368-a2ed-4564-8ec3-b02fb5bd1213","geometry":{"type":"Polygon","coordinates":[[[336, 386],[336, 455],[674, 455],[674, 386],[336, 386]]]},"properties":{"objectType":"annotation","name":"address","classification":{"name":"address","color":[0, 0, 255]}}},{"type":"Feature","id":"c20870bf-b879-4dff-a010-66829f58138f","geometry":{"type":"Polygon","coordinates":[[[237, 306],[237, 346],[772, 346],[772, 306],[237, 306]]]},"properties":{"objectType":"annotation","name":"company","classification":{"name":"company","color":[255, 0, 0]}}}]}