{"type":"FeatureCollection","features":[{"type":"Feature","id":"033aeba8-d47f-438e-ae3d-257bb0d801d7","geometry":{"type":"Polygon","coordinates":[[[699, 1321],[699, 1352],[765, 1352],[765, 1321],[699, 1321]]]},"properties":{"objectType":"annotation","name":"total","classification":{"name":"total","color":[255, 255, 0]}}},{"type":"Feature","id":"f4ba1737-1a31-4a67-8e11-11897f4f1f58","geometry":{"type":"Polygon","coordinates":[[[672, 695],[672, 726],[843, 726],[843, 695],[672, 695]]]},"properties":{"objectType":"annotation","name":"date","classification":{"name":"date","color":[0, 255, 0]}}},{"type":"Feature","id":"85048780-3638-4658-b494-62b0a4cba37f","geometry":{"type":"Polygon","coordinates":[[[250, 319],[250, 445],[685, 445],[685, 319],[250, 319]]]},"properties":{"objectType":"annotation","name":"address","classification":{"name":"address","color":[0, 0, 255]}}},{"type":"Feature","id":"251dfaf0-7904-4f2e-9c4a-79e49da8047d","geometry":{"type":"Polygon","coordinates":[[[101, 217],[101, 255],[836, 255],[836, 217],[101, 217]]]},"properties":{"objectType":"annotation","name":"company","classification":{"name":"company","color":[255, 0, 0]}}}]}