{"type":"FeatureCollection","features":[{"type":"Feature","id":"f9f1deea-3dd4-43fb-a86c-aaa06d3d218f","geometry":{"type":"Polygon","coordinates":[[[519, 1256],[519, 1282],[589, 1282],[589, 1256],[519, 1256]]]},"properties":{"objectType":"annotation","name":"total","classification":{"name":"total","color":[255, 255, 0]}}},{"type":"Feature","id":"8c4dca24-f306-46bc-9014-35b4ec32b7b7","geometry":{"type":"Polygon","coordinates":[[[22, 696],[22, 723],[163, 723],[163, 696],[22, 696]]]},"properties":{"objectType":"annotation","name":"date","classification":{"name":"date","color":[0, 255, 0]}}},{"type":"Feature","id":"0239f462-59af-4a50-9cc4-588926ce8fa8","geometry":{"type":"Polygon","coordinates":[[[20, 233],[20, 338],[574, 338],[574, 233],[20, 233]]]},"properties":{"objectType":"annotation","name":"address","classification":{"name":"address","color":[0, 0, 255]}}},{"type":"Feature","id":"0b335717-2f27-4bfb-b7ec-ee0289b490b6","geometry":{"type":"Polygon","coordinates":[[[21, 132],[21, 158],[475, 158],[475, 132],[21, 132]]]},"properties":{"objectType":"annotation","name":"company","classification":{"name":"company","color":[255, 0, 0]}}}]}