{"type":"FeatureCollection","features":[{"type":"Feature","id":"11b7c306-5104-44e7-ab9f-ede8f7e3b6cc","geometry":{"type":"Polygon","coordinates":[[[635, 1466],[635, 1509],[729, 1509],[729, 1466],[635, 1466]]]},"properties":{"objectType":"annotation","name":"total","classification":{"name":"total","color":[255, 255, 0]}}},{"type":"Feature","id":"d8a66575-ff3b-428f-b865-28993aea7af3","geometry":{"type":"Polygon","coordinates":[[[41, 906],[41, 949],[234, 949],[234, 906],[41, 906]]]},"properties":{"objectType":"annotation","name":"date","classification":{"name":"date","color":[0, 255, 0]}}},{"type":"Feature","id":"fd300fe1-17e0-4b03-a2b4-81061295eeb0","geometry":{"type":"Polygon","coordinates":[[[162, 605],[162, 749],[636, 749],[636, 605],[162, 605]]]},"properties":{"objectType":"annotation","name":"address","classification":{"name":"address","color":[0, 0, 255]}}},{"type":"Feature","id":"18667d19-4951-42c3-9281-6bac959d541e","geometry":{"type":"Polygon","coordinates":[[[73, 407],[73, 450],[580, 450],[580, 407],[73, 407]]]},"properties":{"objectType":"annotation","name":"company","classification":{"name":"company","color":[255, 0, 0]}}}]}