{"type":"FeatureCollection","features":[{"type":"Feature","id":"7cd7b39b-15c5-4c0b-97e4-936bbfffbd92","geometry":{"type":"Polygon","coordinates":[[[682, 1565],[682, 1596],[785, 1596],[785, 1565],[682, 1565]]]},"properties":{"objectType":"annotation","name":"total","classification":{"name":"total","color":[255, 255, 0]}}},{"type":"Feature","id":"09bf199e-932c-4eed-a51e-2e207d6c9f76","geometry":{"type":"Polygon","coordinates":[[[704, 912],[704, 942],[871, 942],[871, 912],[704, 912]]]},"properties":{"objectType":"annotation","name":"date","classification":{"name":"date","color":[0, 255, 0]}}},{"type":"Feature","id":"05ffaf1f-51b4-4702-b83b-4a6b046f9d45","geometry":{"type":"Polygon","coordinates":[[[227, 352],[227, 433],[693, 433],[693, 352],[227, 352]]]},"properties":{"objectType":"annotation","name":"address","classification":{"name":"address","color":[0, 0, 255]}}},{"type":"Feature","id":"fd7637d7-c9a9-4314-b7bc-8308f45981c2","geometry":{"type":"Polygon","coordinates":[[[160, 260],[160, 300],[753, 300],[753, 260],[160, 260]]]},"properties":{"objectType":"annotation","name":"company","classification":{"name":"company","color":[255, 0, 0]}}}]}