{"type":"FeatureCollection","features":[{"type":"Feature","id":"c2addf80-545c-4fd5-817a-a639982926ce","geometry":{"type":"Polygon","coordinates":[[[592, 1264],[592, 1293],[670, 1293],[670, 1264],[592, 1264]]]},"properties":{"objectType":"annotation","name":"total","classification":{"name":"total","color":[255, 255, 0]}}},{"type":"Feature","id":"96df68c6-521e-4c9c-8dd7-2bb597347a03","geometry":{"type":"Polygon","coordinates":[[[35, 703],[35, 735],[210, 735],[210, 703],[35, 703]]]},"properties":{"objectType":"annotation","name":"date","classification":{"name":"date","color":[0, 255, 0]}}},{"type":"Feature","id":"e827220e-4731-4bef-b451-6825ce697bed","geometry":{"type":"Polygon","coordinates":[[[131, 205],[131, 371],[569, 371],[569, 205],[131, 205]]]},"properties":{"objectType":"annotation","name":"address","classification":{"name":"address","color":[0, 0, 255]}}},{"type":"Feature","id":"cbb8f587-4494-42e8-9bfd-eff126bef53a","geometry":{"type":"Polygon","coordinates":[[[242, 124],[242, 161],[463, 161],[463, 124],[242, 124]]]},"properties":{"objectType":"annotation","name":"company","classification":{"name":"company","color":[255, 0, 0]}}}]}