{"type":"FeatureCollection","features":[{"type":"Feature","id":"0f2064ec-0878-453e-bcb5-cbb5cf7f09e1","geometry":{"type":"Polygon","coordinates":[[[686, 1560],[686, 1591],[790, 1591],[790, 1560],[686, 1560]]]},"properties":{"objectType":"annotation","name":"total","classification":{"name":"total","color":[255, 255, 0]}}},{"type":"Feature","id":"03b49c87-dcde-4105-b774-8af5b25eaf38","geometry":{"type":"Polygon","coordinates":[[[704, 908],[704, 939],[876, 939],[876, 908],[704, 908]]]},"properties":{"objectType":"annotation","name":"date","classification":{"name":"date","color":[0, 255, 0]}}},{"type":"Feature","id":"e932248b-62cc-47ff-9263-e0ab187a84bc","geometry":{"type":"Polygon","coordinates":[[[230, 352],[230, 433],[698, 433],[698, 352],[230, 352]]]},"properties":{"objectType":"annotation","name":"address","classification":{"name":"address","color":[0, 0, 255]}}},{"type":"Feature","id":"85838154-ce24-4ed1-ac0b-6ca48a190251","geometry":{"type":"Polygon","coordinates":[[[163, 259],[163, 299],[757, 299],[757, 259],[163, 259]]]},"properties":{"objectType":"annotation","name":"company","classification":{"name":"company","color":[255, 0, 0]}}}]}