{"type":"FeatureCollection","features":[{"type":"Feature","id":"f9100f3a-b331-4e10-9046-dacb09d8291a","geometry":{"type":"Polygon","coordinates":[[[447, 905],[447, 937],[506, 937],[506, 905],[447, 905]]]},"properties":{"objectType":"annotation","name":"total","classification":{"name":"total","color":[255, 255, 0]}}},{"type":"Feature","id":"77ef0185-1727-41c7-a75c-7c6eda022e36","geometry":{"type":"Polygon","coordinates":[[[303, 458],[303, 479],[410, 479],[410, 458],[303, 458]]]},"properties":{"objectType":"annotation","name":"date","classification":{"name":"date","color":[0, 255, 0]}}},{"type":"Feature","id":"33ddfea5-d29b-4d61-a020-c0a8d0adceed","geometry":{"type":"Polygon","coordinates":[[[160, 86],[160, 135],[457, 135],[457, 86],[160, 86]]]},"properties":{"objectType":"annotation","name":"address","classification":{"name":"address","color":[0, 0, 255]}}},{"type":"Feature","id":"9a4666dc-f00c-4024-90ba-4c0fa1a59f16","geometry":{"type":"Polygon","coordinates":[[[36, 62],[36, 85],[473, 85],[473, 62],[36, 62]]]},"properties":{"objectType":"annotation","name":"company","classification":{"name":"company","color":[255, 0, 0]}}}]}