{"type":"FeatureCollection","features":[{"type":"Feature","id":"3fb7819b-7dc5-40be-b212-79d39bf33a63","geometry":{"type":"Polygon","coordinates":[[[648, 941],[648, 990],[705, 990],[705, 941],[648, 941]]]},"properties":{"objectType":"annotation","name":"total","classification":{"name":"total","color":[255, 255, 0]}}},{"type":"Feature","id":"0945366f-8547-4d03-953f-6b97736b4623","geometry":{"type":"Polygon","coordinates":[[[137, 379],[137, 443],[591, 443],[591, 379],[137, 379]]]},"properties":{"objectType":"annotation","name":"address","classification":{"name":"address","color":[0, 0, 255]}}},{"type":"Feature","id":"f594033c-b093-49dc-87b8-5aa66dfdfe9f","geometry":{"type":"Polygon","coordinates":[[[108, 269],[108, 303],[645, 303],[645, 269],[108, 269]]]},"properties":{"objectType":"annotation","name":"company","classification":{"name":"company","color":[255, 0, 0]}}},{"type":"Feature","id":"c4ba363f-9f9d-4461-bd17-5646a820fb20","geometry":{"type":"Polygon","coordinates":[[[153, 591],[153, 622],[291, 622],[291, 591],[153, 591]]]},"properties":{"objectType":"annotation","name":"date","classification":{"name":"date","color":[0, 255, 0]}}}]}