{"type":"FeatureCollection","features":[{"type":"Feature","id":"8cf656dd-2f19-45f9-a75a-7366d37bb42d","geometry":{"type":"Polygon","coordinates":[[[576, 1004],[576, 1029],[631, 1029],[631, 1004],[576, 1004]]]},"properties":{"objectType":"annotation","name":"total","classification":{"name":"total","color":[255, 255, 0]}}},{"type":"Feature","id":"8b48136c-30c1-4ae7-a545-7e94cd820719","geometry":{"type":"Polygon","coordinates":[[[373, 1428],[373, 1464],[573, 1464],[573, 1428],[373, 1428]]]},"properties":{"objectType":"annotation","name":"date","classification":{"name":"date","color":[0, 255, 0]}}},{"type":"Feature","id":"3973f1a7-1d01-4d14-ac98-8d7a78a108a6","geometry":{"type":"Polygon","coordinates":[[[132, 383],[132, 487],[650, 487],[650, 383],[132, 383]]]},"properties":{"objectType":"annotation","name":"address","classification":{"name":"address","color":[0, 0, 255]}}},{"type":"Feature","id":"182f6924-b02f-43dc-821c-be3b5640fe62","geometry":{"type":"Polygon","coordinates":[[[120, 352],[120, 382],[509, 382],[509, 352],[120, 352]]]},"properties":{"objectType":"annotation","name":"company","classification":{"name":"company","color":[255, 0, 0]}}}]}