{"type":"FeatureCollection","features":[{"type":"Feature","id":"459e1714-db92-4823-af77-ed89ec33cac7","geometry":{"type":"Polygon","coordinates":[[[419, 929],[419, 952],[542, 952],[542, 929],[419, 929]]]},"properties":{"objectType":"annotation","name":"total","classification":{"name":"total","color":[255, 255, 0]}}},{"type":"Feature","id":"d2b5220e-7025-4bcb-90bf-cff7b5328bdd","geometry":{"type":"Polygon","coordinates":[[[394, 450],[394, 473],[520, 473],[520, 450],[394, 450]]]},"properties":{"objectType":"annotation","name":"date","classification":{"name":"date","color":[0, 255, 0]}}},{"type":"Feature","id":"2f45a194-dc05-4dbb-b0b9-fb728a0ddd61","geometry":{"type":"Polygon","coordinates":[[[44, 225],[44, 247],[369, 247],[369, 225],[44, 225]]]},"properties":{"objectType":"annotation","name":"company","classification":{"name":"company","color":[255, 0, 0]}}},{"type":"Feature","id":"26c90f95-eaa4-48ba-8f95-22c84be0e4ab","geometry":{"type":"Polygon","coordinates":[[[44, 300],[44, 351],[383, 351],[383, 300],[44, 300]]]},"properties":{"objectType":"annotation","name":"address","classification":{"name":"address","color":[0, 0, 255]}}}]}