{"type":"FeatureCollection","features":[{"type":"Feature","id":"53041931-f1a2-42e7-9f21-368901a0d751","geometry":{"type":"Polygon","coordinates":[[[432, 691],[432, 713],[492, 713],[492, 691],[432, 691]]]},"properties":{"objectType":"annotation","name":"total","classification":{"name":"total","color":[255, 255, 0]}}},{"type":"Feature","id":"58ff2abf-2d60-4920-93a9-69fc7041a7d4","geometry":{"type":"Polygon","coordinates":[[[423, 527],[423, 549],[518, 549],[518, 527],[423, 527]]]},"properties":{"objectType":"annotation","name":"date","classification":{"name":"date","color":[0, 255, 0]}}},{"type":"Feature","id":"6d358277-3a19-4076-8674-01da66c3a018","geometry":{"type":"Polygon","coordinates":[[[119, 260],[119, 385],[434, 385],[434, 260],[119, 260]]]},"properties":{"objectType":"annotation","name":"address","classification":{"name":"address","color":[0, 0, 255]}}},{"type":"Feature","id":"fdfcbd47-8ac7-4663-b7aa-4a774640925c","geometry":{"type":"Polygon","coordinates":[[[105, 227],[105, 254],[306, 254],[306, 227],[105, 227]]]},"properties":{"objectType":"annotation","name":"company","classification":{"name":"company","color":[255, 0, 0]}}}]}