{"type":"FeatureCollection","features":[{"type":"Feature","id":"cf5a3e99-c6bc-4fbb-a8cb-2a9944a90fbc","geometry":{"type":"Polygon","coordinates":[[[2626, 3261],[2626, 3312],[2777, 3312],[2777, 3261],[2626, 3261]]]},"properties":{"objectType":"annotation","name":"total","classification":{"name":"total","color":[255, 255, 0]}}},{"type":"Feature","id":"5ea3a85c-5751-445b-a792-5f51e169e2c1","geometry":{"type":"Polygon","coordinates":[[[2587, 2052],[2587, 2111],[2896, 2111],[2896, 2052],[2587, 2052]]]},"properties":{"objectType":"annotation","name":"date","classification":{"name":"date","color":[0, 255, 0]}}},{"type":"Feature","id":"c530f2d1-454e-4dd2-bc49-dc3f77f7e77f","geometry":{"type":"Polygon","coordinates":[[[1472, 1272],[1472, 1520],[2893, 1520],[2893, 1272],[1472, 1272]]]},"properties":{"objectType":"annotation","name":"address","classification":{"name":"address","color":[0, 0, 255]}}},{"type":"Feature","id":"d2e4483e-7064-4b18-bbce-d2b53ff0ba7d","geometry":{"type":"Polygon","coordinates":[[[1924, 971],[1924, 1022],[2436, 1022],[2436, 971],[1924, 971]]]},"properties":{"objectType":"annotation","name":"company","classification":{"name":"company","color":[255, 0, 0]}}}]}