{"type":"FeatureCollection","features":[{"type":"Feature","id":"a264c5de-f76e-4f82-b3cb-0c2b19fc8e2c","geometry":{"type":"Polygon","coordinates":[[[408, 675],[408, 700],[539, 700],[539, 675],[408, 675]]]},"properties":{"objectType":"annotation","name":"total","classification":{"name":"total","color":[255, 255, 0]}}},{"type":"Feature","id":"eb38b394-b293-4a82-a0fc-06f24af5645f","geometry":{"type":"Polygon","coordinates":[[[247, 485],[247, 510],[380, 510],[380, 485],[247, 485]]]},"properties":{"objectType":"annotation","name":"date","classification":{"name":"date","color":[0, 255, 0]}}},{"type":"Feature","id":"efbe2e6f-058c-4023-b48b-00317f239dcc","geometry":{"type":"Polygon","coordinates":[[[123, 293],[123, 320],[493, 320],[493, 293],[123, 293]]]},"properties":{"objectType":"annotation","name":"address","classification":{"name":"address","color":[0, 0, 255]}}},{"type":"Feature","id":"27fa3ab7-b1b6-472a-ab39-d38afc415c37","geometry":{"type":"Polygon","coordinates":[[[193, 130],[193, 291],[415, 291],[415, 130],[193, 130]]]},"properties":{"objectType":"annotation","name":"company","classification":{"name":"company","color":[255, 0, 0]}}}]}