{"type":"FeatureCollection","features":[{"type":"Feature","id":"200a4cf7-e82e-42d6-8b3c-b80b8b05e4a2","geometry":{"type":"Polygon","coordinates":[[[512, 860],[512, 892],[633, 892],[633, 860],[512, 860]]]},"properties":{"objectType":"annotation","name":"total","classification":{"name":"total","color":[255, 255, 0]}}},{"type":"Feature","id":"2c58a950-35ff-477f-88e8-ef9c60960a03","geometry":{"type":"Polygon","coordinates":[[[418, 506],[418, 529],[565, 529],[565, 506],[418, 506]]]},"properties":{"objectType":"annotation","name":"date","classification":{"name":"date","color":[0, 255, 0]}}},{"type":"Feature","id":"6d35ec06-71f7-40f7-9ff4-c3ad89c38865","geometry":{"type":"Polygon","coordinates":[[[190, 256],[190, 363],[580, 363],[580, 256],[190, 256]]]},"properties":{"objectType":"annotation","name":"address","classification":{"name":"address","color":[0, 0, 255]}}},{"type":"Feature","id":"946cf39d-3b6b-407c-807a-227a7d7d3ad7","geometry":{"type":"Polygon","coordinates":[[[198, 213],[198, 247],[574, 247],[574, 213],[198, 213]]]},"properties":{"objectType":"annotation","name":"company","classification":{"name":"company","color":[255, 0, 0]}}}]}