{"type":"FeatureCollection","features":[{"type":"Feature","id":"a62ab017-2b29-4008-a89d-16264a5322e0","geometry":{"type":"Polygon","coordinates":[[[365, 356],[365, 372],[657, 372],[657, 356],[365, 356]]]},"properties":{"objectType":"annotation","name":"company","classification":{"name":"company","color":[255, 0, 0]}}},{"type":"Feature","id":"0f8ce30b-4f62-4eec-bffe-6fcf780fa03d","geometry":{"type":"Polygon","coordinates":[[[643, 596],[643, 608],[668, 608],[668, 596],[643, 596]]]},"properties":{"objectType":"annotation","name":"total","classification":{"name":"total","color":[255, 255, 0]}}},{"type":"Feature","id":"bf1612ab-3b1e-4cd2-b8b7-a8ccf0b6d875","geometry":{"type":"Polygon","coordinates":[[[386, 408],[386, 442],[635, 442],[635, 408],[386, 408]]]},"properties":{"objectType":"annotation","name":"address","classification":{"name":"address","color":[0, 0, 255]}}},{"type":"Feature","id":"96153c9f-d58e-4093-9cd2-5ad5e9f01d67","geometry":{"type":"Polygon","coordinates":[[[457, 374],[457, 386],[528, 386],[528, 374],[457, 374]]]},"properties":{"objectType":"annotation","name":"date","classification":{"name":"date","color":[0, 255, 0]}}}]}