{"type":"FeatureCollection","features":[{"type":"Feature","id":"8195180b-0c49-4848-a6db-070c73a73ffd","geometry":{"type":"Polygon","coordinates":[[[138, 285],[138, 326],[558, 326],[558, 285],[138, 285]]]},"properties":{"objectType":"annotation","name":"company","classification":{"name":"company","color":[255, 0, 0]}}},{"type":"Feature","id":"57987e17-8419-43f1-9d97-5d18655d470c","geometry":{"type":"Polygon","coordinates":[[[553, 834],[553, 863],[627, 863],[627, 834],[553, 834]]]},"properties":{"objectType":"annotation","name":"total","classification":{"name":"total","color":[255, 255, 0]}}},{"type":"Feature","id":"72b75384-f3d6-40e6-94d6-4a01a5a84ee5","geometry":{"type":"Polygon","coordinates":[[[541, 671],[541, 700],[660, 700],[660, 671],[541, 671]]]},"properties":{"objectType":"annotation","name":"date","classification":{"name":"date","color":[0, 255, 0]}}},{"type":"Feature","id":"d5c5ba61-90d8-4408-93cb-dc051b128faf","geometry":{"type":"Polygon","coordinates":[[[153, 328],[153, 489],[557, 489],[557, 328],[153, 328]]]},"properties":{"objectType":"annotation","name":"address","classification":{"name":"address","color":[0, 0, 255]}}}]}