{"type":"FeatureCollection","features":[{"type":"Feature","id":"b29f8fbd-ab4b-4921-bf04-349c01262074","geometry":{"type":"Polygon","coordinates":[[[604, 1245],[604, 1283],[744, 1283],[744, 1245],[604, 1245]]]},"properties":{"objectType":"annotation","name":"total","classification":{"name":"total","color":[255, 255, 0]}}},{"type":"Feature","id":"4899336e-73cf-483b-b1d0-05d71099724d","geometry":{"type":"Polygon","coordinates":[[[200, 695],[200, 731],[375, 731],[375, 695],[200, 695]]]},"properties":{"objectType":"annotation","name":"date","classification":{"name":"date","color":[0, 255, 0]}}},{"type":"Feature","id":"f21ab14f-c321-4fb0-aa0b-c19659da5a5c","geometry":{"type":"Polygon","coordinates":[[[108, 353],[108, 479],[688, 479],[688, 353],[108, 353]]]},"properties":{"objectType":"annotation","name":"address","classification":{"name":"address","color":[0, 0, 255]}}},{"type":"Feature","id":"6ebeba7a-0828-490a-bf76-3d2b6ee806de","geometry":{"type":"Polygon","coordinates":[[[231, 268],[231, 304],[551, 304],[551, 268],[231, 268]]]},"properties":{"objectType":"annotation","name":"company","classification":{"name":"company","color":[255, 0, 0]}}}]}