{"type":"FeatureCollection","features":[{"type":"Feature","id":"e247891d-59ba-4eb1-a8ee-3d0b1324c37f","geometry":{"type":"Polygon","coordinates":[[[396, 352],[396, 371],[515, 371],[515, 352],[396, 352]]]},"properties":{"objectType":"annotation","name":"date","classification":{"name":"date","color":[0, 255, 0]}}},{"type":"Feature","id":"aba241d6-bdd5-4674-8af0-130422daeb34","geometry":{"type":"Polygon","coordinates":[[[163, 142],[163, 188],[459, 188],[459, 142],[163, 142]]]},"properties":{"objectType":"annotation","name":"address","classification":{"name":"address","color":[0, 0, 255]}}},{"type":"Feature","id":"215222ca-3f30-4bda-9c87-d67f5ffe83c2","geometry":{"type":"Polygon","coordinates":[[[37, 118],[37, 141],[476, 141],[476, 118],[37, 118]]]},"properties":{"objectType":"annotation","name":"company","classification":{"name":"company","color":[255, 0, 0]}}},{"type":"Feature","id":"85de8f92-b06d-423e-878f-f4bb3c9c517a","geometry":{"type":"Polygon","coordinates":[[[450, 961],[450, 993],[512, 993],[512, 961],[450, 961]]]},"properties":{"objectType":"annotation","name":"total","classification":{"name":"total","color":[255, 255, 0]}}}]}