{"type":"FeatureCollection","features":[{"type":"Feature","id":"852a4e12-4589-40b9-afb9-21195adfdcbc","geometry":{"type":"Polygon","coordinates":[[[977, 1194],[977, 1227],[1063, 1227],[1063, 1194],[977, 1194]]]},"properties":{"objectType":"annotation","name":"total","classification":{"name":"total","color":[255, 255, 0]}}},{"type":"Feature","id":"9c1c0d7e-ba19-4ed8-a5b0-f8a27754e5a1","geometry":{"type":"Polygon","coordinates":[[[871, 573],[871, 609],[1008, 609],[1008, 573],[871, 573]]]},"properties":{"objectType":"annotation","name":"date","classification":{"name":"date","color":[0, 255, 0]}}},{"type":"Feature","id":"cb90ff8f-248b-45b4-976f-a7e71d9996ca","geometry":{"type":"Polygon","coordinates":[[[418, 222],[418, 356],[907, 356],[907, 222],[418, 222]]]},"properties":{"objectType":"annotation","name":"address","classification":{"name":"address","color":[0, 0, 255]}}},{"type":"Feature","id":"3695fef3-fa27-4c58-a101-d708b6bae694","geometry":{"type":"Polygon","coordinates":[[[343, 119],[343, 185],[961, 185],[961, 119],[343, 119]]]},"properties":{"objectType":"annotation","name":"company","classification":{"name":"company","color":[255, 0, 0]}}}]}