{"type":"FeatureCollection","features":[{"type":"Feature","id":"70d7e97f-b6b0-4a33-ab1b-20526b762d80","geometry":{"type":"Polygon","coordinates":[[[556, 858],[556, 880],[610, 880],[610, 858],[556, 858]]]},"properties":{"objectType":"annotation","name":"total","classification":{"name":"total","color":[255, 255, 0]}}},{"type":"Feature","id":"5e5b3cc5-ca70-4c2e-9669-a1e9210e53ec","geometry":{"type":"Polygon","coordinates":[[[207, 556],[207, 582],[346, 582],[346, 556],[207, 556]]]},"properties":{"objectType":"annotation","name":"date","classification":{"name":"date","color":[0, 255, 0]}}},{"type":"Feature","id":"4cb6f1fc-a64e-403f-b69b-e20a6675c350","geometry":{"type":"Polygon","coordinates":[[[120, 281],[120, 383],[563, 383],[563, 281],[120, 281]]]},"properties":{"objectType":"annotation","name":"address","classification":{"name":"address","color":[0, 0, 255]}}},{"type":"Feature","id":"040a7106-c34b-4e0e-aa91-1b3f2897dda0","geometry":{"type":"Polygon","coordinates":[[[56, 246],[56, 281],[477, 281],[477, 246],[56, 246]]]},"properties":{"objectType":"annotation","name":"company","classification":{"name":"company","color":[255, 0, 0]}}}]}