{"type":"FeatureCollection","features":[{"type":"Feature","id":"82618097-a314-4456-a737-51b2543d0869","geometry":{"type":"Polygon","coordinates":[[[540, 1054],[540, 1080],[632, 1080],[632, 1054],[540, 1054]]]},"properties":{"objectType":"annotation","name":"total","classification":{"name":"total","color":[255, 255, 0]}}},{"type":"Feature","id":"2f1dce84-8181-42d7-82cb-3f6e39b19abd","geometry":{"type":"Polygon","coordinates":[[[320, 826],[320, 855],[462, 855],[462, 826],[320, 826]]]},"properties":{"objectType":"annotation","name":"date","classification":{"name":"date","color":[0, 255, 0]}}},{"type":"Feature","id":"120cb493-2e9b-4919-85b7-db8e1e4d9768","geometry":{"type":"Polygon","coordinates":[[[254, 436],[254, 563],[549, 563],[549, 436],[254, 436]]]},"properties":{"objectType":"annotation","name":"address","classification":{"name":"address","color":[0, 0, 255]}}},{"type":"Feature","id":"ce790c57-b0f8-42bc-b001-0c8c715689c3","geometry":{"type":"Polygon","coordinates":[[[252, 371],[252, 395],[527, 395],[527, 371],[252, 371]]]},"properties":{"objectType":"annotation","name":"company","classification":{"name":"company","color":[255, 0, 0]}}}]}