{"type":"FeatureCollection","features":[{"type":"Feature","id":"0d2e92bd-2422-42fe-874f-b92b401562f9","geometry":{"type":"Polygon","coordinates":[[[632, 1029],[632, 1100],[828, 1100],[828, 1029],[632, 1029]]]},"properties":{"objectType":"annotation","name":"total","classification":{"name":"total","color":[255, 255, 0]}}},{"type":"Feature","id":"3e112e02-2d8d-4dd7-b510-8c81b534a0fb","geometry":{"type":"Polygon","coordinates":[[[453, 1400],[453, 1442],[652, 1442],[652, 1400],[453, 1400]]]},"properties":{"objectType":"annotation","name":"date","classification":{"name":"date","color":[0, 255, 0]}}},{"type":"Feature","id":"c978095f-a0da-4526-a47e-5ff677681ddd","geometry":{"type":"Polygon","coordinates":[[[214, 298],[214, 388],[695, 388],[695, 298],[214, 298]]]},"properties":{"objectType":"annotation","name":"address","classification":{"name":"address","color":[0, 0, 255]}}},{"type":"Feature","id":"9d125ca8-5546-45cb-bca6-30d8f5f5e958","geometry":{"type":"Polygon","coordinates":[[[310, 198],[310, 236],[589, 236],[589, 198],[310, 198]]]},"properties":{"objectType":"annotation","name":"company","classification":{"name":"company","color":[255, 0, 0]}}}]}