{"type":"FeatureCollection","features":[{"type":"Feature","id":"70123ef9-03b7-4c70-b5ad-18ccbbe4e516","geometry":{"type":"Polygon","coordinates":[[[1659, 3495],[1659, 3580],[2000, 3580],[2000, 3495],[1659, 3495]]]},"properties":{"objectType":"annotation","name":"date","classification":{"name":"date","color":[0, 255, 0]}}},{"type":"Feature","id":"836729d2-1818-40b1-a01b-900c7dd4b095","geometry":{"type":"Polygon","coordinates":[[[2920, 2808],[2920, 2878],[3057, 2878],[3057, 2808],[2920, 2808]]]},"properties":{"objectType":"annotation","name":"total","classification":{"name":"total","color":[255, 255, 0]}}},{"type":"Feature","id":"4dd4b044-a9ca-4a35-b6e5-e29808cf9b3a","geometry":{"type":"Polygon","coordinates":[[[1934, 1322],[1934, 1605],[2951, 1605],[2951, 1322],[1934, 1322]]]},"properties":{"objectType":"annotation","name":"address","classification":{"name":"address","color":[0, 0, 255]}}},{"type":"Feature","id":"8c4623be-e7ba-44a7-9130-e24ef882c19d","geometry":{"type":"Polygon","coordinates":[[[1970, 1229],[1970, 1311],[2529, 1311],[2529, 1229],[1970, 1229]]]},"properties":{"objectType":"annotation","name":"company","classification":{"name":"company","color":[255, 0, 0]}}}]}