{"type":"FeatureCollection","features":[{"type":"Feature","id":"27b77e09-bf86-44e1-bba3-7c4c387cde7c","geometry":{"type":"Polygon","coordinates":[[[491, 474],[491, 501],[632, 501],[632, 474],[491, 474]]]},"properties":{"objectType":"annotation","name":"total","classification":{"name":"total","color":[255, 255, 0]}}},{"type":"Feature","id":"664d38d1-cdb8-4f31-86fb-f0dd1b738c2c","geometry":{"type":"Polygon","coordinates":[[[82, 303],[82, 333],[224, 333],[224, 303],[82, 303]]]},"properties":{"objectType":"annotation","name":"date","classification":{"name":"date","color":[0, 255, 0]}}},{"type":"Feature","id":"bfd43fbc-d51c-4020-8837-42c2710c64d5","geometry":{"type":"Polygon","coordinates":[[[223, 203],[223, 263],[535, 263],[535, 203],[223, 203]]]},"properties":{"objectType":"annotation","name":"address","classification":{"name":"address","color":[0, 0, 255]}}},{"type":"Feature","id":"0ad5f512-1b03-41fa-90dd-0210fe1bc8ca","geometry":{"type":"Polygon","coordinates":[[[244, 169],[244, 196],[515, 196],[515, 169],[244, 169]]]},"properties":{"objectType":"annotation","name":"company","classification":{"name":"company","color":[255, 0, 0]}}}]}