{"type":"FeatureCollection","features":[{"type":"Feature","id":"c4b00f24-e967-4556-a9aa-4dead3fa8530","geometry":{"type":"Polygon","coordinates":[[[228, 490],[228, 624],[728, 624],[728, 490],[228, 490]]]},"properties":{"objectType":"annotation","name":"address","classification":{"name":"address","color":[0, 0, 255]}}},{"type":"Feature","id":"fc5f1207-0f48-4b9e-a3e1-0723ec050884","geometry":{"type":"Polygon","coordinates":[[[655, 1621],[655, 1692],[830, 1692],[830, 1621],[655, 1621]]]},"properties":{"objectType":"annotation","name":"total","classification":{"name":"total","color":[255, 255, 0]}}},{"type":"Feature","id":"7fef3070-177a-4708-b2f4-2136f3bbd56b","geometry":{"type":"Polygon","coordinates":[[[283, 824],[283, 856],[464, 856],[464, 824],[283, 824]]]},"properties":{"objectType":"annotation","name":"date","classification":{"name":"date","color":[0, 255, 0]}}},{"type":"Feature","id":"65ebb4f3-4742-4b01-8ad0-b30e5473bede","geometry":{"type":"Polygon","coordinates":[[[123, 396],[123, 480],[658, 480],[658, 396],[123, 396]]]},"properties":{"objectType":"annotation","name":"company","classification":{"name":"company","color":[255, 0, 0]}}}]}