{"type":"FeatureCollection","features":[{"type":"Feature","id":"42d013ea-ed07-4b19-b913-5ee007c09cb7","geometry":{"type":"Polygon","coordinates":[[[56, 321],[56, 418],[596, 418],[596, 321],[56, 321]]]},"properties":{"objectType":"annotation","name":"address","classification":{"name":"address","color":[0, 0, 255]}}},{"type":"Feature","id":"8ad74611-daee-4ca4-8621-e2f5420c4a13","geometry":{"type":"Polygon","coordinates":[[[583, 862],[583, 890],[665, 890],[665, 862],[583, 862]]]},"properties":{"objectType":"annotation","name":"total","classification":{"name":"total","color":[255, 255, 0]}}},{"type":"Feature","id":"8778979f-ce30-44ac-82b8-69d84234040e","geometry":{"type":"Polygon","coordinates":[[[6, 1063],[6, 1090],[137, 1090],[137, 1063],[6, 1063]]]},"properties":{"objectType":"annotation","name":"date","classification":{"name":"date","color":[0, 255, 0]}}},{"type":"Feature","id":"de550899-31e7-4b17-89fc-ebe7b27c831e","geometry":{"type":"Polygon","coordinates":[[[153, 254],[153, 285],[516, 285],[516, 254],[153, 254]]]},"properties":{"objectType":"annotation","name":"company","classification":{"name":"company","color":[255, 0, 0]}}}]}