{"type":"FeatureCollection","features":[{"type":"Feature","id":"0d433f35-7259-42bf-9f9d-a82758360885","geometry":{"type":"Polygon","coordinates":[[[571, 1079],[571, 1106],[643, 1106],[643, 1079],[571, 1079]]]},"properties":{"objectType":"annotation","name":"total","classification":{"name":"total","color":[255, 255, 0]}}},{"type":"Feature","id":"661e2806-6a11-48d1-ab75-553d9cdd0492","geometry":{"type":"Polygon","coordinates":[[[342, 634],[342, 663],[484, 663],[484, 634],[342, 634]]]},"properties":{"objectType":"annotation","name":"date","classification":{"name":"date","color":[0, 255, 0]}}},{"type":"Feature","id":"3bebac26-5d85-4623-b8ca-6f93b246a3cd","geometry":{"type":"Polygon","coordinates":[[[140, 299],[140, 404],[588, 404],[588, 299],[140, 299]]]},"properties":{"objectType":"annotation","name":"address","classification":{"name":"address","color":[0, 0, 255]}}},{"type":"Feature","id":"4dd58602-f44d-46d4-aa55-ddbace61c5a2","geometry":{"type":"Polygon","coordinates":[[[238, 225],[238, 255],[495, 255],[495, 225],[238, 225]]]},"properties":{"objectType":"annotation","name":"company","classification":{"name":"company","color":[255, 0, 0]}}}]}