{"type":"FeatureCollection","features":[{"type":"Feature","id":"f06fc03d-6bab-43de-840a-b6e635ebdf30","geometry":{"type":"Polygon","coordinates":[[[3010, 4861],[3010, 4927],[3265, 4927],[3265, 4861],[3010, 4861]]]},"properties":{"objectType":"annotation","name":"total","classification":{"name":"total","color":[255, 255, 0]}}},{"type":"Feature","id":"be591207-20b1-406d-acbe-90ccf4cd5123","geometry":{"type":"Polygon","coordinates":[[[2298, 1757],[2298, 1808],[2590, 1808],[2590, 1757],[2298, 1757]]]},"properties":{"objectType":"annotation","name":"date","classification":{"name":"date","color":[0, 255, 0]}}},{"type":"Feature","id":"94d8d7c6-c9b0-420d-b356-416ddb8e2f47","geometry":{"type":"Polygon","coordinates":[[[2030, 1007],[2030, 1178],[3107, 1178],[3107, 1007],[2030, 1007]]]},"properties":{"objectType":"annotation","name":"address","classification":{"name":"address","color":[0, 0, 255]}}},{"type":"Feature","id":"76a84d1c-2da2-40f1-9bfa-6c088995ab45","geometry":{"type":"Polygon","coordinates":[[[1966, 905],[1966, 977],[3172, 977],[3172, 905],[1966, 905]]]},"properties":{"objectType":"annotation","name":"company","classification":{"name":"company","color":[255, 0, 0]}}}]}