{"type":"FeatureCollection","features":[{"type":"Feature","id":"cadf6fe3-d271-4ef1-a9da-c7447b0bda70","geometry":{"type":"Polygon","coordinates":[[[659, 1555],[659, 1592],[759, 1592],[759, 1555],[659, 1555]]]},"properties":{"objectType":"annotation","name":"total","classification":{"name":"total","color":[255, 255, 0]}}},{"type":"Feature","id":"4bfd78d0-2f91-4804-986e-d08111ed2cca","geometry":{"type":"Polygon","coordinates":[[[241, 743],[241, 779],[422, 779],[422, 743],[241, 743]]]},"properties":{"objectType":"annotation","name":"date","classification":{"name":"date","color":[0, 255, 0]}}},{"type":"Feature","id":"3a84ffc7-4c7a-4b6a-a564-717aa524e699","geometry":{"type":"Polygon","coordinates":[[[85, 252],[85, 391],[802, 391],[802, 252],[85, 252]]]},"properties":{"objectType":"annotation","name":"address","classification":{"name":"address","color":[0, 0, 255]}}},{"type":"Feature","id":"2bda1388-d628-4fd8-bcdd-976c0728e517","geometry":{"type":"Polygon","coordinates":[[[203, 151],[203, 193],[719, 193],[719, 151],[203, 151]]]},"properties":{"objectType":"annotation","name":"company","classification":{"name":"company","color":[255, 0, 0]}}}]}