{"type":"FeatureCollection","features":[{"type":"Feature","id":"4f90310e-f826-4f90-8b25-da02ec784089","geometry":{"type":"Polygon","coordinates":[[[653, 1323],[653, 1354],[759, 1354],[759, 1323],[653, 1323]]]},"properties":{"objectType":"annotation","name":"total","classification":{"name":"total","color":[255, 255, 0]}}},{"type":"Feature","id":"a477ffbb-9456-441f-949a-bb736888a958","geometry":{"type":"Polygon","coordinates":[[[668, 696],[668, 727],[836, 727],[836, 696],[668, 696]]]},"properties":{"objectType":"annotation","name":"date","classification":{"name":"date","color":[0, 255, 0]}}},{"type":"Feature","id":"82d8825d-e48c-4bc5-b4d6-ff11a783b9b4","geometry":{"type":"Polygon","coordinates":[[[243, 319],[243, 444],[680, 444],[680, 319],[243, 319]]]},"properties":{"objectType":"annotation","name":"address","classification":{"name":"address","color":[0, 0, 255]}}},{"type":"Feature","id":"080c5a4a-0747-4521-89c7-dc992c5c2466","geometry":{"type":"Polygon","coordinates":[[[92, 214],[92, 253],[832, 253],[832, 214],[92, 214]]]},"properties":{"objectType":"annotation","name":"company","classification":{"name":"company","color":[255, 0, 0]}}}]}