{"type":"FeatureCollection","features":[{"type":"Feature","id":"e83ddd9b-37b0-41e4-803e-12dd27736ba3","geometry":{"type":"Polygon","coordinates":[[[607, 1335],[607, 1371],[746, 1371],[746, 1335],[607, 1335]]]},"properties":{"objectType":"annotation","name":"total","classification":{"name":"total","color":[255, 255, 0]}}},{"type":"Feature","id":"8ca432c4-93af-41e5-8565-ce4621232413","geometry":{"type":"Polygon","coordinates":[[[203, 696],[203, 734],[378, 734],[378, 696],[203, 696]]]},"properties":{"objectType":"annotation","name":"date","classification":{"name":"date","color":[0, 255, 0]}}},{"type":"Feature","id":"c4b61f1c-ab6a-4714-ab69-d58b669f9538","geometry":{"type":"Polygon","coordinates":[[[111, 356],[111, 483],[692, 483],[692, 356],[111, 356]]]},"properties":{"objectType":"annotation","name":"address","classification":{"name":"address","color":[0, 0, 255]}}},{"type":"Feature","id":"31a11902-7429-4dcf-bb52-a35a72205251","geometry":{"type":"Polygon","coordinates":[[[237, 270],[237, 308],[557, 308],[557, 270],[237, 270]]]},"properties":{"objectType":"annotation","name":"company","classification":{"name":"company","color":[255, 0, 0]}}}]}