{"type":"FeatureCollection","features":[{"type":"Feature","id":"639cefcb-06ff-4b8a-94bb-1ba6c8413abf","geometry":{"type":"Polygon","coordinates":[[[43, 208],[43, 246],[427, 246],[427, 208],[43, 208]]]},"properties":{"objectType":"annotation","name":"company","classification":{"name":"company","color":[255, 0, 0]}}},{"type":"Feature","id":"2c0d1f48-bbd6-4edc-adbf-512dd17b5423","geometry":{"type":"Polygon","coordinates":[[[43, 1183],[43, 1214],[195, 1214],[195, 1183],[43, 1183]]]},"properties":{"objectType":"annotation","name":"date","classification":{"name":"date","color":[0, 255, 0]}}},{"type":"Feature","id":"abf033d8-3c1e-4825-b33a-9dfa06b28811","geometry":{"type":"Polygon","coordinates":[[[428, 757],[428, 789],[521, 789],[521, 757],[428, 757]]]},"properties":{"objectType":"annotation","name":"total","classification":{"name":"total","color":[255, 255, 0]}}},{"type":"Feature","id":"36bf5f6c-c354-4f8b-bddd-70e5505d65bd","geometry":{"type":"Polygon","coordinates":[[[45, 321],[45, 428],[541, 428],[541, 321],[45, 321]]]},"properties":{"objectType":"annotation","name":"address","classification":{"name":"address","color":[0, 0, 255]}}}]}