{"type":"FeatureCollection","features":[{"type":"Feature","id":"7d148837-7e04-431d-bd3d-b8b02a2ce61d","geometry":{"type":"Polygon","coordinates":[[[588, 755],[588, 771],[624, 771],[624, 755],[588, 755]]]},"properties":{"objectType":"annotation","name":"total","classification":{"name":"total","color":[255, 255, 0]}}},{"type":"Feature","id":"fdb086ae-b5f1-41ed-99d0-3cc2969438d2","geometry":{"type":"Polygon","coordinates":[[[458, 518],[458, 532],[535, 532],[535, 518],[458, 518]]]},"properties":{"objectType":"annotation","name":"date","classification":{"name":"date","color":[0, 255, 0]}}},{"type":"Feature","id":"91eaccec-9ada-418a-9e3a-50fef8aac859","geometry":{"type":"Polygon","coordinates":[[[400, 446],[400, 465],[641, 465],[641, 446],[400, 446]]]},"properties":{"objectType":"annotation","name":"company","classification":{"name":"company","color":[255, 0, 0]}}},{"type":"Feature","id":"e2d41855-972a-4c37-b9dc-9948ce3d9d8b","geometry":{"type":"Polygon","coordinates":[[[343, 467],[343, 484],[690, 484],[690, 467],[343, 467]]]},"properties":{"objectType":"annotation","name":"address","classification":{"name":"address","color":[0, 0, 255]}}}]}