{"type":"FeatureCollection","features":[{"type":"Feature","id":"60d7ac88-1745-4ba1-9457-9f6b5e19c918","geometry":{"type":"Polygon","coordinates":[[[2814, 2955],[2814, 3026],[3144, 3026],[3144, 2955],[2814, 2955]]]},"properties":{"objectType":"annotation","name":"total","classification":{"name":"total","color":[255, 255, 0]}}},{"type":"Feature","id":"bbcb3918-f920-4f98-bf41-6d23fc142d85","geometry":{"type":"Polygon","coordinates":[[[1753, 2453],[1753, 2533],[2098, 2533],[2098, 2453],[1753, 2453]]]},"properties":{"objectType":"annotation","name":"date","classification":{"name":"date","color":[0, 255, 0]}}},{"type":"Feature","id":"4f69a1d7-823b-4c14-8206-5671022f1230","geometry":{"type":"Polygon","coordinates":[[[1783, 1854],[1783, 2102],[3072, 2102],[3072, 1854],[1783, 1854]]]},"properties":{"objectType":"annotation","name":"address","classification":{"name":"address","color":[0, 0, 255]}}},{"type":"Feature","id":"af9a0d00-a951-439d-b389-b9f3ec9de01e","geometry":{"type":"Polygon","coordinates":[[[1822, 1682],[1822, 1766],[3046, 1766],[3046, 1682],[1822, 1682]]]},"properties":{"objectType":"annotation","name":"company","classification":{"name":"company","color":[255, 0, 0]}}}]}