{"type":"FeatureCollection","features":[{"type":"Feature","id":"2a8ed852-7bb4-4535-acbe-8f50e3f6d37b","geometry":{"type":"Polygon","coordinates":[[[458, 939],[458, 966],[525, 966],[525, 939],[458, 939]]]},"properties":{"objectType":"annotation","name":"total","classification":{"name":"total","color":[255, 255, 0]}}},{"type":"Feature","id":"c6f503e2-3ad1-4271-88e1-739cd42a4c7d","geometry":{"type":"Polygon","coordinates":[[[340, 545],[340, 575],[447, 575],[447, 545],[340, 545]]]},"properties":{"objectType":"annotation","name":"date","classification":{"name":"date","color":[0, 255, 0]}}},{"type":"Feature","id":"f134da67-ef3a-4a55-915d-da8e3c030e6c","geometry":{"type":"Polygon","coordinates":[[[88, 384],[88, 444],[527, 444],[527, 384],[88, 384]]]},"properties":{"objectType":"annotation","name":"address","classification":{"name":"address","color":[0, 0, 255]}}},{"type":"Feature","id":"3dee92e3-fcbf-4679-be50-c6dd8b547b62","geometry":{"type":"Polygon","coordinates":[[[115, 319],[115, 345],[355, 345],[355, 319],[115, 319]]]},"properties":{"objectType":"annotation","name":"company","classification":{"name":"company","color":[255, 0, 0]}}}]}