{"type":"FeatureCollection","features":[{"type":"Feature","id":"05a1570a-0921-4d49-8507-bdb66cc5cfcf","geometry":{"type":"Polygon","coordinates":[[[669, 1526],[669, 1555],[756, 1555],[756, 1526],[669, 1526]]]},"properties":{"objectType":"annotation","name":"total","classification":{"name":"total","color":[255, 255, 0]}}},{"type":"Feature","id":"898957a4-2523-407f-99b9-94e1c774ec12","geometry":{"type":"Polygon","coordinates":[[[662, 693],[662, 725],[834, 725],[834, 693],[662, 693]]]},"properties":{"objectType":"annotation","name":"date","classification":{"name":"date","color":[0, 255, 0]}}},{"type":"Feature","id":"9ae06232-960b-4778-94f4-dfefb5648db8","geometry":{"type":"Polygon","coordinates":[[[240, 317],[240, 446],[676, 446],[676, 317],[240, 317]]]},"properties":{"objectType":"annotation","name":"address","classification":{"name":"address","color":[0, 0, 255]}}},{"type":"Feature","id":"940cb625-9c4c-4fe9-b0f3-2805c9d68541","geometry":{"type":"Polygon","coordinates":[[[89, 215],[89, 253],[828, 253],[828, 215],[89, 215]]]},"properties":{"objectType":"annotation","name":"company","classification":{"name":"company","color":[255, 0, 0]}}}]}