{"type":"FeatureCollection","features":[{"type":"Feature","id":"cf3761cb-f47f-4267-bb91-171d21d9a481","geometry":{"type":"Polygon","coordinates":[[[295, 646],[295, 668],[408, 668],[408, 646],[295, 646]]]},"properties":{"objectType":"annotation","name":"total","classification":{"name":"total","color":[255, 255, 0]}}},{"type":"Feature","id":"4ab94ffa-77e0-47f0-91e4-2ba398ba55a9","geometry":{"type":"Polygon","coordinates":[[[117, 373],[117, 394],[273, 394],[273, 373],[117, 373]]]},"properties":{"objectType":"annotation","name":"date","classification":{"name":"date","color":[0, 255, 0]}}},{"type":"Feature","id":"2c523e6f-42db-4a10-871e-66cd578eae3a","geometry":{"type":"Polygon","coordinates":[[[41, 237],[41, 287],[401, 287],[401, 237],[41, 237]]]},"properties":{"objectType":"annotation","name":"address","classification":{"name":"address","color":[0, 0, 255]}}},{"type":"Feature","id":"288a4df8-291d-49cc-aebc-e98a9298c4c6","geometry":{"type":"Polygon","coordinates":[[[89, 97],[89, 148],[370, 148],[370, 97],[89, 97]]]},"properties":{"objectType":"annotation","name":"company","classification":{"name":"company","color":[255, 0, 0]}}}]}