{"type":"FeatureCollection","features":[{"type":"Feature","id":"f6b751de-d565-42df-acda-fb9950ea5f1d","geometry":{"type":"Polygon","coordinates":[[[632, 937],[632, 985],[704, 985],[704, 937],[632, 937]]]},"properties":{"objectType":"annotation","name":"total","classification":{"name":"total","color":[255, 255, 0]}}},{"type":"Feature","id":"5a893aca-c08d-4170-a499-747f0ef8ec69","geometry":{"type":"Polygon","coordinates":[[[149, 585],[149, 614],[291, 614],[291, 585],[149, 585]]]},"properties":{"objectType":"annotation","name":"date","classification":{"name":"date","color":[0, 255, 0]}}},{"type":"Feature","id":"3ba9ba46-fd64-4f7f-8400-970c5d804904","geometry":{"type":"Polygon","coordinates":[[[137, 375],[137, 436],[590, 436],[590, 375],[137, 375]]]},"properties":{"objectType":"annotation","name":"address","classification":{"name":"address","color":[0, 0, 255]}}},{"type":"Feature","id":"c0744e14-bd3e-48aa-896c-b217ee5b543e","geometry":{"type":"Polygon","coordinates":[[[108, 269],[108, 297],[645, 297],[645, 269],[108, 269]]]},"properties":{"objectType":"annotation","name":"company","classification":{"name":"company","color":[255, 0, 0]}}}]}