{"type":"FeatureCollection","features":[{"type":"Feature","id":"6f2c694b-e57b-4ff9-a0f5-7ee27b669d32","geometry":{"type":"Polygon","coordinates":[[[678, 1423],[678, 1452],[762, 1452],[762, 1423],[678, 1423]]]},"properties":{"objectType":"annotation","name":"total","classification":{"name":"total","color":[255, 255, 0]}}},{"type":"Feature","id":"41e77281-6257-44df-be09-3a7f16ed88f9","geometry":{"type":"Polygon","coordinates":[[[667, 695],[667, 725],[838, 725],[838, 695],[667, 695]]]},"properties":{"objectType":"annotation","name":"date","classification":{"name":"date","color":[0, 255, 0]}}},{"type":"Feature","id":"2124969c-3a3f-4271-874a-d938c97e00e2","geometry":{"type":"Polygon","coordinates":[[[246, 319],[246, 444],[681, 444],[681, 319],[246, 319]]]},"properties":{"objectType":"annotation","name":"address","classification":{"name":"address","color":[0, 0, 255]}}},{"type":"Feature","id":"89ee8de3-46bb-48d4-8401-e4a423164c61","geometry":{"type":"Polygon","coordinates":[[[96, 217],[96, 255],[834, 255],[834, 217],[96, 217]]]},"properties":{"objectType":"annotation","name":"company","classification":{"name":"company","color":[255, 0, 0]}}}]}