{"type":"FeatureCollection","features":[{"type":"Feature","id":"a880d269-27a6-42c2-b6cd-751090174515","geometry":{"type":"Polygon","coordinates":[[[451, 927],[451, 960],[512, 960],[512, 927],[451, 927]]]},"properties":{"objectType":"annotation","name":"total","classification":{"name":"total","color":[255, 255, 0]}}},{"type":"Feature","id":"b04a358a-9b2e-4ab7-92b9-ea315c4d42a1","geometry":{"type":"Polygon","coordinates":[[[396, 319],[396, 337],[514, 337],[514, 319],[396, 319]]]},"properties":{"objectType":"annotation","name":"date","classification":{"name":"date","color":[0, 255, 0]}}},{"type":"Feature","id":"e450dec7-c041-4804-a911-f87f4d5e1772","geometry":{"type":"Polygon","coordinates":[[[162, 109],[162, 156],[459, 156],[459, 109],[162, 109]]]},"properties":{"objectType":"annotation","name":"address","classification":{"name":"address","color":[0, 0, 255]}}},{"type":"Feature","id":"2962420c-20aa-41c4-8781-080011a25b2f","geometry":{"type":"Polygon","coordinates":[[[36, 85],[36, 108],[474, 108],[474, 85],[36, 85]]]},"properties":{"objectType":"annotation","name":"company","classification":{"name":"company","color":[255, 0, 0]}}}]}