{"type":"FeatureCollection","features":[{"type":"Feature","id":"8055b463-4dce-4feb-aa0a-de18b5a0faad","geometry":{"type":"Polygon","coordinates":[[[553, 1044],[553, 1069],[627, 1069],[627, 1044],[553, 1044]]]},"properties":{"objectType":"annotation","name":"total","classification":{"name":"total","color":[255, 255, 0]}}},{"type":"Feature","id":"2dfc81b8-ecbe-4333-b0a4-471f31ada27a","geometry":{"type":"Polygon","coordinates":[[[256, 686],[256, 712],[418, 712],[418, 686],[256, 686]]]},"properties":{"objectType":"annotation","name":"date","classification":{"name":"date","color":[0, 255, 0]}}},{"type":"Feature","id":"05d8127e-c8e7-4e47-b4cf-d73b6885cf1c","geometry":{"type":"Polygon","coordinates":[[[166, 444],[166, 553],[474, 553],[474, 444],[166, 444]]]},"properties":{"objectType":"annotation","name":"address","classification":{"name":"address","color":[0, 0, 255]}}},{"type":"Feature","id":"4d53304c-f225-4405-94b0-3393e0fc1601","geometry":{"type":"Polygon","coordinates":[[[135, 360],[135, 395],[506, 395],[506, 360],[135, 360]]]},"properties":{"objectType":"annotation","name":"company","classification":{"name":"company","color":[255, 0, 0]}}}]}