{"type":"FeatureCollection","features":[{"type":"Feature","id":"74f1a2a2-2e3e-42f5-a467-fd98e9109ce9","geometry":{"type":"Polygon","coordinates":[[[563, 1074],[563, 1102],[629, 1102],[629, 1074],[563, 1074]]]},"properties":{"objectType":"annotation","name":"total","classification":{"name":"total","color":[255, 255, 0]}}},{"type":"Feature","id":"9753529c-5095-4016-829e-bd029683d7fa","geometry":{"type":"Polygon","coordinates":[[[279, 723],[279, 752],[449, 752],[449, 723],[279, 723]]]},"properties":{"objectType":"annotation","name":"date","classification":{"name":"date","color":[0, 255, 0]}}},{"type":"Feature","id":"66655ad6-1497-42ae-8087-09672e8a9aaa","geometry":{"type":"Polygon","coordinates":[[[109, 279],[109, 400],[694, 400],[694, 279],[109, 279]]]},"properties":{"objectType":"annotation","name":"address","classification":{"name":"address","color":[0, 0, 255]}}},{"type":"Feature","id":"f7148337-04ff-4fe6-8b9a-d7b4212b2c48","geometry":{"type":"Polygon","coordinates":[[[116, 227],[116, 257],[784, 257],[784, 227],[116, 227]]]},"properties":{"objectType":"annotation","name":"company","classification":{"name":"company","color":[255, 0, 0]}}}]}