{"type":"FeatureCollection","features":[{"type":"Feature","id":"ae7fa07f-8dba-4756-9fc5-6fc31cb2afcd","geometry":{"type":"Polygon","coordinates":[[[580, 842],[580, 861],[640, 861],[640, 842],[580, 842]]]},"properties":{"objectType":"annotation","name":"total","classification":{"name":"total","color":[255, 255, 0]}}},{"type":"Feature","id":"125af5cf-3824-40c1-846b-de0e5e21b5a8","geometry":{"type":"Polygon","coordinates":[[[549, 373],[549, 399],[644, 399],[644, 373],[549, 373]]]},"properties":{"objectType":"annotation","name":"date","classification":{"name":"date","color":[0, 255, 0]}}},{"type":"Feature","id":"93f24349-4c90-41fb-8278-069bd5cef5ad","geometry":{"type":"Polygon","coordinates":[[[157, 220],[157, 354],[552, 354],[552, 220],[157, 220]]]},"properties":{"objectType":"annotation","name":"address","classification":{"name":"address","color":[0, 0, 255]}}},{"type":"Feature","id":"6ea422dc-4f71-45bc-a177-43bae533f579","geometry":{"type":"Polygon","coordinates":[[[191, 189],[191, 214],[527, 214],[527, 189],[191, 189]]]},"properties":{"objectType":"annotation","name":"company","classification":{"name":"company","color":[255, 0, 0]}}}]}