{"type":"FeatureCollection","features":[{"type":"Feature","id":"fea5edc8-3d27-4d79-a064-b53e3e32d6b6","geometry":{"type":"Polygon","coordinates":[[[623, 1099],[623, 1148],[696, 1148],[696, 1099],[623, 1099]]]},"properties":{"objectType":"annotation","name":"total","classification":{"name":"total","color":[255, 255, 0]}}},{"type":"Feature","id":"f3aa4167-67f6-4fdd-95a5-2a096fe62475","geometry":{"type":"Polygon","coordinates":[[[79, 249],[79, 386],[635, 386],[635, 249],[79, 249]]]},"properties":{"objectType":"annotation","name":"address","classification":{"name":"address","color":[0, 0, 255]}}},{"type":"Feature","id":"6cd22d5f-e7c4-4585-a99d-b5db9b3fed50","geometry":{"type":"Polygon","coordinates":[[[168, 597],[168, 625],[308, 625],[308, 597],[168, 597]]]},"properties":{"objectType":"annotation","name":"date","classification":{"name":"date","color":[0, 255, 0]}}},{"type":"Feature","id":"965ed13c-83e5-476a-a912-fe7975d5bbe8","geometry":{"type":"Polygon","coordinates":[[[100, 215],[100, 257],[607, 257],[607, 215],[100, 215]]]},"properties":{"objectType":"annotation","name":"company","classification":{"name":"company","color":[255, 0, 0]}}}]}