{
  "type": "FeatureCollection",
  "features": [
    {
      "type": "Feature",
      "geometry": {
        "type": "Polygon",
        "coordinates": [
          [
            [
              129,
              86
            ],
            [
              309,
              86
            ],
            [
              309,
              111
            ],
            [
              129,
              111
            ],
            [
              129,
              86
            ]
          ]
        ]
      },
      "properties": {
        "name": "company",
        "classification": {
          "name": "company",
          "colorRGB": -65536
        }
      }
    },
    {
      "type": "Feature",
      "geometry": {
        "type": "Polygon",
        "coordinates": [
          [
            [
              117,
              263
            ],
            [
              301,
              263
            ],
            [
              301,
              306
            ],
            [
              117,
              306
            ],
            [
              117,
              263
            ]
          ]
        ]
      },
      "properties": {
        "name": "date",
        "classification": {
          "name": "date",
          "colorRGB": -16711936
        }
      }
    },
    {
      "type": "Feature",
      "geometry": {
        "type": "Polygon",
        "coordinates": [
          [
            [
              104,
              112
            ],
            [
              330,
              112
            ],
            [
              330,
              177
            ],
            [
              104,
              177
            ],
            [
              104,
              112
            ]
          ]
        ]
      },
      "properties": {
        "name": "address",
        "classification": {
          "name": "address",
          "colorRGB": -16776961
        }
      }
    },
    {
      "type": "Feature",
      "geometry": {
        "type": "Polygon",
        "coordinates": [
          [
            [
              327,
              359
            ],
            [
              419,
              359
            ],
            [
              419,
              442
            ],
            [
              327,
              442
            ],
            [
              327,
              359
            ]
          ]
        ]
      },
      "properties": {
        "name": "total",
        "classification": {
          "name": "total",
          "colorRGB": -256
        }
      }
    }
  ]
}