{
  "type": "FeatureCollection",
  "features": [
    {
      "type": "Feature",
      "geometry": {
        "type": "Polygon",
        "coordinates": [
          [
            [
              109,
              171
            ],
            [
              330,
              171
            ],
            [
              330,
              191
            ],
            [
              109,
              191
            ],
            [
              109,
              171
            ]
          ]
        ]
      },
      "properties": {
        "name": "company",
        "classification": {
          "name": "company",
          "colorRGB": -65536
        }
      }
    },
    {
      "type": "Feature",
      "geometry": {
        "type": "Polygon",
        "coordinates": [
          [
            [
              244,
              380
            ],
            [
              260,
              380
            ],
            [
              260,
              659
            ],
            [
              244,
              659
            ],
            [
              244,
              380
            ]
          ]
        ]
      },
      "properties": {
        "name": "date",
        "classification": {
          "name": "date",
          "colorRGB": -16711936
        }
      }
    },
    {
      "type": "Feature",
      "geometry": {
        "type": "Polygon",
        "coordinates": [
          [
            [
              244,
              380
            ],
            [
              260,
              380
            ],
            [
              260,
              659
            ],
            [
              244,
              659
            ],
            [
              244,
              380
            ]
          ]
        ]
      },
      "properties": {
        "name": "address",
        "classification": {
          "name": "address",
          "colorRGB": -16776961
        }
      }
    },
    {
      "type": "Feature",
      "geometry": {
        "type": "Polygon",
        "coordinates": [
          [
            [
              346,
              762
            ],
            [
              434,
              762
            ],
            [
              434,
              784
            ],
            [
              346,
              784
            ],
            [
              346,
              762
            ]
          ]
        ]
      },
      "properties": {
        "name": "total",
        "classification": {
          "name": "total",
          "colorRGB": -256
        }
      }
    }
  ]
}