{
  "type": "FeatureCollection",
  "features": [
    {
      "type": "Feature",
      "geometry": {
        "type": "Polygon",
        "coordinates": [
          [
            [
              1397,
              1729
            ],
            [
              2752,
              1729
            ],
            [
              2752,
              1826
            ],
            [
              1397,
              1826
            ],
            [
              1397,
              1729
            ]
          ]
        ]
      },
      "properties": {
        "name": "company",
        "classification": {
          "name": "company",
          "colorRGB": -65536
        }
      }
    },
    {
      "type": "Feature",
      "geometry": {
        "type": "Polygon",
        "coordinates": [
          [
            [
              1832,
              2542
            ],
            [
              1869,
              2542
            ],
            [
              1869,
              2814
            ],
            [
              1832,
              2814
            ],
            [
              1832,
              2542
            ]
          ]
        ]
      },
      "properties": {
        "name": "date",
        "classification": {
          "name": "date",
          "colorRGB": -16711936
        }
      }
    },
    {
      "type": "Feature",
      "geometry": {
        "type": "Polygon",
        "coordinates": [
          [
            [
              1507,
              1978
            ],
            [
              2660,
              1978
            ],
            [
              2660,
              2153
            ],
            [
              1507,
              2153
            ],
            [
              1507,
              1978
            ]
          ]
        ]
      },
      "properties": {
        "name": "address",
        "classification": {
          "name": "address",
          "colorRGB": -16776961
        }
      }
    },
    {
      "type": "Feature",
      "geometry": {
        "type": "Polygon",
        "coordinates": [
          [
            [
              2347,
              3123
            ],
            [
              2841,
              3123
            ],
            [
              2841,
              3396
            ],
            [
              2347,
              3396
            ],
            [
              2347,
              3123
            ]
          ]
        ]
      },
      "properties": {
        "name": "total",
        "classification": {
          "name": "total",
          "colorRGB": -256
        }
      }
    }
  ]
}