{
  "type": "FeatureCollection",
  "features": [
    {
      "type": "Feature",
      "geometry": {
        "type": "Polygon",
        "coordinates": [
          [
            [
              133,
              282
            ],
            [
              558,
              282
            ],
            [
              558,
              317
            ],
            [
              133,
              317
            ],
            [
              133,
              282
            ]
          ]
        ]
      },
      "properties": {
        "name": "company",
        "classification": {
          "name": "company",
          "colorRGB": -65536
        }
      }
    },
    {
      "type": "Feature",
      "geometry": {
        "type": "Polygon",
        "coordinates": [
          [
            [
              549,
              615
            ],
            [
              671,
              615
            ],
            [
              671,
              650
            ],
            [
              549,
              650
            ],
            [
              549,
              615
            ]
          ]
        ]
      },
      "properties": {
        "name": "date",
        "classification": {
          "name": "date",
          "colorRGB": -16711936
        }
      }
    },
    {
      "type": "Feature",
      "geometry": {
        "type": "Polygon",
        "coordinates": [
          [
            [
              190,
              362
            ],
            [
              521,
              362
            ],
            [
              521,
              484
            ],
            [
              190,
              484
            ],
            [
              190,
              362
            ]
          ]
        ]
      },
      "properties": {
        "name": "address",
        "classification": {
          "name": "address",
          "colorRGB": -16776961
        }
      }
    },
    {
      "type": "Feature",
      "geometry": {
        "type": "Polygon",
        "coordinates": [
          [
            [
              552,
              869
            ],
            [
              640,
              869
            ],
            [
              640,
              901
            ],
            [
              552,
              901
            ],
            [
              552,
              869
            ]
          ]
        ]
      },
      "properties": {
        "name": "total",
        "classification": {
          "name": "total",
          "colorRGB": -256
        }
      }
    }
  ]
}