{
  "type": "FeatureCollection",
  "features": [
    {
      "type": "Feature",
      "geometry": {
        "type": "Polygon",
        "coordinates": [
          [
            [
              539,
              481
            ],
            [
              571,
              481
            ],
            [
              571,
              678
            ],
            [
              539,
              678
            ],
            [
              539,
              481
            ]
          ]
        ]
      },
      "properties": {
        "name": "company",
        "classification": {
          "name": "company",
          "colorRGB": -65536
        }
      }
    },
    {
      "type": "Feature",
      "geometry": {
        "type": "Polygon",
        "coordinates": [
          [
            [
              16,
              1043
            ],
            [
              348,
              1043
            ],
            [
              348,
              1069
            ],
            [
              16,
              1069
            ],
            [
              16,
              1043
            ]
          ]
        ]
      },
      "properties": {
        "name": "date",
        "classification": {
          "name": "date",
          "colorRGB": -16711936
        }
      }
    },
    {
      "type": "Feature",
      "geometry": {
        "type": "Polygon",
        "coordinates": [
          [
            [
              58,
              282
            ],
            [
              511,
              282
            ],
            [
              511,
              364
            ],
            [
              58,
              364
            ],
            [
              58,
              282
            ]
          ]
        ]
      },
      "properties": {
        "name": "address",
        "classification": {
          "name": "address",
          "colorRGB": -16776961
        }
      }
    },
    {
      "type": "Feature",
      "geometry": {
        "type": "Polygon",
        "coordinates": [
          [
            [
              457,
              820
            ],
            [
              566,
              820
            ],
            [
              566,
              843
            ],
            [
              457,
              843
            ],
            [
              457,
              820
            ]
          ]
        ]
      },
      "properties": {
        "name": "total",
        "classification": {
          "name": "total",
          "colorRGB": -256
        }
      }
    }
  ]
}