{
  "type": "FeatureCollection",
  "features": [
    {
      "type": "Feature",
      "geometry": {
        "type": "Polygon",
        "coordinates": [
          [
            [
              242,
              280
            ],
            [
              678,
              280
            ],
            [
              678,
              312
            ],
            [
              242,
              312
            ],
            [
              242,
              280
            ]
          ]
        ]
      },
      "properties": {
        "name": "company",
        "classification": {
          "name": "company",
          "colorRGB": -65536
        }
      }
    },
    {
      "type": "Feature",
      "geometry": {
        "type": "Polygon",
        "coordinates": [
          [
            [
              290,
              1164
            ],
            [
              311,
              1164
            ],
            [
              311,
              1302
            ],
            [
              290,
              1302
            ],
            [
              290,
              1164
            ]
          ]
        ]
      },
      "properties": {
        "name": "date",
        "classification": {
          "name": "date",
          "colorRGB": -16711936
        }
      }
    },
    {
      "type": "Feature",
      "geometry": {
        "type": "Polygon",
        "coordinates": [
          [
            [
              165,
              362
            ],
            [
              748,
              362
            ],
            [
              748,
              481
            ],
            [
              165,
              481
            ],
            [
              165,
              362
            ]
          ]
        ]
      },
      "properties": {
        "name": "address",
        "classification": {
          "name": "address",
          "colorRGB": -16776961
        }
      }
    },
    {
      "type": "Feature",
      "geometry": {
        "type": "Polygon",
        "coordinates": [
          [
            [
              668,
              1592
            ],
            [
              839,
              1592
            ],
            [
              839,
              1637
            ],
            [
              668,
              1637
            ],
            [
              668,
              1592
            ]
          ]
        ]
      },
      "properties": {
        "name": "total",
        "classification": {
          "name": "total",
          "colorRGB": -256
        }
      }
    }
  ]
}