{
  "type": "FeatureCollection",
  "features": [
    {
      "type": "Feature",
      "geometry": {
        "type": "Polygon",
        "coordinates": [
          [
            [
              299,
              225
            ],
            [
              593,
              225
            ],
            [
              593,
              260
            ],
            [
              299,
              260
            ],
            [
              299,
              225
            ]
          ]
        ]
      },
      "properties": {
        "name": "company",
        "classification": {
          "name": "company",
          "colorRGB": -65536
        }
      }
    },
    {
      "type": "Feature",
      "geometry": {
        "type": "Polygon",
        "coordinates": [
          [
            [
              264,
              587
            ],
            [
              493,
              587
            ],
            [
              493,
              625
            ],
            [
              264,
              625
            ],
            [
              264,
              587
            ]
          ]
        ]
      },
      "properties": {
        "name": "date",
        "classification": {
          "name": "date",
          "colorRGB": -16711936
        }
      }
    },
    {
      "type": "Feature",
      "geometry": {
        "type": "Polygon",
        "coordinates": [
          [
            [
              182,
              332
            ],
            [
              728,
              332
            ],
            [
              728,
              410
            ],
            [
              182,
              410
            ],
            [
              182,
              332
            ]
          ]
        ]
      },
      "properties": {
        "name": "address",
        "classification": {
          "name": "address",
          "colorRGB": -16776961
        }
      }
    },
    {
      "type": "Feature",
      "geometry": {
        "type": "Polygon",
        "coordinates": [
          [
            [
              738,
              1245
            ],
            [
              858,
              1245
            ],
            [
              858,
              1280
            ],
            [
              738,
              1280
            ],
            [
              738,
              1245
            ]
          ]
        ]
      },
      "properties": {
        "name": "total",
        "classification": {
          "name": "total",
          "colorRGB": -256
        }
      }
    }
  ]
}