{
  "type": "FeatureCollection",
  "features": [
    {
      "type": "Feature",
      "geometry": {
        "type": "Polygon",
        "coordinates": [
          [
            [
              2163,
              1855
            ],
            [
              3045,
              1855
            ],
            [
              3045,
              1944
            ],
            [
              2163,
              1944
            ],
            [
              2163,
              1855
            ]
          ]
        ]
      },
      "properties": {
        "name": "company",
        "classification": {
          "name": "company",
          "colorRGB": -65536
        }
      }
    },
    {
      "type": "Feature",
      "geometry": {
        "type": "Polygon",
        "coordinates": [
          [
            [
              1757,
              3124
            ],
            [
              2511,
              3124
            ],
            [
              2511,
              3206
            ],
            [
              1757,
              3206
            ],
            [
              1757,
              3124
            ]
          ]
        ]
      },
      "properties": {
        "name": "date",
        "classification": {
          "name": "date",
          "colorRGB": -16711936
        }
      }
    },
    {
      "type": "Feature",
      "geometry": {
        "type": "Polygon",
        "coordinates": [
          [
            [
              2233,
              1955
            ],
            [
              2963,
              1955
            ],
            [
              2963,
              2139
            ],
            [
              2233,
              2139
            ],
            [
              2233,
              1955
            ]
          ]
        ]
      },
      "properties": {
        "name": "address",
        "classification": {
          "name": "address",
          "colorRGB": -16776961
        }
      }
    },
    {
      "type": "Feature",
      "geometry": {
        "type": "Polygon",
        "coordinates": [
          [
            [
              2935,
              3603
            ],
            [
              3300,
              3603
            ],
            [
              3300,
              3979
            ],
            [
              2935,
              3979
            ],
            [
              2935,
              3603
            ]
          ]
        ]
      },
      "properties": {
        "name": "total",
        "classification": {
          "name": "total",
          "colorRGB": -256
        }
      }
    }
  ]
}