{
  "type": "FeatureCollection",
  "features": [
    {
      "type": "Feature",
      "geometry": {
        "type": "Polygon",
        "coordinates": [
          [
            [
              86,
              127
            ],
            [
              512,
              127
            ],
            [
              512,
              150
            ],
            [
              86,
              150
            ],
            [
              86,
              127
            ]
          ]
        ]
      },
      "properties": {
        "name": "company",
        "classification": {
          "name": "company",
          "colorRGB": -65536
        }
      }
    },
    {
      "type": "Feature",
      "geometry": {
        "type": "Polygon",
        "coordinates": [
          [
            [
              65,
              353
            ],
            [
              179,
              353
            ],
            [
              179,
              373
            ],
            [
              65,
              373
            ],
            [
              65,
              353
            ]
          ]
        ]
      },
      "properties": {
        "name": "date",
        "classification": {
          "name": "date",
          "colorRGB": -16711936
        }
      }
    },
    {
      "type": "Feature",
      "geometry": {
        "type": "Polygon",
        "coordinates": [
          [
            [
              113,
              214
            ],
            [
              482,
              214
            ],
            [
              482,
              291
            ],
            [
              113,
              291
            ],
            [
              113,
              214
            ]
          ]
        ]
      },
      "properties": {
        "name": "address",
        "classification": {
          "name": "address",
          "colorRGB": -16776961
        }
      }
    },
    {
      "type": "Feature",
      "geometry": {
        "type": "Polygon",
        "coordinates": [
          [
            [
              463,
              970
            ],
            [
              535,
              970
            ],
            [
              535,
              1081
            ],
            [
              463,
              1081
            ],
            [
              463,
              970
            ]
          ]
        ]
      },
      "properties": {
        "name": "total",
        "classification": {
          "name": "total",
          "colorRGB": -256
        }
      }
    }
  ]
}