{
  "type": "FeatureCollection",
  "features": [
    {
      "type": "Feature",
      "geometry": {
        "type": "Polygon",
        "coordinates": [
          [
            [
              42,
              138
            ],
            [
              514,
              138
            ],
            [
              514,
              173
            ],
            [
              42,
              173
            ],
            [
              42,
              138
            ]
          ]
        ]
      },
      "properties": {
        "name": "company",
        "classification": {
          "name": "company",
          "colorRGB": -65536
        }
      }
    },
    {
      "type": "Feature",
      "geometry": {
        "type": "Polygon",
        "coordinates": [
          [
            [
              166,
              974
            ],
            [
              293,
              974
            ],
            [
              293,
              1029
            ],
            [
              166,
              1029
            ],
            [
              166,
              974
            ]
          ]
        ]
      },
      "properties": {
        "name": "date",
        "classification": {
          "name": "date",
          "colorRGB": -16711936
        }
      }
    },
    {
      "type": "Feature",
      "geometry": {
        "type": "Polygon",
        "coordinates": [
          [
            [
              46,
              186
            ],
            [
              509,
              186
            ],
            [
              509,
              231
            ],
            [
              46,
              231
            ],
            [
              46,
              186
            ]
          ]
        ]
      },
      "properties": {
        "name": "address",
        "classification": {
          "name": "address",
          "colorRGB": -16776961
        }
      }
    },
    {
      "type": "Feature",
      "geometry": {
        "type": "Polygon",
        "coordinates": [
          [
            [
              477,
              524
            ],
            [
              532,
              524
            ],
            [
              532,
              789
            ],
            [
              477,
              789
            ],
            [
              477,
              524
            ]
          ]
        ]
      },
      "properties": {
        "name": "total",
        "classification": {
          "name": "total",
          "colorRGB": -256
        }
      }
    }
  ]
}