{
  "type": "FeatureCollection",
  "features": [
    {
      "type": "Feature",
      "geometry": {
        "type": "Polygon",
        "coordinates": [
          [
            [
              151,
              135
            ],
            [
              470,
              135
            ],
            [
              470,
              155
            ],
            [
              151,
              155
            ],
            [
              151,
              135
            ]
          ]
        ]
      },
      "properties": {
        "name": "company",
        "classification": {
          "name": "company",
          "colorRGB": -65536
        }
      }
    },
    {
      "type": "Feature",
      "geometry": {
        "type": "Polygon",
        "coordinates": [
          [
            [
              113,
              337
            ],
            [
              208,
              337
            ],
            [
              208,
              355
            ],
            [
              113,
              355
            ],
            [
              113,
              337
            ]
          ]
        ]
      },
      "properties": {
        "name": "date",
        "classification": {
          "name": "date",
          "colorRGB": -16711936
        }
      }
    },
    {
      "type": "Feature",
      "geometry": {
        "type": "Polygon",
        "coordinates": [
          [
            [
              127,
              182
            ],
            [
              490,
              182
            ],
            [
              490,
              271
            ],
            [
              127,
              271
            ],
            [
              127,
              182
            ]
          ]
        ]
      },
      "properties": {
        "name": "address",
        "classification": {
          "name": "address",
          "colorRGB": -16776961
        }
      }
    },
    {
      "type": "Feature",
      "geometry": {
        "type": "Polygon",
        "coordinates": [
          [
            [
              452,
              532
            ],
            [
              499,
              532
            ],
            [
              499,
              551
            ],
            [
              452,
              551
            ],
            [
              452,
              532
            ]
          ]
        ]
      },
      "properties": {
        "name": "total",
        "classification": {
          "name": "total",
          "colorRGB": -256
        }
      }
    }
  ]
}