{
  "type": "FeatureCollection",
  "features": [
    {
      "type": "Feature",
      "geometry": {
        "type": "Polygon",
        "coordinates": [
          [
            [
              124,
              276
            ],
            [
              521,
              276
            ],
            [
              521,
              306
            ],
            [
              124,
              306
            ],
            [
              124,
              276
            ]
          ]
        ]
      },
      "properties": {
        "name": "company",
        "classification": {
          "name": "company",
          "colorRGB": -65536
        }
      }
    },
    {
      "type": "Feature",
      "geometry": {
        "type": "Polygon",
        "coordinates": [
          [
            [
              512,
              634
            ],
            [
              630,
              634
            ],
            [
              630,
              664
            ],
            [
              512,
              664
            ],
            [
              512,
              634
            ]
          ]
        ]
      },
      "properties": {
        "name": "date",
        "classification": {
          "name": "date",
          "colorRGB": -16711936
        }
      }
    },
    {
      "type": "Feature",
      "geometry": {
        "type": "Polygon",
        "coordinates": [
          [
            [
              139,
              315
            ],
            [
              523,
              315
            ],
            [
              523,
              425
            ],
            [
              139,
              425
            ],
            [
              139,
              315
            ]
          ]
        ]
      },
      "properties": {
        "name": "address",
        "classification": {
          "name": "address",
          "colorRGB": -16776961
        }
      }
    },
    {
      "type": "Feature",
      "geometry": {
        "type": "Polygon",
        "coordinates": [
          [
            [
              524,
              913
            ],
            [
              602,
              913
            ],
            [
              602,
              982
            ],
            [
              524,
              982
            ],
            [
              524,
              913
            ]
          ]
        ]
      },
      "properties": {
        "name": "total",
        "classification": {
          "name": "total",
          "colorRGB": -256
        }
      }
    }
  ]
}