{
  "type": "FeatureCollection",
  "features": [
    {
      "type": "Feature",
      "geometry": {
        "type": "Polygon",
        "coordinates": [
          [
            [
              652,
              402
            ],
            [
              701,
              402
            ],
            [
              701,
              833
            ],
            [
              652,
              833
            ],
            [
              652,
              402
            ]
          ]
        ]
      },
      "properties": {
        "name": "company",
        "classification": {
          "name": "company",
          "colorRGB": -65536
        }
      }
    },
    {
      "type": "Feature",
      "geometry": {
        "type": "Polygon",
        "coordinates": [
          [
            [
              47,
              1178
            ],
            [
              445,
              1178
            ],
            [
              445,
              1219
            ],
            [
              47,
              1219
            ],
            [
              47,
              1178
            ]
          ]
        ]
      },
      "properties": {
        "name": "date",
        "classification": {
          "name": "date",
          "colorRGB": -16711936
        }
      }
    },
    {
      "type": "Feature",
      "geometry": {
        "type": "Polygon",
        "coordinates": [
          [
            [
              652,
              402
            ],
            [
              701,
              402
            ],
            [
              701,
              833
            ],
            [
              652,
              833
            ],
            [
              652,
              402
            ]
          ]
        ]
      },
      "properties": {
        "name": "address",
        "classification": {
          "name": "address",
          "colorRGB": -16776961
        }
      }
    },
    {
      "type": "Feature",
      "geometry": {
        "type": "Polygon",
        "coordinates": [
          [
            [
              567,
              969
            ],
            [
              702,
              969
            ],
            [
              702,
              1000
            ],
            [
              567,
              1000
            ],
            [
              567,
              969
            ]
          ]
        ]
      },
      "properties": {
        "name": "total",
        "classification": {
          "name": "total",
          "colorRGB": -256
        }
      }
    }
  ]
}