{
  "type": "FeatureCollection",
  "features": [
    {
      "type": "Feature",
      "geometry": {
        "type": "Polygon",
        "coordinates": [
          [
            [
              36,
              117
            ],
            [
              587,
              117
            ],
            [
              587,
              140
            ],
            [
              36,
              140
            ],
            [
              36,
              117
            ]
          ]
        ]
      },
      "properties": {
        "name": "company",
        "classification": {
          "name": "company",
          "colorRGB": -65536
        }
      }
    },
    {
      "type": "Feature",
      "geometry": {
        "type": "Polygon",
        "coordinates": [
          [
            [
              256,
              512
            ],
            [
              461,
              512
            ],
            [
              461,
              646
            ],
            [
              256,
              646
            ],
            [
              256,
              512
            ]
          ]
        ]
      },
      "properties": {
        "name": "date",
        "classification": {
          "name": "date",
          "colorRGB": -16711936
        }
      }
    },
    {
      "type": "Feature",
      "geometry": {
        "type": "Polygon",
        "coordinates": [
          [
            [
              309,
              578
            ],
            [
              462,
              578
            ],
            [
              462,
              646
            ],
            [
              309,
              646
            ],
            [
              309,
              578
            ]
          ]
        ]
      },
      "properties": {
        "name": "address",
        "classification": {
          "name": "address",
          "colorRGB": -16776961
        }
      }
    },
    {
      "type": "Feature",
      "geometry": {
        "type": "Polygon",
        "coordinates": [
          [
            [
              356,
              626
            ],
            [
              367,
              626
            ],
            [
              367,
              646
            ],
            [
              356,
              646
            ],
            [
              356,
              626
            ]
          ]
        ]
      },
      "properties": {
        "name": "total",
        "classification": {
          "name": "total",
          "colorRGB": -256
        }
      }
    }
  ]
}