{
  "type": "FeatureCollection",
  "features": [
    {
      "type": "Feature",
      "geometry": {
        "type": "Polygon",
        "coordinates": [
          [
            [
              563,
              963
            ],
            [
              587,
              963
            ],
            [
              587,
              1260
            ],
            [
              563,
              1260
            ],
            [
              563,
              963
            ]
          ]
        ]
      },
      "properties": {
        "name": "company",
        "classification": {
          "name": "company",
          "colorRGB": -65536
        }
      }
    },
    {
      "type": "Feature",
      "geometry": {
        "type": "Polygon",
        "coordinates": [
          [
            [
              159,
              964
            ],
            [
              181,
              964
            ],
            [
              181,
              1257
            ],
            [
              159,
              1257
            ],
            [
              159,
              964
            ]
          ]
        ]
      },
      "properties": {
        "name": "date",
        "classification": {
          "name": "date",
          "colorRGB": -16711936
        }
      }
    },
    {
      "type": "Feature",
      "geometry": {
        "type": "Polygon",
        "coordinates": [
          [
            [
              159,
              963
            ],
            [
              587,
              963
            ],
            [
              587,
              1260
            ],
            [
              159,
              1260
            ],
            [
              159,
              963
            ]
          ]
        ]
      },
      "properties": {
        "name": "address",
        "classification": {
          "name": "address",
          "colorRGB": -16776961
        }
      }
    },
    {
      "type": "Feature",
      "geometry": {
        "type": "Polygon",
        "coordinates": [
          [
            [
              636,
              1356
            ],
            [
              816,
              1356
            ],
            [
              816,
              1478
            ],
            [
              636,
              1478
            ],
            [
              636,
              1356
            ]
          ]
        ]
      },
      "properties": {
        "name": "total",
        "classification": {
          "name": "total",
          "colorRGB": -256
        }
      }
    }
  ]
}