{
  "type": "FeatureCollection",
  "features": [
    {
      "type": "Feature",
      "geometry": {
        "type": "Polygon",
        "coordinates": [
          [
            [
              140,
              223
            ],
            [
              526,
              223
            ],
            [
              526,
              258
            ],
            [
              140,
              258
            ],
            [
              140,
              223
            ]
          ]
        ]
      },
      "properties": {
        "name": "company",
        "classification": {
          "name": "company",
          "colorRGB": -65536
        }
      }
    },
    {
      "type": "Feature",
      "geometry": {
        "type": "Polygon",
        "coordinates": [
          [
            [
              68,
              693
            ],
            [
              259,
              693
            ],
            [
              259,
              775
            ],
            [
              68,
              775
            ],
            [
              68,
              693
            ]
          ]
        ]
      },
      "properties": {
        "name": "date",
        "classification": {
          "name": "date",
          "colorRGB": -16711936
        }
      }
    },
    {
      "type": "Feature",
      "geometry": {
        "type": "Polygon",
        "coordinates": [
          [
            [
              134,
              264
            ],
            [
              536,
              264
            ],
            [
              536,
              379
            ],
            [
              134,
              379
            ],
            [
              134,
              264
            ]
          ]
        ]
      },
      "properties": {
        "name": "address",
        "classification": {
          "name": "address",
          "colorRGB": -16776961
        }
      }
    },
    {
      "type": "Feature",
      "geometry": {
        "type": "Polygon",
        "coordinates": [
          [
            [
              68,
              688
            ],
            [
              623,
              688
            ],
            [
              623,
              952
            ],
            [
              68,
              952
            ],
            [
              68,
              688
            ]
          ]
        ]
      },
      "properties": {
        "name": "total",
        "classification": {
          "name": "total",
          "colorRGB": -256
        }
      }
    }
  ]
}