{
  "type": "FeatureCollection",
  "features": [
    {
      "type": "Feature",
      "geometry": {
        "type": "Polygon",
        "coordinates": [
          [
            [
              759,
              901
            ],
            [
              782,
              901
            ],
            [
              782,
              984
            ],
            [
              759,
              984
            ],
            [
              759,
              901
            ]
          ]
        ]
      },
      "properties": {
        "name": "company",
        "classification": {
          "name": "company",
          "colorRGB": -65536
        }
      }
    },
    {
      "type": "Feature",
      "geometry": {
        "type": "Polygon",
        "coordinates": [
          [
            [
              639,
              796
            ],
            [
              781,
              796
            ],
            [
              781,
              836
            ],
            [
              639,
              836
            ],
            [
              639,
              796
            ]
          ]
        ]
      },
      "properties": {
        "name": "date",
        "classification": {
          "name": "date",
          "colorRGB": -16711936
        }
      }
    },
    {
      "type": "Feature",
      "geometry": {
        "type": "Polygon",
        "coordinates": [
          [
            [
              183,
              385
            ],
            [
              657,
              385
            ],
            [
              657,
              580
            ],
            [
              183,
              580
            ],
            [
              183,
              385
            ]
          ]
        ]
      },
      "properties": {
        "name": "address",
        "classification": {
          "name": "address",
          "colorRGB": -16776961
        }
      }
    },
    {
      "type": "Feature",
      "geometry": {
        "type": "Polygon",
        "coordinates": [
          [
            [
              667,
              1049
            ],
            [
              740,
              1049
            ],
            [
              740,
              1083
            ],
            [
              667,
              1083
            ],
            [
              667,
              1049
            ]
          ]
        ]
      },
      "properties": {
        "name": "total",
        "classification": {
          "name": "total",
          "colorRGB": -256
        }
      }
    }
  ]
}