{
  "type": "FeatureCollection",
  "features": [
    {
      "type": "Feature",
      "geometry": {
        "type": "Polygon",
        "coordinates": [
          [
            [
              667,
              787
            ],
            [
              712,
              787
            ],
            [
              712,
              1129
            ],
            [
              667,
              1129
            ],
            [
              667,
              787
            ]
          ]
        ]
      },
      "properties": {
        "name": "company",
        "classification": {
          "name": "company",
          "colorRGB": -65536
        }
      }
    },
    {
      "type": "Feature",
      "geometry": {
        "type": "Polygon",
        "coordinates": [
          [
            [
              352,
              826
            ],
            [
              369,
              826
            ],
            [
              369,
              935
            ],
            [
              352,
              935
            ],
            [
              352,
              826
            ]
          ]
        ]
      },
      "properties": {
        "name": "date",
        "classification": {
          "name": "date",
          "colorRGB": -16711936
        }
      }
    },
    {
      "type": "Feature",
      "geometry": {
        "type": "Polygon",
        "coordinates": [
          [
            [
              345,
              787
            ],
            [
              712,
              787
            ],
            [
              712,
              1129
            ],
            [
              345,
              1129
            ],
            [
              345,
              787
            ]
          ]
        ]
      },
      "properties": {
        "name": "address",
        "classification": {
          "name": "address",
          "colorRGB": -16776961
        }
      }
    },
    {
      "type": "Feature",
      "geometry": {
        "type": "Polygon",
        "coordinates": [
          [
            [
              610,
              1249
            ],
            [
              700,
              1249
            ],
            [
              700,
              1361
            ],
            [
              610,
              1361
            ],
            [
              610,
              1249
            ]
          ]
        ]
      },
      "properties": {
        "name": "total",
        "classification": {
          "name": "total",
          "colorRGB": -256
        }
      }
    }
  ]
}