{
  "type": "FeatureCollection",
  "features": [
    {
      "type": "Feature",
      "geometry": {
        "type": "Polygon",
        "coordinates": [
          [
            [
              113,
              221
            ],
            [
              661,
              221
            ],
            [
              661,
              254
            ],
            [
              113,
              254
            ],
            [
              113,
              221
            ]
          ]
        ]
      },
      "properties": {
        "name": "company",
        "classification": {
          "name": "company",
          "colorRGB": -65536
        }
      }
    },
    {
      "type": "Feature",
      "geometry": {
        "type": "Polygon",
        "coordinates": [
          [
            [
              267,
              710
            ],
            [
              294,
              710
            ],
            [
              294,
              816
            ],
            [
              267,
              816
            ],
            [
              267,
              710
            ]
          ]
        ]
      },
      "properties": {
        "name": "date",
        "classification": {
          "name": "date",
          "colorRGB": -16711936
        }
      }
    },
    {
      "type": "Feature",
      "geometry": {
        "type": "Polygon",
        "coordinates": [
          [
            [
              104,
              255
            ],
            [
              667,
              255
            ],
            [
              667,
              317
            ],
            [
              104,
              317
            ],
            [
              104,
              255
            ]
          ]
        ]
      },
      "properties": {
        "name": "address",
        "classification": {
          "name": "address",
          "colorRGB": -16776961
        }
      }
    },
    {
      "type": "Feature",
      "geometry": {
        "type": "Polygon",
        "coordinates": [
          [
            [
              267,
              710
            ],
            [
              294,
              710
            ],
            [
              294,
              816
            ],
            [
              267,
              816
            ],
            [
              267,
              710
            ]
          ]
        ]
      },
      "properties": {
        "name": "total",
        "classification": {
          "name": "total",
          "colorRGB": -256
        }
      }
    }
  ]
}