{
  "type": "FeatureCollection",
  "features": [
    {
      "type": "Feature",
      "geometry": {
        "type": "Polygon",
        "coordinates": [
          [
            [
              2061,
              1240
            ],
            [
              2745,
              1240
            ],
            [
              2745,
              1323
            ],
            [
              2061,
              1323
            ],
            [
              2061,
              1240
            ]
          ]
        ]
      },
      "properties": {
        "name": "company",
        "classification": {
          "name": "company",
          "colorRGB": -65536
        }
      }
    },
    {
      "type": "Feature",
      "geometry": {
        "type": "Polygon",
        "coordinates": [
          [
            [
              1521,
              1921
            ],
            [
              2953,
              1921
            ],
            [
              2953,
              2891
            ],
            [
              1521,
              2891
            ],
            [
              1521,
              1921
            ]
          ]
        ]
      },
      "properties": {
        "name": "date",
        "classification": {
          "name": "date",
          "colorRGB": -16711936
        }
      }
    },
    {
      "type": "Feature",
      "geometry": {
        "type": "Polygon",
        "coordinates": [
          [
            [
              1521,
              2158
            ],
            [
              2922,
              2158
            ],
            [
              2922,
              3081
            ],
            [
              1521,
              3081
            ],
            [
              1521,
              2158
            ]
          ]
        ]
      },
      "properties": {
        "name": "address",
        "classification": {
          "name": "address",
          "colorRGB": -16776961
        }
      }
    },
    {
      "type": "Feature",
      "geometry": {
        "type": "Polygon",
        "coordinates": [
          [
            [
              2553,
              3013
            ],
            [
              2922,
              3013
            ],
            [
              2922,
              3390
            ],
            [
              2553,
              3390
            ],
            [
              2553,
              3013
            ]
          ]
        ]
      },
      "properties": {
        "name": "total",
        "classification": {
          "name": "total",
          "colorRGB": -256
        }
      }
    }
  ]
}