{
  "type": "FeatureCollection",
  "features": [
    {
      "type": "Feature",
      "geometry": {
        "type": "Polygon",
        "coordinates": [
          [
            [
              172,
              310
            ],
            [
              757,
              310
            ],
            [
              757,
              351
            ],
            [
              172,
              351
            ],
            [
              172,
              310
            ]
          ]
        ]
      },
      "properties": {
        "name": "company",
        "classification": {
          "name": "company",
          "colorRGB": -65536
        }
      }
    },
    {
      "type": "Feature",
      "geometry": {
        "type": "Polygon",
        "coordinates": [
          [
            [
              45,
              619
            ],
            [
              754,
              619
            ],
            [
              754,
              880
            ],
            [
              45,
              880
            ],
            [
              45,
              619
            ]
          ]
        ]
      },
      "properties": {
        "name": "date",
        "classification": {
          "name": "date",
          "colorRGB": -16711936
        }
      }
    },
    {
      "type": "Feature",
      "geometry": {
        "type": "Polygon",
        "coordinates": [
          [
            [
              209,
              354
            ],
            [
              727,
              354
            ],
            [
              727,
              482
            ],
            [
              209,
              482
            ],
            [
              209,
              354
            ]
          ]
        ]
      },
      "properties": {
        "name": "address",
        "classification": {
          "name": "address",
          "colorRGB": -16776961
        }
      }
    },
    {
      "type": "Feature",
      "geometry": {
        "type": "Polygon",
        "coordinates": [
          [
            [
              569,
              1021
            ],
            [
              761,
              1021
            ],
            [
              761,
              1175
            ],
            [
              569,
              1175
            ],
            [
              569,
              1021
            ]
          ]
        ]
      },
      "properties": {
        "name": "total",
        "classification": {
          "name": "total",
          "colorRGB": -256
        }
      }
    }
  ]
}