{
  "type": "FeatureCollection",
  "features": [
    {
      "type": "Feature",
      "geometry": {
        "type": "Polygon",
        "coordinates": [
          [
            [
              165,
              278
            ],
            [
              756,
              278
            ],
            [
              756,
              316
            ],
            [
              165,
              316
            ],
            [
              165,
              278
            ]
          ]
        ]
      },
      "properties": {
        "name": "company",
        "classification": {
          "name": "company",
          "colorRGB": -65536
        }
      }
    },
    {
      "type": "Feature",
      "geometry": {
        "type": "Polygon",
        "coordinates": [
          [
            [
              603,
              929
            ],
            [
              875,
              929
            ],
            [
              875,
              962
            ],
            [
              603,
              962
            ],
            [
              603,
              929
            ]
          ]
        ]
      },
      "properties": {
        "name": "date",
        "classification": {
          "name": "date",
          "colorRGB": -16711936
        }
      }
    },
    {
      "type": "Feature",
      "geometry": {
        "type": "Polygon",
        "coordinates": [
          [
            [
              229,
              374
            ],
            [
              699,
              374
            ],
            [
              699,
              453
            ],
            [
              229,
              453
            ],
            [
              229,
              374
            ]
          ]
        ]
      },
      "properties": {
        "name": "address",
        "classification": {
          "name": "address",
          "colorRGB": -16776961
        }
      }
    },
    {
      "type": "Feature",
      "geometry": {
        "type": "Polygon",
        "coordinates": [
          [
            [
              687,
              1180
            ],
            [
              789,
              1180
            ],
            [
              789,
              1305
            ],
            [
              687,
              1305
            ],
            [
              687,
              1180
            ]
          ]
        ]
      },
      "properties": {
        "name": "total",
        "classification": {
          "name": "total",
          "colorRGB": -256
        }
      }
    }
  ]
}