{
  "type": "FeatureCollection",
  "features": [
    {
      "type": "Feature",
      "geometry": {
        "type": "Polygon",
        "coordinates": [
          [
            [
              1883,
              1275
            ],
            [
              2845,
              1275
            ],
            [
              2845,
              1348
            ],
            [
              1883,
              1348
            ],
            [
              1883,
              1275
            ]
          ]
        ]
      },
      "properties": {
        "name": "company",
        "classification": {
          "name": "company",
          "colorRGB": -65536
        }
      }
    },
    {
      "type": "Feature",
      "geometry": {
        "type": "Polygon",
        "coordinates": [
          [
            [
              2427,
              2734
            ],
            [
              2462,
              2734
            ],
            [
              2462,
              2947
            ],
            [
              2427,
              2947
            ],
            [
              2427,
              2734
            ]
          ]
        ]
      },
      "properties": {
        "name": "date",
        "classification": {
          "name": "date",
          "colorRGB": -16711936
        }
      }
    },
    {
      "type": "Feature",
      "geometry": {
        "type": "Polygon",
        "coordinates": [
          [
            [
              1701,
              1488
            ],
            [
              3010,
              1488
            ],
            [
              3010,
              1667
            ],
            [
              1701,
              1667
            ],
            [
              1701,
              1488
            ]
          ]
        ]
      },
      "properties": {
        "name": "address",
        "classification": {
          "name": "address",
          "colorRGB": -16776961
        }
      }
    },
    {
      "type": "Feature",
      "geometry": {
        "type": "Polygon",
        "coordinates": [
          [
            [
              2906,
              3544
            ],
            [
              3043,
              3544
            ],
            [
              3043,
              3608
            ],
            [
              2906,
              3608
            ],
            [
              2906,
              3544
            ]
          ]
        ]
      },
      "properties": {
        "name": "total",
        "classification": {
          "name": "total",
          "colorRGB": -256
        }
      }
    }
  ]
}