{
  "type": "FeatureCollection",
  "features": [
    {
      "type": "Feature",
      "geometry": {
        "type": "Polygon",
        "coordinates": [
          [
            [
              22,
              297
            ],
            [
              507,
              297
            ],
            [
              507,
              318
            ],
            [
              22,
              318
            ],
            [
              22,
              297
            ]
          ]
        ]
      },
      "properties": {
        "name": "company",
        "classification": {
          "name": "company",
          "colorRGB": -65536
        }
      }
    },
    {
      "type": "Feature",
      "geometry": {
        "type": "Polygon",
        "coordinates": [
          [
            [
              21,
              714
            ],
            [
              299,
              714
            ],
            [
              299,
              850
            ],
            [
              21,
              850
            ],
            [
              21,
              714
            ]
          ]
        ]
      },
      "properties": {
        "name": "date",
        "classification": {
          "name": "date",
          "colorRGB": -16711936
        }
      }
    },
    {
      "type": "Feature",
      "geometry": {
        "type": "Polygon",
        "coordinates": [
          [
            [
              22,
              145
            ],
            [
              583,
              145
            ],
            [
              583,
              228
            ],
            [
              22,
              228
            ],
            [
              22,
              145
            ]
          ]
        ]
      },
      "properties": {
        "name": "address",
        "classification": {
          "name": "address",
          "colorRGB": -16776961
        }
      }
    },
    {
      "type": "Feature",
      "geometry": {
        "type": "Polygon",
        "coordinates": [
          [
            [
              216,
              447
            ],
            [
              516,
              447
            ],
            [
              516,
              554
            ],
            [
              216,
              554
            ],
            [
              216,
              447
            ]
          ]
        ]
      },
      "properties": {
        "name": "total",
        "classification": {
          "name": "total",
          "colorRGB": -256
        }
      }
    }
  ]
}