{
  "type": "FeatureCollection",
  "features": [
    {
      "type": "Feature",
      "geometry": {
        "type": "Polygon",
        "coordinates": [
          [
            [
              172,
              342
            ],
            [
              680,
              342
            ],
            [
              680,
              386
            ],
            [
              172,
              386
            ],
            [
              172,
              342
            ]
          ]
        ]
      },
      "properties": {
        "name": "company",
        "classification": {
          "name": "company",
          "colorRGB": -65536
        }
      }
    },
    {
      "type": "Feature",
      "geometry": {
        "type": "Polygon",
        "coordinates": [
          [
            [
              653,
              791
            ],
            [
              813,
              791
            ],
            [
              813,
              839
            ],
            [
              653,
              839
            ],
            [
              653,
              791
            ]
          ]
        ]
      },
      "properties": {
        "name": "date",
        "classification": {
          "name": "date",
          "colorRGB": -16711936
        }
      }
    },
    {
      "type": "Feature",
      "geometry": {
        "type": "Polygon",
        "coordinates": [
          [
            [
              191,
              389
            ],
            [
              667,
              389
            ],
            [
              667,
              583
            ],
            [
              191,
              583
            ],
            [
              191,
              389
            ]
          ]
        ]
      },
      "properties": {
        "name": "address",
        "classification": {
          "name": "address",
          "colorRGB": -16776961
        }
      }
    },
    {
      "type": "Feature",
      "geometry": {
        "type": "Polygon",
        "coordinates": [
          [
            [
              642,
              897
            ],
            [
              806,
              897
            ],
            [
              806,
              936
            ],
            [
              642,
              936
            ],
            [
              642,
              897
            ]
          ]
        ]
      },
      "properties": {
        "name": "total",
        "classification": {
          "name": "total",
          "colorRGB": -256
        }
      }
    }
  ]
}