{
  "type": "FeatureCollection",
  "features": [
    {
      "type": "Feature",
      "geometry": {
        "type": "Polygon",
        "coordinates": [
          [
            [
              310,
              198
            ],
            [
              591,
              198
            ],
            [
              591,
              237
            ],
            [
              310,
              237
            ],
            [
              310,
              198
            ]
          ]
        ]
      },
      "properties": {
        "name": "company",
        "classification": {
          "name": "company",
          "colorRGB": -65536
        }
      }
    },
    {
      "type": "Feature",
      "geometry": {
        "type": "Polygon",
        "coordinates": [
          [
            [
              815,
              602
            ],
            [
              852,
              602
            ],
            [
              852,
              678
            ],
            [
              815,
              678
            ],
            [
              815,
              602
            ]
          ]
        ]
      },
      "properties": {
        "name": "date",
        "classification": {
          "name": "date",
          "colorRGB": -16711936
        }
      }
    },
    {
      "type": "Feature",
      "geometry": {
        "type": "Polygon",
        "coordinates": [
          [
            [
              212,
              297
            ],
            [
              695,
              297
            ],
            [
              695,
              391
            ],
            [
              212,
              391
            ],
            [
              212,
              297
            ]
          ]
        ]
      },
      "properties": {
        "name": "address",
        "classification": {
          "name": "address",
          "colorRGB": -16776961
        }
      }
    },
    {
      "type": "Feature",
      "geometry": {
        "type": "Polygon",
        "coordinates": [
          [
            [
              630,
              1028
            ],
            [
              830,
              1028
            ],
            [
              830,
              1101
            ],
            [
              630,
              1101
            ],
            [
              630,
              1028
            ]
          ]
        ]
      },
      "properties": {
        "name": "total",
        "classification": {
          "name": "total",
          "colorRGB": -256
        }
      }
    }
  ]
}