{
  "type": "FeatureCollection",
  "features": [
    {
      "type": "Feature",
      "geometry": {
        "type": "Polygon",
        "coordinates": [
          [
            [
              43,
              912
            ],
            [
              64,
              912
            ],
            [
              64,
              1094
            ],
            [
              43,
              1094
            ],
            [
              43,
              912
            ]
          ]
        ]
      },
      "properties": {
        "name": "company",
        "classification": {
          "name": "company",
          "colorRGB": -65536
        }
      }
    },
    {
      "type": "Feature",
      "geometry": {
        "type": "Polygon",
        "coordinates": [
          [
            [
              215,
              911
            ],
            [
              229,
              911
            ],
            [
              229,
              1094
            ],
            [
              215,
              1094
            ],
            [
              215,
              911
            ]
          ]
        ]
      },
      "properties": {
        "name": "date",
        "classification": {
          "name": "date",
          "colorRGB": -16711936
        }
      }
    },
    {
      "type": "Feature",
      "geometry": {
        "type": "Polygon",
        "coordinates": [
          [
            [
              112,
              235
            ],
            [
              520,
              235
            ],
            [
              520,
              343
            ],
            [
              112,
              343
            ],
            [
              112,
              235
            ]
          ]
        ]
      },
      "properties": {
        "name": "address",
        "classification": {
          "name": "address",
          "colorRGB": -16776961
        }
      }
    },
    {
      "type": "Feature",
      "geometry": {
        "type": "Polygon",
        "coordinates": [
          [
            [
              215,
              911
            ],
            [
              229,
              911
            ],
            [
              229,
              1094
            ],
            [
              215,
              1094
            ],
            [
              215,
              911
            ]
          ]
        ]
      },
      "properties": {
        "name": "total",
        "classification": {
          "name": "total",
          "colorRGB": -256
        }
      }
    }
  ]
}