{
  "type": "FeatureCollection",
  "features": [
    {
      "type": "Feature",
      "geometry": {
        "type": "Polygon",
        "coordinates": [
          [
            [
              39,
              64
            ],
            [
              595,
              64
            ],
            [
              595,
              88
            ],
            [
              39,
              88
            ],
            [
              39,
              64
            ]
          ]
        ]
      },
      "properties": {
        "name": "company",
        "classification": {
          "name": "company",
          "colorRGB": -65536
        }
      }
    },
    {
      "type": "Feature",
      "geometry": {
        "type": "Polygon",
        "coordinates": [
          [
            [
              309,
              655
            ],
            [
              467,
              655
            ],
            [
              467,
              719
            ],
            [
              309,
              719
            ],
            [
              309,
              655
            ]
          ]
        ]
      },
      "properties": {
        "name": "date",
        "classification": {
          "name": "date",
          "colorRGB": -16711936
        }
      }
    },
    {
      "type": "Feature",
      "geometry": {
        "type": "Polygon",
        "coordinates": [
          [
            [
              311,
              526
            ],
            [
              466,
              526
            ],
            [
              466,
              591
            ],
            [
              311,
              591
            ],
            [
              311,
              526
            ]
          ]
        ]
      },
      "properties": {
        "name": "address",
        "classification": {
          "name": "address",
          "colorRGB": -16776961
        }
      }
    },
    {
      "type": "Feature",
      "geometry": {
        "type": "Polygon",
        "coordinates": [
          [
            [
              357,
              678
            ],
            [
              370,
              678
            ],
            [
              370,
              696
            ],
            [
              357,
              696
            ],
            [
              357,
              678
            ]
          ]
        ]
      },
      "properties": {
        "name": "total",
        "classification": {
          "name": "total",
          "colorRGB": -256
        }
      }
    }
  ]
}