{
  "type": "FeatureCollection",
  "features": [
    {
      "type": "Feature",
      "geometry": {
        "type": "Polygon",
        "coordinates": [
          [
            [
              1579,
              2010
            ],
            [
              2920,
              2010
            ],
            [
              2920,
              2081
            ],
            [
              1579,
              2081
            ],
            [
              1579,
              2010
            ]
          ]
        ]
      },
      "properties": {
        "name": "company",
        "classification": {
          "name": "company",
          "colorRGB": -65536
        }
      }
    },
    {
      "type": "Feature",
      "geometry": {
        "type": "Polygon",
        "coordinates": [
          [
            [
              2011,
              2089
            ],
            [
              2500,
              2089
            ],
            [
              2500,
              2149
            ],
            [
              2011,
              2149
            ],
            [
              2011,
              2089
            ]
          ]
        ]
      },
      "properties": {
        "name": "date",
        "classification": {
          "name": "date",
          "colorRGB": -16711936
        }
      }
    },
    {
      "type": "Feature",
      "geometry": {
        "type": "Polygon",
        "coordinates": [
          [
            [
              1680,
              2261
            ],
            [
              2834,
              2261
            ],
            [
              2834,
              2403
            ],
            [
              1680,
              2403
            ],
            [
              1680,
              2261
            ]
          ]
        ]
      },
      "properties": {
        "name": "address",
        "classification": {
          "name": "address",
          "colorRGB": -16776961
        }
      }
    },
    {
      "type": "Feature",
      "geometry": {
        "type": "Polygon",
        "coordinates": [
          [
            [
              2387,
              3163
            ],
            [
              2982,
              3163
            ],
            [
              2982,
              3389
            ],
            [
              2387,
              3389
            ],
            [
              2387,
              3163
            ]
          ]
        ]
      },
      "properties": {
        "name": "total",
        "classification": {
          "name": "total",
          "colorRGB": -256
        }
      }
    }
  ]
}