{
  "type": "FeatureCollection",
  "features": [
    {
      "type": "Feature",
      "geometry": {
        "type": "Polygon",
        "coordinates": [
          [
            [
              72,
              198
            ],
            [
              503,
              198
            ],
            [
              503,
              277
            ],
            [
              72,
              277
            ],
            [
              72,
              198
            ]
          ]
        ]
      },
      "properties": {
        "name": "company",
        "classification": {
          "name": "company",
          "colorRGB": -65536
        }
      }
    },
    {
      "type": "Feature",
      "geometry": {
        "type": "Polygon",
        "coordinates": [
          [
            [
              256,
              727
            ],
            [
              361,
              727
            ],
            [
              361,
              823
            ],
            [
              256,
              823
            ],
            [
              256,
              727
            ]
          ]
        ]
      },
      "properties": {
        "name": "date",
        "classification": {
          "name": "date",
          "colorRGB": -16711936
        }
      }
    },
    {
      "type": "Feature",
      "geometry": {
        "type": "Polygon",
        "coordinates": [
          [
            [
              104,
              297
            ],
            [
              469,
              297
            ],
            [
              469,
              377
            ],
            [
              104,
              377
            ],
            [
              104,
              297
            ]
          ]
        ]
      },
      "properties": {
        "name": "address",
        "classification": {
          "name": "address",
          "colorRGB": -16776961
        }
      }
    },
    {
      "type": "Feature",
      "geometry": {
        "type": "Polygon",
        "coordinates": [
          [
            [
              343,
              727
            ],
            [
              511,
              727
            ],
            [
              511,
              751
            ],
            [
              343,
              751
            ],
            [
              343,
              727
            ]
          ]
        ]
      },
      "properties": {
        "name": "total",
        "classification": {
          "name": "total",
          "colorRGB": -256
        }
      }
    }
  ]
}