{
  "type": "FeatureCollection",
  "features": [
    {
      "type": "Feature",
      "geometry": {
        "type": "Polygon",
        "coordinates": [
          [
            [
              135,
              243
            ],
            [
              481,
              243
            ],
            [
              481,
              275
            ],
            [
              135,
              275
            ],
            [
              135,
              243
            ]
          ]
        ]
      },
      "properties": {
        "name": "company",
        "classification": {
          "name": "company",
          "colorRGB": -65536
        }
      }
    },
    {
      "type": "Feature",
      "geometry": {
        "type": "Polygon",
        "coordinates": [
          [
            [
              138,
              1424
            ],
            [
              677,
              1424
            ],
            [
              677,
              1456
            ],
            [
              138,
              1456
            ],
            [
              138,
              1424
            ]
          ]
        ]
      },
      "properties": {
        "name": "date",
        "classification": {
          "name": "date",
          "colorRGB": -16711936
        }
      }
    },
    {
      "type": "Feature",
      "geometry": {
        "type": "Polygon",
        "coordinates": [
          [
            [
              133,
              319
            ],
            [
              538,
              319
            ],
            [
              538,
              394
            ],
            [
              133,
              394
            ],
            [
              133,
              319
            ]
          ]
        ]
      },
      "properties": {
        "name": "address",
        "classification": {
          "name": "address",
          "colorRGB": -16776961
        }
      }
    },
    {
      "type": "Feature",
      "geometry": {
        "type": "Polygon",
        "coordinates": [
          [
            [
              748,
              817
            ],
            [
              902,
              817
            ],
            [
              902,
              1116
            ],
            [
              748,
              1116
            ],
            [
              748,
              817
            ]
          ]
        ]
      },
      "properties": {
        "name": "total",
        "classification": {
          "name": "total",
          "colorRGB": -256
        }
      }
    }
  ]
}