{
  "type": "FeatureCollection",
  "features": [
    {
      "type": "Feature",
      "geometry": {
        "type": "Polygon",
        "coordinates": [
          [
            [
              1554,
              1629
            ],
            [
              2892,
              1629
            ],
            [
              2892,
              1701
            ],
            [
              1554,
              1701
            ],
            [
              1554,
              1629
            ]
          ]
        ]
      },
      "properties": {
        "name": "company",
        "classification": {
          "name": "company",
          "colorRGB": -65536
        }
      }
    },
    {
      "type": "Feature",
      "geometry": {
        "type": "Polygon",
        "coordinates": [
          [
            [
              1973,
              1708
            ],
            [
              2479,
              1708
            ],
            [
              2479,
              1767
            ],
            [
              1973,
              1767
            ],
            [
              1973,
              1708
            ]
          ]
        ]
      },
      "properties": {
        "name": "date",
        "classification": {
          "name": "date",
          "colorRGB": -16711936
        }
      }
    },
    {
      "type": "Feature",
      "geometry": {
        "type": "Polygon",
        "coordinates": [
          [
            [
              1659,
              1871
            ],
            [
              2802,
              1871
            ],
            [
              2802,
              2028
            ],
            [
              1659,
              2028
            ],
            [
              1659,
              1871
            ]
          ]
        ]
      },
      "properties": {
        "name": "address",
        "classification": {
          "name": "address",
          "colorRGB": -16776961
        }
      }
    },
    {
      "type": "Feature",
      "geometry": {
        "type": "Polygon",
        "coordinates": [
          [
            [
              2469,
              3028
            ],
            [
              2955,
              3028
            ],
            [
              2955,
              3086
            ],
            [
              2469,
              3086
            ],
            [
              2469,
              3028
            ]
          ]
        ]
      },
      "properties": {
        "name": "total",
        "classification": {
          "name": "total",
          "colorRGB": -256
        }
      }
    }
  ]
}