{
  "type": "FeatureCollection",
  "features": [
    {
      "type": "Feature",
      "geometry": {
        "type": "Polygon",
        "coordinates": [
          [
            [
              156,
              430
            ],
            [
              648,
              430
            ],
            [
              648,
              474
            ],
            [
              156,
              474
            ],
            [
              156,
              430
            ]
          ]
        ]
      },
      "properties": {
        "name": "company",
        "classification": {
          "name": "company",
          "colorRGB": -65536
        }
      }
    },
    {
      "type": "Feature",
      "geometry": {
        "type": "Polygon",
        "coordinates": [
          [
            [
              632,
              838
            ],
            [
              774,
              838
            ],
            [
              774,
              875
            ],
            [
              632,
              875
            ],
            [
              632,
              838
            ]
          ]
        ]
      },
      "properties": {
        "name": "date",
        "classification": {
          "name": "date",
          "colorRGB": -16711936
        }
      }
    },
    {
      "type": "Feature",
      "geometry": {
        "type": "Polygon",
        "coordinates": [
          [
            [
              210,
              534
            ],
            [
              602,
              534
            ],
            [
              602,
              675
            ],
            [
              210,
              675
            ],
            [
              210,
              534
            ]
          ]
        ]
      },
      "properties": {
        "name": "address",
        "classification": {
          "name": "address",
          "colorRGB": -16776961
        }
      }
    },
    {
      "type": "Feature",
      "geometry": {
        "type": "Polygon",
        "coordinates": [
          [
            [
              653,
              1134
            ],
            [
              740,
              1134
            ],
            [
              740,
              1174
            ],
            [
              653,
              1174
            ],
            [
              653,
              1134
            ]
          ]
        ]
      },
      "properties": {
        "name": "total",
        "classification": {
          "name": "total",
          "colorRGB": -256
        }
      }
    }
  ]
}