{
  "type": "FeatureCollection",
  "features": [
    {
      "type": "Feature",
      "geometry": {
        "type": "Polygon",
        "coordinates": [
          [
            [
              369,
              355
            ],
            [
              659,
              355
            ],
            [
              659,
              373
            ],
            [
              369,
              373
            ],
            [
              369,
              355
            ]
          ]
        ]
      },
      "properties": {
        "name": "company",
        "classification": {
          "name": "company",
          "colorRGB": -65536
        }
      }
    },
    {
      "type": "Feature",
      "geometry": {
        "type": "Polygon",
        "coordinates": [
          [
            [
              462,
              375
            ],
            [
              567,
              375
            ],
            [
              567,
              387
            ],
            [
              462,
              387
            ],
            [
              462,
              375
            ]
          ]
        ]
      },
      "properties": {
        "name": "date",
        "classification": {
          "name": "date",
          "colorRGB": -16711936
        }
      }
    },
    {
      "type": "Feature",
      "geometry": {
        "type": "Polygon",
        "coordinates": [
          [
            [
              389,
              410
            ],
            [
              639,
              410
            ],
            [
              639,
              443
            ],
            [
              389,
              443
            ],
            [
              389,
              410
            ]
          ]
        ]
      },
      "properties": {
        "name": "address",
        "classification": {
          "name": "address",
          "colorRGB": -16776961
        }
      }
    },
    {
      "type": "Feature",
      "geometry": {
        "type": "Polygon",
        "coordinates": [
          [
            [
              555,
              607
            ],
            [
              670,
              607
            ],
            [
              670,
              657
            ],
            [
              555,
              657
            ],
            [
              555,
              607
            ]
          ]
        ]
      },
      "properties": {
        "name": "total",
        "classification": {
          "name": "total",
          "colorRGB": -256
        }
      }
    }
  ]
}