{
  "type": "FeatureCollection",
  "features": [
    {
      "type": "Feature",
      "geometry": {
        "type": "Polygon",
        "coordinates": [
          [
            [
              31,
              103
            ],
            [
              588,
              103
            ],
            [
              588,
              126
            ],
            [
              31,
              126
            ],
            [
              31,
              103
            ]
          ]
        ]
      },
      "properties": {
        "name": "company",
        "classification": {
          "name": "company",
          "colorRGB": -65536
        }
      }
    },
    {
      "type": "Feature",
      "geometry": {
        "type": "Polygon",
        "coordinates": [
          [
            [
              291,
              689
            ],
            [
              460,
              689
            ],
            [
              460,
              780
            ],
            [
              291,
              780
            ],
            [
              291,
              689
            ]
          ]
        ]
      },
      "properties": {
        "name": "date",
        "classification": {
          "name": "date",
          "colorRGB": -16711936
        }
      }
    },
    {
      "type": "Feature",
      "geometry": {
        "type": "Polygon",
        "coordinates": [
          [
            [
              301,
              559
            ],
            [
              460,
              559
            ],
            [
              460,
              627
            ],
            [
              301,
              627
            ],
            [
              301,
              559
            ]
          ]
        ]
      },
      "properties": {
        "name": "address",
        "classification": {
          "name": "address",
          "colorRGB": -16776961
        }
      }
    },
    {
      "type": "Feature",
      "geometry": {
        "type": "Polygon",
        "coordinates": [
          [
            [
              303,
              688
            ],
            [
              461,
              688
            ],
            [
              461,
              780
            ],
            [
              303,
              780
            ],
            [
              303,
              688
            ]
          ]
        ]
      },
      "properties": {
        "name": "total",
        "classification": {
          "name": "total",
          "colorRGB": -256
        }
      }
    }
  ]
}