{
  "type": "FeatureCollection",
  "features": [
    {
      "type": "Feature",
      "geometry": {
        "type": "Polygon",
        "coordinates": [
          [
            [
              1671,
              380
            ],
            [
              3064,
              380
            ],
            [
              3064,
              465
            ],
            [
              1671,
              465
            ],
            [
              1671,
              380
            ]
          ]
        ]
      },
      "properties": {
        "name": "company",
        "classification": {
          "name": "company",
          "colorRGB": -65536
        }
      }
    },
    {
      "type": "Feature",
      "geometry": {
        "type": "Polygon",
        "coordinates": [
          [
            [
              1673,
              1783
            ],
            [
              1722,
              1783
            ],
            [
              1722,
              2036
            ],
            [
              1673,
              2036
            ],
            [
              1673,
              1783
            ]
          ]
        ]
      },
      "properties": {
        "name": "date",
        "classification": {
          "name": "date",
          "colorRGB": -16711936
        }
      }
    },
    {
      "type": "Feature",
      "geometry": {
        "type": "Polygon",
        "coordinates": [
          [
            [
              1743,
              594
            ],
            [
              2969,
              594
            ],
            [
              2969,
              1172
            ],
            [
              1743,
              1172
            ],
            [
              1743,
              594
            ]
          ]
        ]
      },
      "properties": {
        "name": "address",
        "classification": {
          "name": "address",
          "colorRGB": -16776961
        }
      }
    },
    {
      "type": "Feature",
      "geometry": {
        "type": "Polygon",
        "coordinates": [
          [
            [
              2641,
              2482
            ],
            [
              3071,
              2482
            ],
            [
              3071,
              2817
            ],
            [
              2641,
              2817
            ],
            [
              2641,
              2482
            ]
          ]
        ]
      },
      "properties": {
        "name": "total",
        "classification": {
          "name": "total",
          "colorRGB": -256
        }
      }
    }
  ]
}