{
  "type": "FeatureCollection",
  "features": [
    {
      "type": "Feature",
      "geometry": {
        "type": "Polygon",
        "coordinates": [
          [
            [
              139,
              280
            ],
            [
              806,
              280
            ],
            [
              806,
              372
            ],
            [
              139,
              372
            ],
            [
              139,
              280
            ]
          ]
        ]
      },
      "properties": {
        "name": "company",
        "classification": {
          "name": "company",
          "colorRGB": -65536
        }
      }
    },
    {
      "type": "Feature",
      "geometry": {
        "type": "Polygon",
        "coordinates": [
          [
            [
              48,
              780
            ],
            [
              365,
              780
            ],
            [
              365,
              820
            ],
            [
              48,
              820
            ],
            [
              48,
              780
            ]
          ]
        ]
      },
      "properties": {
        "name": "date",
        "classification": {
          "name": "date",
          "colorRGB": -16711936
        }
      }
    },
    {
      "type": "Feature",
      "geometry": {
        "type": "Polygon",
        "coordinates": [
          [
            [
              500,
              1525
            ],
            [
              835,
              1525
            ],
            [
              835,
              1668
            ],
            [
              500,
              1668
            ],
            [
              500,
              1525
            ]
          ]
        ]
      },
      "properties": {
        "name": "address",
        "classification": {
          "name": "address",
          "colorRGB": -16776961
        }
      }
    },
    {
      "type": "Feature",
      "geometry": {
        "type": "Polygon",
        "coordinates": [
          [
            [
              742,
              1027
            ],
            [
              873,
              1027
            ],
            [
              873,
              1222
            ],
            [
              742,
              1222
            ],
            [
              742,
              1027
            ]
          ]
        ]
      },
      "properties": {
        "name": "total",
        "classification": {
          "name": "total",
          "colorRGB": -256
        }
      }
    }
  ]
}