{
  "type": "FeatureCollection",
  "features": [
    {
      "type": "Feature",
      "geometry": {
        "type": "Polygon",
        "coordinates": [
          [
            [
              115,
              316
            ],
            [
              483,
              316
            ],
            [
              483,
              347
            ],
            [
              115,
              347
            ],
            [
              115,
              316
            ]
          ]
        ]
      },
      "properties": {
        "name": "company",
        "classification": {
          "name": "company",
          "colorRGB": -65536
        }
      }
    },
    {
      "type": "Feature",
      "geometry": {
        "type": "Polygon",
        "coordinates": [
          [
            [
              331,
              545
            ],
            [
              574,
              545
            ],
            [
              574,
              577
            ],
            [
              331,
              577
            ],
            [
              331,
              545
            ]
          ]
        ]
      },
      "properties": {
        "name": "date",
        "classification": {
          "name": "date",
          "colorRGB": -16711936
        }
      }
    },
    {
      "type": "Feature",
      "geometry": {
        "type": "Polygon",
        "coordinates": [
          [
            [
              86,
              385
            ],
            [
              527,
              385
            ],
            [
              527,
              442
            ],
            [
              86,
              442
            ],
            [
              86,
              385
            ]
          ]
        ]
      },
      "properties": {
        "name": "address",
        "classification": {
          "name": "address",
          "colorRGB": -16776961
        }
      }
    },
    {
      "type": "Feature",
      "geometry": {
        "type": "Polygon",
        "coordinates": [
          [
            [
              455,
              832
            ],
            [
              530,
              832
            ],
            [
              530,
              967
            ],
            [
              455,
              967
            ],
            [
              455,
              832
            ]
          ]
        ]
      },
      "properties": {
        "name": "total",
        "classification": {
          "name": "total",
          "colorRGB": -256
        }
      }
    }
  ]
}