{
  "type": "FeatureCollection",
  "features": [
    {
      "type": "Feature",
      "geometry": {
        "type": "Polygon",
        "coordinates": [
          [
            [
              90,
              533
            ],
            [
              451,
              533
            ],
            [
              451,
              597
            ],
            [
              90,
              597
            ],
            [
              90,
              533
            ]
          ]
        ]
      },
      "properties": {
        "name": "company",
        "classification": {
          "name": "company",
          "colorRGB": -65536
        }
      }
    },
    {
      "type": "Feature",
      "geometry": {
        "type": "Polygon",
        "coordinates": [
          [
            [
              191,
              834
            ],
            [
              407,
              834
            ],
            [
              407,
              860
            ],
            [
              191,
              860
            ],
            [
              191,
              834
            ]
          ]
        ]
      },
      "properties": {
        "name": "date",
        "classification": {
          "name": "date",
          "colorRGB": -16711936
        }
      }
    },
    {
      "type": "Feature",
      "geometry": {
        "type": "Polygon",
        "coordinates": [
          [
            [
              52,
              600
            ],
            [
              509,
              600
            ],
            [
              509,
              692
            ],
            [
              52,
              692
            ],
            [
              52,
              600
            ]
          ]
        ]
      },
      "properties": {
        "name": "address",
        "classification": {
          "name": "address",
          "colorRGB": -16776961
        }
      }
    },
    {
      "type": "Feature",
      "geometry": {
        "type": "Polygon",
        "coordinates": [
          [
            [
              405,
              1369
            ],
            [
              534,
              1369
            ],
            [
              534,
              1611
            ],
            [
              405,
              1611
            ],
            [
              405,
              1369
            ]
          ]
        ]
      },
      "properties": {
        "name": "total",
        "classification": {
          "name": "total",
          "colorRGB": -256
        }
      }
    }
  ]
}