{
  "type": "FeatureCollection",
  "features": [
    {
      "type": "Feature",
      "geometry": {
        "type": "Polygon",
        "coordinates": [
          [
            [
              44,
              189
            ],
            [
              426,
              189
            ],
            [
              426,
              271
            ],
            [
              44,
              271
            ],
            [
              44,
              189
            ]
          ]
        ]
      },
      "properties": {
        "name": "company",
        "classification": {
          "name": "company",
          "colorRGB": -65536
        }
      }
    },
    {
      "type": "Feature",
      "geometry": {
        "type": "Polygon",
        "coordinates": [
          [
            [
              49,
              514
            ],
            [
              567,
              514
            ],
            [
              567,
              561
            ],
            [
              49,
              561
            ],
            [
              49,
              514
            ]
          ]
        ]
      },
      "properties": {
        "name": "date",
        "classification": {
          "name": "date",
          "colorRGB": -16711936
        }
      }
    },
    {
      "type": "Feature",
      "geometry": {
        "type": "Polygon",
        "coordinates": [
          [
            [
              45,
              319
            ],
            [
              886,
              319
            ],
            [
              886,
              407
            ],
            [
              45,
              407
            ],
            [
              45,
              319
            ]
          ]
        ]
      },
      "properties": {
        "name": "address",
        "classification": {
          "name": "address",
          "colorRGB": -16776961
        }
      }
    },
    {
      "type": "Feature",
      "geometry": {
        "type": "Polygon",
        "coordinates": [
          [
            [
              547,
              717
            ],
            [
              843,
              717
            ],
            [
              843,
              855
            ],
            [
              547,
              855
            ],
            [
              547,
              717
            ]
          ]
        ]
      },
      "properties": {
        "name": "total",
        "classification": {
          "name": "total",
          "colorRGB": -256
        }
      }
    }
  ]
}