{
  "type": "FeatureCollection",
  "features": [
    {
      "type": "Feature",
      "geometry": {
        "type": "Polygon",
        "coordinates": [
          [
            [
              34,
              74
            ],
            [
              587,
              74
            ],
            [
              587,
              97
            ],
            [
              34,
              97
            ],
            [
              34,
              74
            ]
          ]
        ]
      },
      "properties": {
        "name": "company",
        "classification": {
          "name": "company",
          "colorRGB": -65536
        }
      }
    },
    {
      "type": "Feature",
      "geometry": {
        "type": "Polygon",
        "coordinates": [
          [
            [
              303,
              662
            ],
            [
              462,
              662
            ],
            [
              462,
              753
            ],
            [
              303,
              753
            ],
            [
              303,
              662
            ]
          ]
        ]
      },
      "properties": {
        "name": "date",
        "classification": {
          "name": "date",
          "colorRGB": -16711936
        }
      }
    },
    {
      "type": "Feature",
      "geometry": {
        "type": "Polygon",
        "coordinates": [
          [
            [
              303,
              662
            ],
            [
              462,
              662
            ],
            [
              462,
              753
            ],
            [
              303,
              753
            ],
            [
              303,
              662
            ]
          ]
        ]
      },
      "properties": {
        "name": "address",
        "classification": {
          "name": "address",
          "colorRGB": -16776961
        }
      }
    },
    {
      "type": "Feature",
      "geometry": {
        "type": "Polygon",
        "coordinates": [
          [
            [
              304,
              534
            ],
            [
              463,
              534
            ],
            [
              463,
              600
            ],
            [
              304,
              600
            ],
            [
              304,
              534
            ]
          ]
        ]
      },
      "properties": {
        "name": "total",
        "classification": {
          "name": "total",
          "colorRGB": -256
        }
      }
    }
  ]
}