{
  "type": "FeatureCollection",
  "features": [
    {
      "type": "Feature",
      "geometry": {
        "type": "Polygon",
        "coordinates": [
          [
            [
              191,
              212
            ],
            [
              412,
              212
            ],
            [
              412,
              234
            ],
            [
              191,
              234
            ],
            [
              191,
              212
            ]
          ]
        ]
      },
      "properties": {
        "name": "company",
        "classification": {
          "name": "company",
          "colorRGB": -65536
        }
      }
    },
    {
      "type": "Feature",
      "geometry": {
        "type": "Polygon",
        "coordinates": [
          [
            [
              179,
              869
            ],
            [
              193,
              869
            ],
            [
              193,
              1099
            ],
            [
              179,
              1099
            ],
            [
              179,
              869
            ]
          ]
        ]
      },
      "properties": {
        "name": "date",
        "classification": {
          "name": "date",
          "colorRGB": -16711936
        }
      }
    },
    {
      "type": "Feature",
      "geometry": {
        "type": "Polygon",
        "coordinates": [
          [
            [
              179,
              869
            ],
            [
              193,
              869
            ],
            [
              193,
              1099
            ],
            [
              179,
              1099
            ],
            [
              179,
              869
            ]
          ]
        ]
      },
      "properties": {
        "name": "address",
        "classification": {
          "name": "address",
          "colorRGB": -16776961
        }
      }
    },
    {
      "type": "Feature",
      "geometry": {
        "type": "Polygon",
        "coordinates": [
          [
            [
              145,
              1278
            ],
            [
              538,
              1278
            ],
            [
              538,
              1462
            ],
            [
              145,
              1462
            ],
            [
              145,
              1278
            ]
          ]
        ]
      },
      "properties": {
        "name": "total",
        "classification": {
          "name": "total",
          "colorRGB": -256
        }
      }
    }
  ]
}