{
  "type": "FeatureCollection",
  "features": [
    {
      "type": "Feature",
      "geometry": {
        "type": "Polygon",
        "coordinates": [
          [
            [
              202,
              236
            ],
            [
              488,
              236
            ],
            [
              488,
              269
            ],
            [
              202,
              269
            ],
            [
              202,
              236
            ]
          ]
        ]
      },
      "properties": {
        "name": "company",
        "classification": {
          "name": "company",
          "colorRGB": -65536
        }
      }
    },
    {
      "type": "Feature",
      "geometry": {
        "type": "Polygon",
        "coordinates": [
          [
            [
              153,
              604
            ],
            [
              466,
              604
            ],
            [
              466,
              635
            ],
            [
              153,
              635
            ],
            [
              153,
              604
            ]
          ]
        ]
      },
      "properties": {
        "name": "date",
        "classification": {
          "name": "date",
          "colorRGB": -16711936
        }
      }
    },
    {
      "type": "Feature",
      "geometry": {
        "type": "Polygon",
        "coordinates": [
          [
            [
              101,
              312
            ],
            [
              599,
              312
            ],
            [
              599,
              419
            ],
            [
              101,
              419
            ],
            [
              101,
              312
            ]
          ]
        ]
      },
      "properties": {
        "name": "address",
        "classification": {
          "name": "address",
          "colorRGB": -16776961
        }
      }
    },
    {
      "type": "Feature",
      "geometry": {
        "type": "Polygon",
        "coordinates": [
          [
            [
              519,
              1033
            ],
            [
              648,
              1033
            ],
            [
              648,
              1170
            ],
            [
              519,
              1170
            ],
            [
              519,
              1033
            ]
          ]
        ]
      },
      "properties": {
        "name": "total",
        "classification": {
          "name": "total",
          "colorRGB": -256
        }
      }
    }
  ]
}