{
  "type": "FeatureCollection",
  "features": [
    {
      "type": "Feature",
      "geometry": {
        "type": "Polygon",
        "coordinates": [
          [
            [
              535,
              632
            ],
            [
              553,
              632
            ],
            [
              553,
              808
            ],
            [
              535,
              808
            ],
            [
              535,
              632
            ]
          ]
        ]
      },
      "properties": {
        "name": "company",
        "classification": {
          "name": "company",
          "colorRGB": -65536
        }
      }
    },
    {
      "type": "Feature",
      "geometry": {
        "type": "Polygon",
        "coordinates": [
          [
            [
              273,
              633
            ],
            [
              291,
              633
            ],
            [
              291,
              756
            ],
            [
              273,
              756
            ],
            [
              273,
              633
            ]
          ]
        ]
      },
      "properties": {
        "name": "date",
        "classification": {
          "name": "date",
          "colorRGB": -16711936
        }
      }
    },
    {
      "type": "Feature",
      "geometry": {
        "type": "Polygon",
        "coordinates": [
          [
            [
              273,
              632
            ],
            [
              553,
              632
            ],
            [
              553,
              931
            ],
            [
              273,
              931
            ],
            [
              273,
              632
            ]
          ]
        ]
      },
      "properties": {
        "name": "address",
        "classification": {
          "name": "address",
          "colorRGB": -16776961
        }
      }
    },
    {
      "type": "Feature",
      "geometry": {
        "type": "Polygon",
        "coordinates": [
          [
            [
              273,
              633
            ],
            [
              291,
              633
            ],
            [
              291,
              756
            ],
            [
              273,
              756
            ],
            [
              273,
              633
            ]
          ]
        ]
      },
      "properties": {
        "name": "total",
        "classification": {
          "name": "total",
          "colorRGB": -256
        }
      }
    }
  ]
}