{
  "type": "FeatureCollection",
  "features": [
    {
      "type": "Feature",
      "geometry": {
        "type": "Polygon",
        "coordinates": [
          [
            [
              229,
              267
            ],
            [
              564,
              267
            ],
            [
              564,
              306
            ],
            [
              229,
              306
            ],
            [
              229,
              267
            ]
          ]
        ]
      },
      "properties": {
        "name": "company",
        "classification": {
          "name": "company",
          "colorRGB": -65536
        }
      }
    },
    {
      "type": "Feature",
      "geometry": {
        "type": "Polygon",
        "coordinates": [
          [
            [
              172,
              699
            ],
            [
              544,
              699
            ],
            [
              544,
              735
            ],
            [
              172,
              735
            ],
            [
              172,
              699
            ]
          ]
        ]
      },
      "properties": {
        "name": "date",
        "classification": {
          "name": "date",
          "colorRGB": -16711936
        }
      }
    },
    {
      "type": "Feature",
      "geometry": {
        "type": "Polygon",
        "coordinates": [
          [
            [
              114,
              355
            ],
            [
              697,
              355
            ],
            [
              697,
              480
            ],
            [
              114,
              480
            ],
            [
              114,
              355
            ]
          ]
        ]
      },
      "properties": {
        "name": "address",
        "classification": {
          "name": "address",
          "colorRGB": -16776961
        }
      }
    },
    {
      "type": "Feature",
      "geometry": {
        "type": "Polygon",
        "coordinates": [
          [
            [
              607,
              1296
            ],
            [
              751,
              1296
            ],
            [
              751,
              1500
            ],
            [
              607,
              1500
            ],
            [
              607,
              1296
            ]
          ]
        ]
      },
      "properties": {
        "name": "total",
        "classification": {
          "name": "total",
          "colorRGB": -256
        }
      }
    }
  ]
}