{
  "type": "FeatureCollection",
  "features": [
    {
      "type": "Feature",
      "geometry": {
        "type": "Polygon",
        "coordinates": [
          [
            [
              288,
              159
            ],
            [
              646,
              159
            ],
            [
              646,
              201
            ],
            [
              288,
              201
            ],
            [
              288,
              159
            ]
          ]
        ]
      },
      "properties": {
        "name": "company",
        "classification": {
          "name": "company",
          "colorRGB": -65536
        }
      }
    },
    {
      "type": "Feature",
      "geometry": {
        "type": "Polygon",
        "coordinates": [
          [
            [
              511,
              686
            ],
            [
              769,
              686
            ],
            [
              769,
              729
            ],
            [
              511,
              729
            ],
            [
              511,
              686
            ]
          ]
        ]
      },
      "properties": {
        "name": "date",
        "classification": {
          "name": "date",
          "colorRGB": -16711936
        }
      }
    },
    {
      "type": "Feature",
      "geometry": {
        "type": "Polygon",
        "coordinates": [
          [
            [
              285,
              324
            ],
            [
              646,
              324
            ],
            [
              646,
              447
            ],
            [
              285,
              447
            ],
            [
              285,
              324
            ]
          ]
        ]
      },
      "properties": {
        "name": "address",
        "classification": {
          "name": "address",
          "colorRGB": -16776961
        }
      }
    },
    {
      "type": "Feature",
      "geometry": {
        "type": "Polygon",
        "coordinates": [
          [
            [
              499,
              1212
            ],
            [
              755,
              1212
            ],
            [
              755,
              1531
            ],
            [
              499,
              1531
            ],
            [
              499,
              1212
            ]
          ]
        ]
      },
      "properties": {
        "name": "total",
        "classification": {
          "name": "total",
          "colorRGB": -256
        }
      }
    }
  ]
}