{
  "type": "FeatureCollection",
  "features": [
    {
      "type": "Feature",
      "geometry": {
        "type": "Polygon",
        "coordinates": [
          [
            [
              1716,
              776
            ],
            [
              2986,
              776
            ],
            [
              2986,
              842
            ],
            [
              1716,
              842
            ],
            [
              1716,
              776
            ]
          ]
        ]
      },
      "properties": {
        "name": "company",
        "classification": {
          "name": "company",
          "colorRGB": -65536
        }
      }
    },
    {
      "type": "Feature",
      "geometry": {
        "type": "Polygon",
        "coordinates": [
          [
            [
              1740,
              2498
            ],
            [
              1801,
              2498
            ],
            [
              1801,
              3734
            ],
            [
              1740,
              3734
            ],
            [
              1740,
              2498
            ]
          ]
        ]
      },
      "properties": {
        "name": "date",
        "classification": {
          "name": "date",
          "colorRGB": -16711936
        }
      }
    },
    {
      "type": "Feature",
      "geometry": {
        "type": "Polygon",
        "coordinates": [
          [
            [
              1740,
              2498
            ],
            [
              1801,
              2498
            ],
            [
              1801,
              3734
            ],
            [
              1740,
              3734
            ],
            [
              1740,
              2498
            ]
          ]
        ]
      },
      "properties": {
        "name": "address",
        "classification": {
          "name": "address",
          "colorRGB": -16776961
        }
      }
    },
    {
      "type": "Feature",
      "geometry": {
        "type": "Polygon",
        "coordinates": [
          [
            [
              1742,
              3274
            ],
            [
              1788,
              3274
            ],
            [
              1788,
              3734
            ],
            [
              1742,
              3734
            ],
            [
              1742,
              3274
            ]
          ]
        ]
      },
      "properties": {
        "name": "total",
        "classification": {
          "name": "total",
          "colorRGB": -256
        }
      }
    }
  ]
}