{
  "type": "FeatureCollection",
  "features": [
    {
      "type": "Feature",
      "geometry": {
        "type": "Polygon",
        "coordinates": [
          [
            [
              43,
              208
            ],
            [
              427,
              208
            ],
            [
              427,
              246
            ],
            [
              43,
              246
            ],
            [
              43,
              208
            ]
          ]
        ]
      },
      "properties": {
        "name": "company",
        "classification": {
          "name": "company",
          "colorRGB": -65536
        }
      }
    },
    {
      "type": "Feature",
      "geometry": {
        "type": "Polygon",
        "coordinates": [
          [
            [
              42,
              1181
            ],
            [
              194,
              1181
            ],
            [
              194,
              1214
            ],
            [
              42,
              1214
            ],
            [
              42,
              1181
            ]
          ]
        ]
      },
      "properties": {
        "name": "date",
        "classification": {
          "name": "date",
          "colorRGB": -16711936
        }
      }
    },
    {
      "type": "Feature",
      "geometry": {
        "type": "Polygon",
        "coordinates": [
          [
            [
              44,
              321
            ],
            [
              543,
              321
            ],
            [
              543,
              428
            ],
            [
              44,
              428
            ],
            [
              44,
              321
            ]
          ]
        ]
      },
      "properties": {
        "name": "address",
        "classification": {
          "name": "address",
          "colorRGB": -16776961
        }
      }
    },
    {
      "type": "Feature",
      "geometry": {
        "type": "Polygon",
        "coordinates": [
          [
            [
              427,
              687
            ],
            [
              560,
              687
            ],
            [
              560,
              897
            ],
            [
              427,
              897
            ],
            [
              427,
              687
            ]
          ]
        ]
      },
      "properties": {
        "name": "total",
        "classification": {
          "name": "total",
          "colorRGB": -256
        }
      }
    }
  ]
}