{
  "type": "FeatureCollection",
  "features": [
    {
      "type": "Feature",
      "geometry": {
        "type": "Polygon",
        "coordinates": [
          [
            [
              130,
              68
            ],
            [
              676,
              68
            ],
            [
              676,
              105
            ],
            [
              130,
              105
            ],
            [
              130,
              68
            ]
          ]
        ]
      },
      "properties": {
        "name": "company",
        "classification": {
          "name": "company",
          "colorRGB": -65536
        }
      }
    },
    {
      "type": "Feature",
      "geometry": {
        "type": "Polygon",
        "coordinates": [
          [
            [
              92,
              542
            ],
            [
              671,
              542
            ],
            [
              671,
              663
            ],
            [
              92,
              663
            ],
            [
              92,
              542
            ]
          ]
        ]
      },
      "properties": {
        "name": "date",
        "classification": {
          "name": "date",
          "colorRGB": -16711936
        }
      }
    },
    {
      "type": "Feature",
      "geometry": {
        "type": "Polygon",
        "coordinates": [
          [
            [
              158,
              150
            ],
            [
              641,
              150
            ],
            [
              641,
              223
            ],
            [
              158,
              223
            ],
            [
              158,
              150
            ]
          ]
        ]
      },
      "properties": {
        "name": "address",
        "classification": {
          "name": "address",
          "colorRGB": -16776961
        }
      }
    },
    {
      "type": "Feature",
      "geometry": {
        "type": "Polygon",
        "coordinates": [
          [
            [
              286,
              779
            ],
            [
              320,
              779
            ],
            [
              320,
              812
            ],
            [
              286,
              812
            ],
            [
              286,
              779
            ]
          ]
        ]
      },
      "properties": {
        "name": "total",
        "classification": {
          "name": "total",
          "colorRGB": -256
        }
      }
    }
  ]
}