{
  "type": "FeatureCollection",
  "features": [
    {
      "type": "Feature",
      "geometry": {
        "type": "Polygon",
        "coordinates": [
          [
            [
              820,
              717
            ],
            [
              864,
              717
            ],
            [
              864,
              1646
            ],
            [
              820,
              1646
            ],
            [
              820,
              717
            ]
          ]
        ]
      },
      "properties": {
        "name": "company",
        "classification": {
          "name": "company",
          "colorRGB": -65536
        }
      }
    },
    {
      "type": "Feature",
      "geometry": {
        "type": "Polygon",
        "coordinates": [
          [
            [
              41,
              2235
            ],
            [
              204,
              2235
            ],
            [
              204,
              2270
            ],
            [
              41,
              2270
            ],
            [
              41,
              2235
            ]
          ]
        ]
      },
      "properties": {
        "name": "date",
        "classification": {
          "name": "date",
          "colorRGB": -16711936
        }
      }
    },
    {
      "type": "Feature",
      "geometry": {
        "type": "Polygon",
        "coordinates": [
          [
            [
              820,
              717
            ],
            [
              864,
              717
            ],
            [
              864,
              1646
            ],
            [
              820,
              1646
            ],
            [
              820,
              717
            ]
          ]
        ]
      },
      "properties": {
        "name": "address",
        "classification": {
          "name": "address",
          "colorRGB": -16776961
        }
      }
    },
    {
      "type": "Feature",
      "geometry": {
        "type": "Polygon",
        "coordinates": [
          [
            [
              697,
              1859
            ],
            [
              864,
              1859
            ],
            [
              864,
              1939
            ],
            [
              697,
              1939
            ],
            [
              697,
              1859
            ]
          ]
        ]
      },
      "properties": {
        "name": "total",
        "classification": {
          "name": "total",
          "colorRGB": -256
        }
      }
    }
  ]
}