{
  "type": "FeatureCollection",
  "features": [
    {
      "type": "Feature",
      "geometry": {
        "type": "Polygon",
        "coordinates": [
          [
            [
              139,
              229
            ],
            [
              516,
              229
            ],
            [
              516,
              260
            ],
            [
              139,
              260
            ],
            [
              139,
              229
            ]
          ]
        ]
      },
      "properties": {
        "name": "company",
        "classification": {
          "name": "company",
          "colorRGB": -65536
        }
      }
    },
    {
      "type": "Feature",
      "geometry": {
        "type": "Polygon",
        "coordinates": [
          [
            [
              69,
              787
            ],
            [
              82,
              787
            ],
            [
              82,
              904
            ],
            [
              69,
              904
            ],
            [
              69,
              787
            ]
          ]
        ]
      },
      "properties": {
        "name": "date",
        "classification": {
          "name": "date",
          "colorRGB": -16711936
        }
      }
    },
    {
      "type": "Feature",
      "geometry": {
        "type": "Polygon",
        "coordinates": [
          [
            [
              68,
              787
            ],
            [
              257,
              787
            ],
            [
              257,
              958
            ],
            [
              68,
              958
            ],
            [
              68,
              787
            ]
          ]
        ]
      },
      "properties": {
        "name": "address",
        "classification": {
          "name": "address",
          "colorRGB": -16776961
        }
      }
    },
    {
      "type": "Feature",
      "geometry": {
        "type": "Polygon",
        "coordinates": [
          [
            [
              65,
              686
            ],
            [
              84,
              686
            ],
            [
              84,
              904
            ],
            [
              65,
              904
            ],
            [
              65,
              686
            ]
          ]
        ]
      },
      "properties": {
        "name": "total",
        "classification": {
          "name": "total",
          "colorRGB": -256
        }
      }
    }
  ]
}