{
  "type": "FeatureCollection",
  "features": [
    {
      "type": "Feature",
      "geometry": {
        "type": "Polygon",
        "coordinates": [
          [
            [
              200,
              235
            ],
            [
              477,
              235
            ],
            [
              477,
              277
            ],
            [
              200,
              277
            ],
            [
              200,
              235
            ]
          ]
        ]
      },
      "properties": {
        "name": "company",
        "classification": {
          "name": "company",
          "colorRGB": -65536
        }
      }
    },
    {
      "type": "Feature",
      "geometry": {
        "type": "Polygon",
        "coordinates": [
          [
            [
              148,
              608
            ],
            [
              463,
              608
            ],
            [
              463,
              649
            ],
            [
              148,
              649
            ],
            [
              148,
              608
            ]
          ]
        ]
      },
      "properties": {
        "name": "date",
        "classification": {
          "name": "date",
          "colorRGB": -16711936
        }
      }
    },
    {
      "type": "Feature",
      "geometry": {
        "type": "Polygon",
        "coordinates": [
          [
            [
              99,
              317
            ],
            [
              592,
              317
            ],
            [
              592,
              423
            ],
            [
              99,
              423
            ],
            [
              99,
              317
            ]
          ]
        ]
      },
      "properties": {
        "name": "address",
        "classification": {
          "name": "address",
          "colorRGB": -16776961
        }
      }
    },
    {
      "type": "Feature",
      "geometry": {
        "type": "Polygon",
        "coordinates": [
          [
            [
              516,
              1194
            ],
            [
              639,
              1194
            ],
            [
              639,
              1334
            ],
            [
              516,
              1334
            ],
            [
              516,
              1194
            ]
          ]
        ]
      },
      "properties": {
        "name": "total",
        "classification": {
          "name": "total",
          "colorRGB": -256
        }
      }
    }
  ]
}