{
  "type": "FeatureCollection",
  "features": [
    {
      "type": "Feature",
      "geometry": {
        "type": "Polygon",
        "coordinates": [
          [
            [
              36,
              88
            ],
            [
              589,
              88
            ],
            [
              589,
              114
            ],
            [
              36,
              114
            ],
            [
              36,
              88
            ]
          ]
        ]
      },
      "properties": {
        "name": "company",
        "classification": {
          "name": "company",
          "colorRGB": -65536
        }
      }
    },
    {
      "type": "Feature",
      "geometry": {
        "type": "Polygon",
        "coordinates": [
          [
            [
              234,
              685
            ],
            [
              405,
              685
            ],
            [
              405,
              799
            ],
            [
              234,
              799
            ],
            [
              234,
              685
            ]
          ]
        ]
      },
      "properties": {
        "name": "date",
        "classification": {
          "name": "date",
          "colorRGB": -16711936
        }
      }
    },
    {
      "type": "Feature",
      "geometry": {
        "type": "Polygon",
        "coordinates": [
          [
            [
              246,
              685
            ],
            [
              405,
              685
            ],
            [
              405,
              799
            ],
            [
              246,
              799
            ],
            [
              246,
              685
            ]
          ]
        ]
      },
      "properties": {
        "name": "address",
        "classification": {
          "name": "address",
          "colorRGB": -16776961
        }
      }
    },
    {
      "type": "Feature",
      "geometry": {
        "type": "Polygon",
        "coordinates": [
          [
            [
              246,
              734
            ],
            [
              405,
              734
            ],
            [
              405,
              799
            ],
            [
              246,
              799
            ],
            [
              246,
              734
            ]
          ]
        ]
      },
      "properties": {
        "name": "total",
        "classification": {
          "name": "total",
          "colorRGB": -256
        }
      }
    }
  ]
}