{
  "type": "FeatureCollection",
  "features": [
    {
      "type": "Feature",
      "geometry": {
        "type": "Polygon",
        "coordinates": [
          [
            [
              33,
              83
            ],
            [
              591,
              83
            ],
            [
              591,
              108
            ],
            [
              33,
              108
            ],
            [
              33,
              83
            ]
          ]
        ]
      },
      "properties": {
        "name": "company",
        "classification": {
          "name": "company",
          "colorRGB": -65536
        }
      }
    },
    {
      "type": "Feature",
      "geometry": {
        "type": "Polygon",
        "coordinates": [
          [
            [
              295,
              674
            ],
            [
              466,
              674
            ],
            [
              466,
              718
            ],
            [
              295,
              718
            ],
            [
              295,
              674
            ]
          ]
        ]
      },
      "properties": {
        "name": "date",
        "classification": {
          "name": "date",
          "colorRGB": -16711936
        }
      }
    },
    {
      "type": "Feature",
      "geometry": {
        "type": "Polygon",
        "coordinates": [
          [
            [
              308,
              545
            ],
            [
              463,
              545
            ],
            [
              463,
              612
            ],
            [
              308,
              612
            ],
            [
              308,
              545
            ]
          ]
        ]
      },
      "properties": {
        "name": "address",
        "classification": {
          "name": "address",
          "colorRGB": -16776961
        }
      }
    },
    {
      "type": "Feature",
      "geometry": {
        "type": "Polygon",
        "coordinates": [
          [
            [
              307,
              545
            ],
            [
              463,
              545
            ],
            [
              463,
              612
            ],
            [
              307,
              612
            ],
            [
              307,
              545
            ]
          ]
        ]
      },
      "properties": {
        "name": "total",
        "classification": {
          "name": "total",
          "colorRGB": -256
        }
      }
    }
  ]
}