{
  "type": "FeatureCollection",
  "features": [
    {
      "type": "Feature",
      "geometry": {
        "type": "Polygon",
        "coordinates": [
          [
            [
              106,
              179
            ],
            [
              502,
              179
            ],
            [
              502,
              204
            ],
            [
              106,
              204
            ],
            [
              106,
              179
            ]
          ]
        ]
      },
      "properties": {
        "name": "company",
        "classification": {
          "name": "company",
          "colorRGB": -65536
        }
      }
    },
    {
      "type": "Feature",
      "geometry": {
        "type": "Polygon",
        "coordinates": [
          [
            [
              48,
              429
            ],
            [
              177,
              429
            ],
            [
              177,
              451
            ],
            [
              48,
              451
            ],
            [
              48,
              429
            ]
          ]
        ]
      },
      "properties": {
        "name": "date",
        "classification": {
          "name": "date",
          "colorRGB": -16711936
        }
      }
    },
    {
      "type": "Feature",
      "geometry": {
        "type": "Polygon",
        "coordinates": [
          [
            [
              80,
              229
            ],
            [
              539,
              229
            ],
            [
              539,
              328
            ],
            [
              80,
              328
            ],
            [
              80,
              229
            ]
          ]
        ]
      },
      "properties": {
        "name": "address",
        "classification": {
          "name": "address",
          "colorRGB": -16776961
        }
      }
    },
    {
      "type": "Feature",
      "geometry": {
        "type": "Polygon",
        "coordinates": [
          [
            [
              421,
              578
            ],
            [
              503,
              578
            ],
            [
              503,
              753
            ],
            [
              421,
              753
            ],
            [
              421,
              578
            ]
          ]
        ]
      },
      "properties": {
        "name": "total",
        "classification": {
          "name": "total",
          "colorRGB": -256
        }
      }
    }
  ]
}