{
  "type": "FeatureCollection",
  "features": [
    {
      "type": "Feature",
      "geometry": {
        "type": "Polygon",
        "coordinates": [
          [
            [
              1594,
              1164
            ],
            [
              2901,
              1164
            ],
            [
              2901,
              1290
            ],
            [
              1594,
              1290
            ],
            [
              1594,
              1164
            ]
          ]
        ]
      },
      "properties": {
        "name": "company",
        "classification": {
          "name": "company",
          "colorRGB": -65536
        }
      }
    },
    {
      "type": "Feature",
      "geometry": {
        "type": "Polygon",
        "coordinates": [
          [
            [
              1561,
              2927
            ],
            [
              1599,
              2927
            ],
            [
              1599,
              3111
            ],
            [
              1561,
              3111
            ],
            [
              1561,
              2927
            ]
          ]
        ]
      },
      "properties": {
        "name": "date",
        "classification": {
          "name": "date",
          "colorRGB": -16711936
        }
      }
    },
    {
      "type": "Feature",
      "geometry": {
        "type": "Polygon",
        "coordinates": [
          [
            [
              1664,
              1447
            ],
            [
              2831,
              1447
            ],
            [
              2831,
              1631
            ],
            [
              1664,
              1631
            ],
            [
              1664,
              1447
            ]
          ]
        ]
      },
      "properties": {
        "name": "address",
        "classification": {
          "name": "address",
          "colorRGB": -16776961
        }
      }
    },
    {
      "type": "Feature",
      "geometry": {
        "type": "Polygon",
        "coordinates": [
          [
            [
              2585,
              3462
            ],
            [
              3021,
              3462
            ],
            [
              3021,
              3801
            ],
            [
              2585,
              3801
            ],
            [
              2585,
              3462
            ]
          ]
        ]
      },
      "properties": {
        "name": "total",
        "classification": {
          "name": "total",
          "colorRGB": -256
        }
      }
    }
  ]
}