{
  "type": "FeatureCollection",
  "features": [
    {
      "type": "Feature",
      "geometry": {
        "type": "Polygon",
        "coordinates": [
          [
            [
              156,
              342
            ],
            [
              718,
              342
            ],
            [
              718,
              375
            ],
            [
              156,
              375
            ],
            [
              156,
              342
            ]
          ]
        ]
      },
      "properties": {
        "name": "company",
        "classification": {
          "name": "company",
          "colorRGB": -65536
        }
      }
    },
    {
      "type": "Feature",
      "geometry": {
        "type": "Polygon",
        "coordinates": [
          [
            [
              38,
              1302
            ],
            [
              538,
              1302
            ],
            [
              538,
              1340
            ],
            [
              38,
              1340
            ],
            [
              38,
              1302
            ]
          ]
        ]
      },
      "properties": {
        "name": "date",
        "classification": {
          "name": "date",
          "colorRGB": -16711936
        }
      }
    },
    {
      "type": "Feature",
      "geometry": {
        "type": "Polygon",
        "coordinates": [
          [
            [
              99,
              423
            ],
            [
              778,
              423
            ],
            [
              778,
              546
            ],
            [
              99,
              546
            ],
            [
              99,
              423
            ]
          ]
        ]
      },
      "properties": {
        "name": "address",
        "classification": {
          "name": "address",
          "colorRGB": -16776961
        }
      }
    },
    {
      "type": "Feature",
      "geometry": {
        "type": "Polygon",
        "coordinates": [
          [
            [
              740,
              802
            ],
            [
              820,
              802
            ],
            [
              820,
              840
            ],
            [
              740,
              840
            ],
            [
              740,
              802
            ]
          ]
        ]
      },
      "properties": {
        "name": "total",
        "classification": {
          "name": "total",
          "colorRGB": -256
        }
      }
    }
  ]
}