{
  "type": "FeatureCollection",
  "features": [
    {
      "type": "Feature",
      "geometry": {
        "type": "Polygon",
        "coordinates": [
          [
            [
              38,
              212
            ],
            [
              389,
              212
            ],
            [
              389,
              245
            ],
            [
              38,
              245
            ],
            [
              38,
              212
            ]
          ]
        ]
      },
      "properties": {
        "name": "company",
        "classification": {
          "name": "company",
          "colorRGB": -65536
        }
      }
    },
    {
      "type": "Feature",
      "geometry": {
        "type": "Polygon",
        "coordinates": [
          [
            [
              387,
              474
            ],
            [
              631,
              474
            ],
            [
              631,
              500
            ],
            [
              387,
              500
            ],
            [
              387,
              474
            ]
          ]
        ]
      },
      "properties": {
        "name": "date",
        "classification": {
          "name": "date",
          "colorRGB": -16711936
        }
      }
    },
    {
      "type": "Feature",
      "geometry": {
        "type": "Polygon",
        "coordinates": [
          [
            [
              36,
              245
            ],
            [
              412,
              245
            ],
            [
              412,
              280
            ],
            [
              36,
              280
            ],
            [
              36,
              245
            ]
          ]
        ]
      },
      "properties": {
        "name": "address",
        "classification": {
          "name": "address",
          "colorRGB": -16776961
        }
      }
    },
    {
      "type": "Feature",
      "geometry": {
        "type": "Polygon",
        "coordinates": [
          [
            [
              200,
              1006
            ],
            [
              279,
              1006
            ],
            [
              279,
              1062
            ],
            [
              200,
              1062
            ],
            [
              200,
              1006
            ]
          ]
        ]
      },
      "properties": {
        "name": "total",
        "classification": {
          "name": "total",
          "colorRGB": -256
        }
      }
    }
  ]
}