{
  "type": "FeatureCollection",
  "features": [
    {
      "type": "Feature",
      "geometry": {
        "type": "Polygon",
        "coordinates": [
          [
            [
              104,
              268
            ],
            [
              643,
              268
            ],
            [
              643,
              302
            ],
            [
              104,
              302
            ],
            [
              104,
              268
            ]
          ]
        ]
      },
      "properties": {
        "name": "company",
        "classification": {
          "name": "company",
          "colorRGB": -65536
        }
      }
    },
    {
      "type": "Feature",
      "geometry": {
        "type": "Polygon",
        "coordinates": [
          [
            [
              20,
              588
            ],
            [
              707,
              588
            ],
            [
              707,
              899
            ],
            [
              20,
              899
            ],
            [
              20,
              588
            ]
          ]
        ]
      },
      "properties": {
        "name": "date",
        "classification": {
          "name": "date",
          "colorRGB": -16711936
        }
      }
    },
    {
      "type": "Feature",
      "geometry": {
        "type": "Polygon",
        "coordinates": [
          [
            [
              133,
              380
            ],
            [
              597,
              380
            ],
            [
              597,
              443
            ],
            [
              133,
              443
            ],
            [
              133,
              380
            ]
          ]
        ]
      },
      "properties": {
        "name": "address",
        "classification": {
          "name": "address",
          "colorRGB": -16776961
        }
      }
    },
    {
      "type": "Feature",
      "geometry": {
        "type": "Polygon",
        "coordinates": [
          [
            [
              642,
              938
            ],
            [
              708,
              938
            ],
            [
              708,
              1022
            ],
            [
              642,
              1022
            ],
            [
              642,
              938
            ]
          ]
        ]
      },
      "properties": {
        "name": "total",
        "classification": {
          "name": "total",
          "colorRGB": -256
        }
      }
    }
  ]
}