{
  "type": "FeatureCollection",
  "features": [
    {
      "type": "Feature",
      "geometry": {
        "type": "Polygon",
        "coordinates": [
          [
            [
              137,
              101
            ],
            [
              534,
              101
            ],
            [
              534,
              139
            ],
            [
              137,
              139
            ],
            [
              137,
              101
            ]
          ]
        ]
      },
      "properties": {
        "name": "company",
        "classification": {
          "name": "company",
          "colorRGB": -65536
        }
      }
    },
    {
      "type": "Feature",
      "geometry": {
        "type": "Polygon",
        "coordinates": [
          [
            [
              54,
              921
            ],
            [
              280,
              921
            ],
            [
              280,
              953
            ],
            [
              54,
              953
            ],
            [
              54,
              921
            ]
          ]
        ]
      },
      "properties": {
        "name": "date",
        "classification": {
          "name": "date",
          "colorRGB": -16711936
        }
      }
    },
    {
      "type": "Feature",
      "geometry": {
        "type": "Polygon",
        "coordinates": [
          [
            [
              121,
              139
            ],
            [
              533,
              139
            ],
            [
              533,
              255
            ],
            [
              121,
              255
            ],
            [
              121,
              139
            ]
          ]
        ]
      },
      "properties": {
        "name": "address",
        "classification": {
          "name": "address",
          "colorRGB": -16776961
        }
      }
    },
    {
      "type": "Feature",
      "geometry": {
        "type": "Polygon",
        "coordinates": [
          [
            [
              567,
              578
            ],
            [
              625,
              578
            ],
            [
              625,
              683
            ],
            [
              567,
              683
            ],
            [
              567,
              578
            ]
          ]
        ]
      },
      "properties": {
        "name": "total",
        "classification": {
          "name": "total",
          "colorRGB": -256
        }
      }
    }
  ]
}