{
  "type": "FeatureCollection",
  "features": [
    {
      "type": "Feature",
      "geometry": {
        "type": "Polygon",
        "coordinates": [
          [
            [
              192,
              173
            ],
            [
              634,
              173
            ],
            [
              634,
              208
            ],
            [
              192,
              208
            ],
            [
              192,
              173
            ]
          ]
        ]
      },
      "properties": {
        "name": "company",
        "classification": {
          "name": "company",
          "colorRGB": -65536
        }
      }
    },
    {
      "type": "Feature",
      "geometry": {
        "type": "Polygon",
        "coordinates": [
          [
            [
              41,
              708
            ],
            [
              618,
              708
            ],
            [
              618,
              873
            ],
            [
              41,
              873
            ],
            [
              41,
              708
            ]
          ]
        ]
      },
      "properties": {
        "name": "date",
        "classification": {
          "name": "date",
          "colorRGB": -16711936
        }
      }
    },
    {
      "type": "Feature",
      "geometry": {
        "type": "Polygon",
        "coordinates": [
          [
            [
              78,
              218
            ],
            [
              763,
              218
            ],
            [
              763,
              344
            ],
            [
              78,
              344
            ],
            [
              78,
              218
            ]
          ]
        ]
      },
      "properties": {
        "name": "address",
        "classification": {
          "name": "address",
          "colorRGB": -16776961
        }
      }
    },
    {
      "type": "Feature",
      "geometry": {
        "type": "Polygon",
        "coordinates": [
          [
            [
              576,
              931
            ],
            [
              801,
              931
            ],
            [
              801,
              995
            ],
            [
              576,
              995
            ],
            [
              576,
              931
            ]
          ]
        ]
      },
      "properties": {
        "name": "total",
        "classification": {
          "name": "total",
          "colorRGB": -256
        }
      }
    }
  ]
}