{
  "type": "FeatureCollection",
  "features": [
    {
      "type": "Feature",
      "geometry": {
        "type": "Polygon",
        "coordinates": [
          [
            [
              35,
              61
            ],
            [
              591,
              61
            ],
            [
              591,
              88
            ],
            [
              35,
              88
            ],
            [
              35,
              61
            ]
          ]
        ]
      },
      "properties": {
        "name": "company",
        "classification": {
          "name": "company",
          "colorRGB": -65536
        }
      }
    },
    {
      "type": "Feature",
      "geometry": {
        "type": "Polygon",
        "coordinates": [
          [
            [
              254,
              458
            ],
            [
              462,
              458
            ],
            [
              462,
              591
            ],
            [
              254,
              591
            ],
            [
              254,
              458
            ]
          ]
        ]
      },
      "properties": {
        "name": "date",
        "classification": {
          "name": "date",
          "colorRGB": -16711936
        }
      }
    },
    {
      "type": "Feature",
      "geometry": {
        "type": "Polygon",
        "coordinates": [
          [
            [
              351,
              525
            ],
            [
              462,
              525
            ],
            [
              462,
              591
            ],
            [
              351,
              591
            ],
            [
              351,
              525
            ]
          ]
        ]
      },
      "properties": {
        "name": "address",
        "classification": {
          "name": "address",
          "colorRGB": -16776961
        }
      }
    },
    {
      "type": "Feature",
      "geometry": {
        "type": "Polygon",
        "coordinates": [
          [
            [
              353,
              549
            ],
            [
              459,
              549
            ],
            [
              459,
              590
            ],
            [
              353,
              590
            ],
            [
              353,
              549
            ]
          ]
        ]
      },
      "properties": {
        "name": "total",
        "classification": {
          "name": "total",
          "colorRGB": -256
        }
      }
    }
  ]
}