{
  "type": "FeatureCollection",
  "features": [
    {
      "type": "Feature",
      "geometry": {
        "type": "Polygon",
        "coordinates": [
          [
            [
              1801,
              1295
            ],
            [
              3135,
              1295
            ],
            [
              3135,
              1363
            ],
            [
              1801,
              1363
            ],
            [
              1801,
              1295
            ]
          ]
        ]
      },
      "properties": {
        "name": "company",
        "classification": {
          "name": "company",
          "colorRGB": -65536
        }
      }
    },
    {
      "type": "Feature",
      "geometry": {
        "type": "Polygon",
        "coordinates": [
          [
            [
              2236,
              1375
            ],
            [
              2704,
              1375
            ],
            [
              2704,
              1437
            ],
            [
              2236,
              1437
            ],
            [
              2236,
              1375
            ]
          ]
        ]
      },
      "properties": {
        "name": "date",
        "classification": {
          "name": "date",
          "colorRGB": -16711936
        }
      }
    },
    {
      "type": "Feature",
      "geometry": {
        "type": "Polygon",
        "coordinates": [
          [
            [
              1903,
              1539
            ],
            [
              3042,
              1539
            ],
            [
              3042,
              1692
            ],
            [
              1903,
              1692
            ],
            [
              1903,
              1539
            ]
          ]
        ]
      },
      "properties": {
        "name": "address",
        "classification": {
          "name": "address",
          "colorRGB": -16776961
        }
      }
    },
    {
      "type": "Feature",
      "geometry": {
        "type": "Polygon",
        "coordinates": [
          [
            [
              2664,
              2444
            ],
            [
              3193,
              2444
            ],
            [
              3193,
              2884
            ],
            [
              2664,
              2884
            ],
            [
              2664,
              2444
            ]
          ]
        ]
      },
      "properties": {
        "name": "total",
        "classification": {
          "name": "total",
          "colorRGB": -256
        }
      }
    }
  ]
}