{
  "type": "FeatureCollection",
  "features": [
    {
      "type": "Feature",
      "geometry": {
        "type": "Polygon",
        "coordinates": [
          [
            [
              78,
              242
            ],
            [
              651,
              242
            ],
            [
              651,
              274
            ],
            [
              78,
              274
            ],
            [
              78,
              242
            ]
          ]
        ]
      },
      "properties": {
        "name": "company",
        "classification": {
          "name": "company",
          "colorRGB": -65536
        }
      }
    },
    {
      "type": "Feature",
      "geometry": {
        "type": "Polygon",
        "coordinates": [
          [
            [
              330,
              814
            ],
            [
              453,
              814
            ],
            [
              453,
              930
            ],
            [
              330,
              930
            ],
            [
              330,
              814
            ]
          ]
        ]
      },
      "properties": {
        "name": "date",
        "classification": {
          "name": "date",
          "colorRGB": -16711936
        }
      }
    },
    {
      "type": "Feature",
      "geometry": {
        "type": "Polygon",
        "coordinates": [
          [
            [
              112,
              300
            ],
            [
              614,
              300
            ],
            [
              614,
              423
            ],
            [
              112,
              423
            ],
            [
              112,
              300
            ]
          ]
        ]
      },
      "properties": {
        "name": "address",
        "classification": {
          "name": "address",
          "colorRGB": -16776961
        }
      }
    },
    {
      "type": "Feature",
      "geometry": {
        "type": "Polygon",
        "coordinates": [
          [
            [
              547,
              1112
            ],
            [
              666,
              1112
            ],
            [
              666,
              1197
            ],
            [
              547,
              1197
            ],
            [
              547,
              1112
            ]
          ]
        ]
      },
      "properties": {
        "name": "total",
        "classification": {
          "name": "total",
          "colorRGB": -256
        }
      }
    }
  ]
}