{
  "type": "FeatureCollection",
  "features": [
    {
      "type": "Feature",
      "geometry": {
        "type": "Polygon",
        "coordinates": [
          [
            [
              247,
              265
            ],
            [
              628,
              265
            ],
            [
              628,
              315
            ],
            [
              247,
              315
            ],
            [
              247,
              265
            ]
          ]
        ]
      },
      "properties": {
        "name": "company",
        "classification": {
          "name": "company",
          "colorRGB": -65536
        }
      }
    },
    {
      "type": "Feature",
      "geometry": {
        "type": "Polygon",
        "coordinates": [
          [
            [
              31,
              764
            ],
            [
              611,
              764
            ],
            [
              611,
              806
            ],
            [
              31,
              806
            ],
            [
              31,
              764
            ]
          ]
        ]
      },
      "properties": {
        "name": "date",
        "classification": {
          "name": "date",
          "colorRGB": -16711936
        }
      }
    },
    {
      "type": "Feature",
      "geometry": {
        "type": "Polygon",
        "coordinates": [
          [
            [
              114,
              361
            ],
            [
              771,
              361
            ],
            [
              771,
              515
            ],
            [
              114,
              515
            ],
            [
              114,
              361
            ]
          ]
        ]
      },
      "properties": {
        "name": "address",
        "classification": {
          "name": "address",
          "colorRGB": -16776961
        }
      }
    },
    {
      "type": "Feature",
      "geometry": {
        "type": "Polygon",
        "coordinates": [
          [
            [
              670,
              1357
            ],
            [
              854,
              1357
            ],
            [
              854,
              1550
            ],
            [
              670,
              1550
            ],
            [
              670,
              1357
            ]
          ]
        ]
      },
      "properties": {
        "name": "total",
        "classification": {
          "name": "total",
          "colorRGB": -256
        }
      }
    }
  ]
}