{
  "type": "FeatureCollection",
  "features": [
    {
      "type": "Feature",
      "geometry": {
        "type": "Polygon",
        "coordinates": [
          [
            [
              181,
              336
            ],
            [
              700,
              336
            ],
            [
              700,
              378
            ],
            [
              181,
              378
            ],
            [
              181,
              336
            ]
          ]
        ]
      },
      "properties": {
        "name": "company",
        "classification": {
          "name": "company",
          "colorRGB": -65536
        }
      }
    },
    {
      "type": "Feature",
      "geometry": {
        "type": "Polygon",
        "coordinates": [
          [
            [
              75,
              1244
            ],
            [
              528,
              1244
            ],
            [
              528,
              1286
            ],
            [
              75,
              1286
            ],
            [
              75,
              1244
            ]
          ]
        ]
      },
      "properties": {
        "name": "date",
        "classification": {
          "name": "date",
          "colorRGB": -16711936
        }
      }
    },
    {
      "type": "Feature",
      "geometry": {
        "type": "Polygon",
        "coordinates": [
          [
            [
              127,
              386
            ],
            [
              751,
              386
            ],
            [
              751,
              532
            ],
            [
              127,
              532
            ],
            [
              127,
              386
            ]
          ]
        ]
      },
      "properties": {
        "name": "address",
        "classification": {
          "name": "address",
          "colorRGB": -16776961
        }
      }
    },
    {
      "type": "Feature",
      "geometry": {
        "type": "Polygon",
        "coordinates": [
          [
            [
              576,
              793
            ],
            [
              789,
              793
            ],
            [
              789,
              831
            ],
            [
              576,
              831
            ],
            [
              576,
              793
            ]
          ]
        ]
      },
      "properties": {
        "name": "total",
        "classification": {
          "name": "total",
          "colorRGB": -256
        }
      }
    }
  ]
}