{
  "type": "FeatureCollection",
  "features": [
    {
      "type": "Feature",
      "geometry": {
        "type": "Polygon",
        "coordinates": [
          [
            [
              128,
              234
            ],
            [
              574,
              234
            ],
            [
              574,
              266
            ],
            [
              128,
              266
            ],
            [
              128,
              234
            ]
          ]
        ]
      },
      "properties": {
        "name": "company",
        "classification": {
          "name": "company",
          "colorRGB": -65536
        }
      }
    },
    {
      "type": "Feature",
      "geometry": {
        "type": "Polygon",
        "coordinates": [
          [
            [
              245,
              652
            ],
            [
              461,
              652
            ],
            [
              461,
              721
            ],
            [
              245,
              721
            ],
            [
              245,
              652
            ]
          ]
        ]
      },
      "properties": {
        "name": "date",
        "classification": {
          "name": "date",
          "colorRGB": -16711936
        }
      }
    },
    {
      "type": "Feature",
      "geometry": {
        "type": "Polygon",
        "coordinates": [
          [
            [
              200,
              281
            ],
            [
              498,
              281
            ],
            [
              498,
              431
            ],
            [
              200,
              431
            ],
            [
              200,
              281
            ]
          ]
        ]
      },
      "properties": {
        "name": "address",
        "classification": {
          "name": "address",
          "colorRGB": -16776961
        }
      }
    },
    {
      "type": "Feature",
      "geometry": {
        "type": "Polygon",
        "coordinates": [
          [
            [
              445,
              969
            ],
            [
              530,
              969
            ],
            [
              530,
              1083
            ],
            [
              445,
              1083
            ],
            [
              445,
              969
            ]
          ]
        ]
      },
      "properties": {
        "name": "total",
        "classification": {
          "name": "total",
          "colorRGB": -256
        }
      }
    }
  ]
}