{
  "type": "FeatureCollection",
  "features": [
    {
      "type": "Feature",
      "geometry": {
        "type": "Polygon",
        "coordinates": [
          [
            [
              162,
              252
            ],
            [
              757,
              252
            ],
            [
              757,
              298
            ],
            [
              162,
              298
            ],
            [
              162,
              252
            ]
          ]
        ]
      },
      "properties": {
        "name": "company",
        "classification": {
          "name": "company",
          "colorRGB": -65536
        }
      }
    },
    {
      "type": "Feature",
      "geometry": {
        "type": "Polygon",
        "coordinates": [
          [
            [
              595,
              901
            ],
            [
              874,
              901
            ],
            [
              874,
              938
            ],
            [
              595,
              938
            ],
            [
              595,
              901
            ]
          ]
        ]
      },
      "properties": {
        "name": "date",
        "classification": {
          "name": "date",
          "colorRGB": -16711936
        }
      }
    },
    {
      "type": "Feature",
      "geometry": {
        "type": "Polygon",
        "coordinates": [
          [
            [
              228,
              344
            ],
            [
              704,
              344
            ],
            [
              704,
              431
            ],
            [
              228,
              431
            ],
            [
              228,
              344
            ]
          ]
        ]
      },
      "properties": {
        "name": "address",
        "classification": {
          "name": "address",
          "colorRGB": -16776961
        }
      }
    },
    {
      "type": "Feature",
      "geometry": {
        "type": "Polygon",
        "coordinates": [
          [
            [
              679,
              1658
            ],
            [
              791,
              1658
            ],
            [
              791,
              1744
            ],
            [
              679,
              1744
            ],
            [
              679,
              1658
            ]
          ]
        ]
      },
      "properties": {
        "name": "total",
        "classification": {
          "name": "total",
          "colorRGB": -256
        }
      }
    }
  ]
}