{
  "type": "FeatureCollection",
  "features": [
    {
      "type": "Feature",
      "geometry": {
        "type": "Polygon",
        "coordinates": [
          [
            [
              92,
              86
            ],
            [
              621,
              86
            ],
            [
              621,
              211
            ],
            [
              92,
              211
            ],
            [
              92,
              86
            ]
          ]
        ]
      },
      "properties": {
        "name": "company",
        "classification": {
          "name": "company",
          "colorRGB": -65536
        }
      }
    },
    {
      "type": "Feature",
      "geometry": {
        "type": "Polygon",
        "coordinates": [
          [
            [
              21,
              539
            ],
            [
              266,
              539
            ],
            [
              266,
              572
            ],
            [
              21,
              572
            ],
            [
              21,
              539
            ]
          ]
        ]
      },
      "properties": {
        "name": "date",
        "classification": {
          "name": "date",
          "colorRGB": -16711936
        }
      }
    },
    {
      "type": "Feature",
      "geometry": {
        "type": "Polygon",
        "coordinates": [
          [
            [
              37,
              294
            ],
            [
              639,
              294
            ],
            [
              639,
              369
            ],
            [
              37,
              369
            ],
            [
              37,
              294
            ]
          ]
        ]
      },
      "properties": {
        "name": "address",
        "classification": {
          "name": "address",
          "colorRGB": -16776961
        }
      }
    },
    {
      "type": "Feature",
      "geometry": {
        "type": "Polygon",
        "coordinates": [
          [
            [
              566,
              775
            ],
            [
              640,
              775
            ],
            [
              640,
              886
            ],
            [
              566,
              886
            ],
            [
              566,
              775
            ]
          ]
        ]
      },
      "properties": {
        "name": "total",
        "classification": {
          "name": "total",
          "colorRGB": -256
        }
      }
    }
  ]
}