{
  "type": "FeatureCollection",
  "features": [
    {
      "type": "Feature",
      "geometry": {
        "type": "Polygon",
        "coordinates": [
          [
            [
              144,
              168
            ],
            [
              568,
              168
            ],
            [
              568,
              200
            ],
            [
              144,
              200
            ],
            [
              144,
              168
            ]
          ]
        ]
      },
      "properties": {
        "name": "company",
        "classification": {
          "name": "company",
          "colorRGB": -65536
        }
      }
    },
    {
      "type": "Feature",
      "geometry": {
        "type": "Polygon",
        "coordinates": [
          [
            [
              203,
              452
            ],
            [
              516,
              452
            ],
            [
              516,
              479
            ],
            [
              203,
              479
            ],
            [
              203,
              452
            ]
          ]
        ]
      },
      "properties": {
        "name": "date",
        "classification": {
          "name": "date",
          "colorRGB": -16711936
        }
      }
    },
    {
      "type": "Feature",
      "geometry": {
        "type": "Polygon",
        "coordinates": [
          [
            [
              110,
              207
            ],
            [
              601,
              207
            ],
            [
              601,
              281
            ],
            [
              110,
              281
            ],
            [
              110,
              207
            ]
          ]
        ]
      },
      "properties": {
        "name": "address",
        "classification": {
          "name": "address",
          "colorRGB": -16776961
        }
      }
    },
    {
      "type": "Feature",
      "geometry": {
        "type": "Polygon",
        "coordinates": [
          [
            [
              601,
              697
            ],
            [
              664,
              697
            ],
            [
              664,
              832
            ],
            [
              601,
              832
            ],
            [
              601,
              697
            ]
          ]
        ]
      },
      "properties": {
        "name": "total",
        "classification": {
          "name": "total",
          "colorRGB": -256
        }
      }
    }
  ]
}