{
  "type": "FeatureCollection",
  "features": [
    {
      "type": "Feature",
      "geometry": {
        "type": "Polygon",
        "coordinates": [
          [
            [
              136,
              203
            ],
            [
              763,
              203
            ],
            [
              763,
              240
            ],
            [
              136,
              240
            ],
            [
              136,
              203
            ]
          ]
        ]
      },
      "properties": {
        "name": "company",
        "classification": {
          "name": "company",
          "colorRGB": -65536
        }
      }
    },
    {
      "type": "Feature",
      "geometry": {
        "type": "Polygon",
        "coordinates": [
          [
            [
              110,
              1189
            ],
            [
              503,
              1189
            ],
            [
              503,
              1351
            ],
            [
              110,
              1351
            ],
            [
              110,
              1189
            ]
          ]
        ]
      },
      "properties": {
        "name": "date",
        "classification": {
          "name": "date",
          "colorRGB": -16711936
        }
      }
    },
    {
      "type": "Feature",
      "geometry": {
        "type": "Polygon",
        "coordinates": [
          [
            [
              110,
              1147
            ],
            [
              504,
              1147
            ],
            [
              504,
              1351
            ],
            [
              110,
              1351
            ],
            [
              110,
              1147
            ]
          ]
        ]
      },
      "properties": {
        "name": "address",
        "classification": {
          "name": "address",
          "colorRGB": -16776961
        }
      }
    },
    {
      "type": "Feature",
      "geometry": {
        "type": "Polygon",
        "coordinates": [
          [
            [
              756,
              1444
            ],
            [
              836,
              1444
            ],
            [
              836,
              1520
            ],
            [
              756,
              1520
            ],
            [
              756,
              1444
            ]
          ]
        ]
      },
      "properties": {
        "name": "total",
        "classification": {
          "name": "total",
          "colorRGB": -256
        }
      }
    }
  ]
}