{
  "type": "FeatureCollection",
  "features": [
    {
      "type": "Feature",
      "geometry": {
        "type": "Polygon",
        "coordinates": [
          [
            [
              96,
              336
            ],
            [
              682,
              336
            ],
            [
              682,
              380
            ],
            [
              96,
              380
            ],
            [
              96,
              336
            ]
          ]
        ]
      },
      "properties": {
        "name": "company",
        "classification": {
          "name": "company",
          "colorRGB": -65536
        }
      }
    },
    {
      "type": "Feature",
      "geometry": {
        "type": "Polygon",
        "coordinates": [
          [
            [
              46,
              957
            ],
            [
              550,
              957
            ],
            [
              550,
              998
            ],
            [
              46,
              998
            ],
            [
              46,
              957
            ]
          ]
        ]
      },
      "properties": {
        "name": "date",
        "classification": {
          "name": "date",
          "colorRGB": -16711936
        }
      }
    },
    {
      "type": "Feature",
      "geometry": {
        "type": "Polygon",
        "coordinates": [
          [
            [
              46,
              473
            ],
            [
              746,
              473
            ],
            [
              746,
              597
            ],
            [
              46,
              597
            ],
            [
              46,
              473
            ]
          ]
        ]
      },
      "properties": {
        "name": "address",
        "classification": {
          "name": "address",
          "colorRGB": -16776961
        }
      }
    },
    {
      "type": "Feature",
      "geometry": {
        "type": "Polygon",
        "coordinates": [
          [
            [
              650,
              1399
            ],
            [
              750,
              1399
            ],
            [
              750,
              1482
            ],
            [
              650,
              1482
            ],
            [
              650,
              1399
            ]
          ]
        ]
      },
      "properties": {
        "name": "total",
        "classification": {
          "name": "total",
          "colorRGB": -256
        }
      }
    }
  ]
}