{
  "type": "FeatureCollection",
  "features": [
    {
      "type": "Feature",
      "geometry": {
        "type": "Polygon",
        "coordinates": [
          [
            [
              1863,
              1676
            ],
            [
              3074,
              1676
            ],
            [
              3074,
              1755
            ],
            [
              1863,
              1755
            ],
            [
              1863,
              1676
            ]
          ]
        ]
      },
      "properties": {
        "name": "company",
        "classification": {
          "name": "company",
          "colorRGB": -65536
        }
      }
    },
    {
      "type": "Feature",
      "geometry": {
        "type": "Polygon",
        "coordinates": [
          [
            [
              2557,
              2189
            ],
            [
              2854,
              2189
            ],
            [
              2854,
              2354
            ],
            [
              2557,
              2354
            ],
            [
              2557,
              2189
            ]
          ]
        ]
      },
      "properties": {
        "name": "date",
        "classification": {
          "name": "date",
          "colorRGB": -16711936
        }
      }
    },
    {
      "type": "Feature",
      "geometry": {
        "type": "Polygon",
        "coordinates": [
          [
            [
              1870,
              1911
            ],
            [
              3069,
              1911
            ],
            [
              3069,
              2042
            ],
            [
              1870,
              2042
            ],
            [
              1870,
              1911
            ]
          ]
        ]
      },
      "properties": {
        "name": "address",
        "classification": {
          "name": "address",
          "colorRGB": -16776961
        }
      }
    },
    {
      "type": "Feature",
      "geometry": {
        "type": "Polygon",
        "coordinates": [
          [
            [
              3119,
              3395
            ],
            [
              3297,
              3395
            ],
            [
              3297,
              3641
            ],
            [
              3119,
              3641
            ],
            [
              3119,
              3395
            ]
          ]
        ]
      },
      "properties": {
        "name": "total",
        "classification": {
          "name": "total",
          "colorRGB": -256
        }
      }
    }
  ]
}