{
  "type": "FeatureCollection",
  "features": [
    {
      "type": "Feature",
      "geometry": {
        "type": "Polygon",
        "coordinates": [
          [
            [
              826,
              715
            ],
            [
              872,
              715
            ],
            [
              872,
              1017
            ],
            [
              826,
              1017
            ],
            [
              826,
              715
            ]
          ]
        ]
      },
      "properties": {
        "name": "company",
        "classification": {
          "name": "company",
          "colorRGB": -65536
        }
      }
    },
    {
      "type": "Feature",
      "geometry": {
        "type": "Polygon",
        "coordinates": [
          [
            [
              42,
              1643
            ],
            [
              546,
              1643
            ],
            [
              546,
              1685
            ],
            [
              42,
              1685
            ],
            [
              42,
              1643
            ]
          ]
        ]
      },
      "properties": {
        "name": "date",
        "classification": {
          "name": "date",
          "colorRGB": -16711936
        }
      }
    },
    {
      "type": "Feature",
      "geometry": {
        "type": "Polygon",
        "coordinates": [
          [
            [
              105,
              419
            ],
            [
              788,
              419
            ],
            [
              788,
              548
            ],
            [
              105,
              548
            ],
            [
              105,
              419
            ]
          ]
        ]
      },
      "properties": {
        "name": "address",
        "classification": {
          "name": "address",
          "colorRGB": -16776961
        }
      }
    },
    {
      "type": "Feature",
      "geometry": {
        "type": "Polygon",
        "coordinates": [
          [
            [
              701,
              1311
            ],
            [
              872,
              1311
            ],
            [
              872,
              1351
            ],
            [
              701,
              1351
            ],
            [
              701,
              1311
            ]
          ]
        ]
      },
      "properties": {
        "name": "total",
        "classification": {
          "name": "total",
          "colorRGB": -256
        }
      }
    }
  ]
}