{
  "type": "FeatureCollection",
  "features": [
    {
      "type": "Feature",
      "geometry": {
        "type": "Polygon",
        "coordinates": [
          [
            [
              42,
              131
            ],
            [
              515,
              131
            ],
            [
              515,
              171
            ],
            [
              42,
              171
            ],
            [
              42,
              131
            ]
          ]
        ]
      },
      "properties": {
        "name": "company",
        "classification": {
          "name": "company",
          "colorRGB": -65536
        }
      }
    },
    {
      "type": "Feature",
      "geometry": {
        "type": "Polygon",
        "coordinates": [
          [
            [
              323,
              948
            ],
            [
              522,
              948
            ],
            [
              522,
              971
            ],
            [
              323,
              971
            ],
            [
              323,
              948
            ]
          ]
        ]
      },
      "properties": {
        "name": "date",
        "classification": {
          "name": "date",
          "colorRGB": -16711936
        }
      }
    },
    {
      "type": "Feature",
      "geometry": {
        "type": "Polygon",
        "coordinates": [
          [
            [
              45,
              185
            ],
            [
              510,
              185
            ],
            [
              510,
              231
            ],
            [
              45,
              231
            ],
            [
              45,
              185
            ]
          ]
        ]
      },
      "properties": {
        "name": "address",
        "classification": {
          "name": "address",
          "colorRGB": -16776961
        }
      }
    },
    {
      "type": "Feature",
      "geometry": {
        "type": "Polygon",
        "coordinates": [
          [
            [
              85,
              523
            ],
            [
              532,
              523
            ],
            [
              532,
              728
            ],
            [
              85,
              728
            ],
            [
              85,
              523
            ]
          ]
        ]
      },
      "properties": {
        "name": "total",
        "classification": {
          "name": "total",
          "colorRGB": -256
        }
      }
    }
  ]
}