{
  "type": "FeatureCollection",
  "features": [
    {
      "type": "Feature",
      "geometry": {
        "type": "Polygon",
        "coordinates": [
          [
            [
              64,
              137
            ],
            [
              537,
              137
            ],
            [
              537,
              171
            ],
            [
              64,
              171
            ],
            [
              64,
              137
            ]
          ]
        ]
      },
      "properties": {
        "name": "company",
        "classification": {
          "name": "company",
          "colorRGB": -65536
        }
      }
    },
    {
      "type": "Feature",
      "geometry": {
        "type": "Polygon",
        "coordinates": [
          [
            [
              339,
              944
            ],
            [
              542,
              944
            ],
            [
              542,
              967
            ],
            [
              339,
              967
            ],
            [
              339,
              944
            ]
          ]
        ]
      },
      "properties": {
        "name": "date",
        "classification": {
          "name": "date",
          "colorRGB": -16711936
        }
      }
    },
    {
      "type": "Feature",
      "geometry": {
        "type": "Polygon",
        "coordinates": [
          [
            [
              69,
              186
            ],
            [
              530,
              186
            ],
            [
              530,
              232
            ],
            [
              69,
              232
            ],
            [
              69,
              186
            ]
          ]
        ]
      },
      "properties": {
        "name": "address",
        "classification": {
          "name": "address",
          "colorRGB": -16776961
        }
      }
    },
    {
      "type": "Feature",
      "geometry": {
        "type": "Polygon",
        "coordinates": [
          [
            [
              502,
              525
            ],
            [
              550,
              525
            ],
            [
              550,
              581
            ],
            [
              502,
              581
            ],
            [
              502,
              525
            ]
          ]
        ]
      },
      "properties": {
        "name": "total",
        "classification": {
          "name": "total",
          "colorRGB": -256
        }
      }
    }
  ]
}