{
  "type": "FeatureCollection",
  "features": [
    {
      "type": "Feature",
      "geometry": {
        "type": "Polygon",
        "coordinates": [
          [
            [
              184,
              334
            ],
            [
              698,
              334
            ],
            [
              698,
              375
            ],
            [
              184,
              375
            ],
            [
              184,
              334
            ]
          ]
        ]
      },
      "properties": {
        "name": "company",
        "classification": {
          "name": "company",
          "colorRGB": -65536
        }
      }
    },
    {
      "type": "Feature",
      "geometry": {
        "type": "Polygon",
        "coordinates": [
          [
            [
              75,
              1392
            ],
            [
              531,
              1392
            ],
            [
              531,
              1435
            ],
            [
              75,
              1435
            ],
            [
              75,
              1392
            ]
          ]
        ]
      },
      "properties": {
        "name": "date",
        "classification": {
          "name": "date",
          "colorRGB": -16711936
        }
      }
    },
    {
      "type": "Feature",
      "geometry": {
        "type": "Polygon",
        "coordinates": [
          [
            [
              120,
              381
            ],
            [
              762,
              381
            ],
            [
              762,
              525
            ],
            [
              120,
              525
            ],
            [
              120,
              381
            ]
          ]
        ]
      },
      "properties": {
        "name": "address",
        "classification": {
          "name": "address",
          "colorRGB": -16776961
        }
      }
    },
    {
      "type": "Feature",
      "geometry": {
        "type": "Polygon",
        "coordinates": [
          [
            [
              672,
              1142
            ],
            [
              841,
              1142
            ],
            [
              841,
              1229
            ],
            [
              672,
              1229
            ],
            [
              672,
              1142
            ]
          ]
        ]
      },
      "properties": {
        "name": "total",
        "classification": {
          "name": "total",
          "colorRGB": -256
        }
      }
    }
  ]
}