{
  "type": "FeatureCollection",
  "features": [
    {
      "type": "Feature",
      "geometry": {
        "type": "Polygon",
        "coordinates": [
          [
            [
              1921,
              1089
            ],
            [
              2890,
              1089
            ],
            [
              2890,
              1178
            ],
            [
              1921,
              1178
            ],
            [
              1921,
              1089
            ]
          ]
        ]
      },
      "properties": {
        "name": "company",
        "classification": {
          "name": "company",
          "colorRGB": -65536
        }
      }
    },
    {
      "type": "Feature",
      "geometry": {
        "type": "Polygon",
        "coordinates": [
          [
            [
              1597,
              3468
            ],
            [
              2172,
              3468
            ],
            [
              2172,
              3560
            ],
            [
              1597,
              3560
            ],
            [
              1597,
              3468
            ]
          ]
        ]
      },
      "properties": {
        "name": "date",
        "classification": {
          "name": "date",
          "colorRGB": -16711936
        }
      }
    },
    {
      "type": "Feature",
      "geometry": {
        "type": "Polygon",
        "coordinates": [
          [
            [
              1879,
              1191
            ],
            [
              2939,
              1191
            ],
            [
              2939,
              1469
            ],
            [
              1879,
              1469
            ],
            [
              1879,
              1191
            ]
          ]
        ]
      },
      "properties": {
        "name": "address",
        "classification": {
          "name": "address",
          "colorRGB": -16776961
        }
      }
    },
    {
      "type": "Feature",
      "geometry": {
        "type": "Polygon",
        "coordinates": [
          [
            [
              2827,
              2772
            ],
            [
              3018,
              2772
            ],
            [
              3018,
              2849
            ],
            [
              2827,
              2849
            ],
            [
              2827,
              2772
            ]
          ]
        ]
      },
      "properties": {
        "name": "total",
        "classification": {
          "name": "total",
          "colorRGB": -256
        }
      }
    }
  ]
}