{
  "type": "FeatureCollection",
  "features": [
    {
      "type": "Feature",
      "geometry": {
        "type": "Polygon",
        "coordinates": [
          [
            [
              62,
              307
            ],
            [
              396,
              307
            ],
            [
              396,
              337
            ],
            [
              62,
              337
            ],
            [
              62,
              307
            ]
          ]
        ]
      },
      "properties": {
        "name": "company",
        "classification": {
          "name": "company",
          "colorRGB": -65536
        }
      }
    },
    {
      "type": "Feature",
      "geometry": {
        "type": "Polygon",
        "coordinates": [
          [
            [
              172,
              953
            ],
            [
              189,
              953
            ],
            [
              189,
              1139
            ],
            [
              172,
              1139
            ],
            [
              172,
              953
            ]
          ]
        ]
      },
      "properties": {
        "name": "date",
        "classification": {
          "name": "date",
          "colorRGB": -16711936
        }
      }
    },
    {
      "type": "Feature",
      "geometry": {
        "type": "Polygon",
        "coordinates": [
          [
            [
              172,
              951
            ],
            [
              580,
              951
            ],
            [
              580,
              1057
            ],
            [
              172,
              1057
            ],
            [
              172,
              951
            ]
          ]
        ]
      },
      "properties": {
        "name": "address",
        "classification": {
          "name": "address",
          "colorRGB": -16776961
        }
      }
    },
    {
      "type": "Feature",
      "geometry": {
        "type": "Polygon",
        "coordinates": [
          [
            [
              447,
              1231
            ],
            [
              541,
              1231
            ],
            [
              541,
              1419
            ],
            [
              447,
              1419
            ],
            [
              447,
              1231
            ]
          ]
        ]
      },
      "properties": {
        "name": "total",
        "classification": {
          "name": "total",
          "colorRGB": -256
        }
      }
    }
  ]
}