{
  "type": "FeatureCollection",
  "features": [
    {
      "type": "Feature",
      "geometry": {
        "type": "Polygon",
        "coordinates": [
          [
            [
              164,
              259
            ],
            [
              756,
              259
            ],
            [
              756,
              301
            ],
            [
              164,
              301
            ],
            [
              164,
              259
            ]
          ]
        ]
      },
      "properties": {
        "name": "company",
        "classification": {
          "name": "company",
          "colorRGB": -65536
        }
      }
    },
    {
      "type": "Feature",
      "geometry": {
        "type": "Polygon",
        "coordinates": [
          [
            [
              293,
              1150
            ],
            [
              330,
              1150
            ],
            [
              330,
              1277
            ],
            [
              293,
              1277
            ],
            [
              293,
              1150
            ]
          ]
        ]
      },
      "properties": {
        "name": "date",
        "classification": {
          "name": "date",
          "colorRGB": -16711936
        }
      }
    },
    {
      "type": "Feature",
      "geometry": {
        "type": "Polygon",
        "coordinates": [
          [
            [
              230,
              353
            ],
            [
              698,
              353
            ],
            [
              698,
              433
            ],
            [
              230,
              433
            ],
            [
              230,
              353
            ]
          ]
        ]
      },
      "properties": {
        "name": "address",
        "classification": {
          "name": "address",
          "colorRGB": -16776961
        }
      }
    },
    {
      "type": "Feature",
      "geometry": {
        "type": "Polygon",
        "coordinates": [
          [
            [
              293,
              1150
            ],
            [
              789,
              1150
            ],
            [
              789,
              1282
            ],
            [
              293,
              1282
            ],
            [
              293,
              1150
            ]
          ]
        ]
      },
      "properties": {
        "name": "total",
        "classification": {
          "name": "total",
          "colorRGB": -256
        }
      }
    }
  ]
}