{
  "type": "FeatureCollection",
  "features": [
    {
      "type": "Feature",
      "geometry": {
        "type": "Polygon",
        "coordinates": [
          [
            [
              80,
              143
            ],
            [
              521,
              143
            ],
            [
              521,
              182
            ],
            [
              80,
              182
            ],
            [
              80,
              143
            ]
          ]
        ]
      },
      "properties": {
        "name": "company",
        "classification": {
          "name": "company",
          "colorRGB": -65536
        }
      }
    },
    {
      "type": "Feature",
      "geometry": {
        "type": "Polygon",
        "coordinates": [
          [
            [
              15,
              457
            ],
            [
              140,
              457
            ],
            [
              140,
              486
            ],
            [
              15,
              486
            ],
            [
              15,
              457
            ]
          ]
        ]
      },
      "properties": {
        "name": "date",
        "classification": {
          "name": "date",
          "colorRGB": -16711936
        }
      }
    },
    {
      "type": "Feature",
      "geometry": {
        "type": "Polygon",
        "coordinates": [
          [
            [
              78,
              294
            ],
            [
              490,
              294
            ],
            [
              490,
              351
            ],
            [
              78,
              351
            ],
            [
              78,
              294
            ]
          ]
        ]
      },
      "properties": {
        "name": "address",
        "classification": {
          "name": "address",
          "colorRGB": -16776961
        }
      }
    },
    {
      "type": "Feature",
      "geometry": {
        "type": "Polygon",
        "coordinates": [
          [
            [
              463,
              820
            ],
            [
              537,
              820
            ],
            [
              537,
              845
            ],
            [
              463,
              845
            ],
            [
              463,
              820
            ]
          ]
        ]
      },
      "properties": {
        "name": "total",
        "classification": {
          "name": "total",
          "colorRGB": -256
        }
      }
    }
  ]
}