{
  "type": "FeatureCollection",
  "features": [
    {
      "type": "Feature",
      "geometry": {
        "type": "Polygon",
        "coordinates": [
          [
            [
              73,
              124
            ],
            [
              741,
              124
            ],
            [
              741,
              168
            ],
            [
              73,
              168
            ],
            [
              73,
              124
            ]
          ]
        ]
      },
      "properties": {
        "name": "company",
        "classification": {
          "name": "company",
          "colorRGB": -65536
        }
      }
    },
    {
      "type": "Feature",
      "geometry": {
        "type": "Polygon",
        "coordinates": [
          [
            [
              15,
              781
            ],
            [
              769,
              781
            ],
            [
              769,
              825
            ],
            [
              15,
              825
            ],
            [
              15,
              781
            ]
          ]
        ]
      },
      "properties": {
        "name": "date",
        "classification": {
          "name": "date",
          "colorRGB": -16711936
        }
      }
    },
    {
      "type": "Feature",
      "geometry": {
        "type": "Polygon",
        "coordinates": [
          [
            [
              13,
              225
            ],
            [
              803,
              225
            ],
            [
              803,
              378
            ],
            [
              13,
              378
            ],
            [
              13,
              225
            ]
          ]
        ]
      },
      "properties": {
        "name": "address",
        "classification": {
          "name": "address",
          "colorRGB": -16776961
        }
      }
    },
    {
      "type": "Feature",
      "geometry": {
        "type": "Polygon",
        "coordinates": [
          [
            [
              697,
              1230
            ],
            [
              796,
              1230
            ],
            [
              796,
              1325
            ],
            [
              697,
              1325
            ],
            [
              697,
              1230
            ]
          ]
        ]
      },
      "properties": {
        "name": "total",
        "classification": {
          "name": "total",
          "colorRGB": -256
        }
      }
    }
  ]
}