{
  "type": "FeatureCollection",
  "features": [
    {
      "type": "Feature",
      "geometry": {
        "type": "Polygon",
        "coordinates": [
          [
            [
              188,
              65
            ],
            [
              755,
              65
            ],
            [
              755,
              272
            ],
            [
              188,
              272
            ],
            [
              188,
              65
            ]
          ]
        ]
      },
      "properties": {
        "name": "company",
        "classification": {
          "name": "company",
          "colorRGB": -65536
        }
      }
    },
    {
      "type": "Feature",
      "geometry": {
        "type": "Polygon",
        "coordinates": [
          [
            [
              687,
              1327
            ],
            [
              735,
              1327
            ],
            [
              735,
              1448
            ],
            [
              687,
              1448
            ],
            [
              687,
              1327
            ]
          ]
        ]
      },
      "properties": {
        "name": "date",
        "classification": {
          "name": "date",
          "colorRGB": -16711936
        }
      }
    },
    {
      "type": "Feature",
      "geometry": {
        "type": "Polygon",
        "coordinates": [
          [
            [
              538,
              1956
            ],
            [
              894,
              1956
            ],
            [
              894,
              2082
            ],
            [
              538,
              2082
            ],
            [
              538,
              1956
            ]
          ]
        ]
      },
      "properties": {
        "name": "address",
        "classification": {
          "name": "address",
          "colorRGB": -16776961
        }
      }
    },
    {
      "type": "Feature",
      "geometry": {
        "type": "Polygon",
        "coordinates": [
          [
            [
              538,
              1956
            ],
            [
              897,
              1956
            ],
            [
              897,
              2172
            ],
            [
              538,
              2172
            ],
            [
              538,
              1956
            ]
          ]
        ]
      },
      "properties": {
        "name": "total",
        "classification": {
          "name": "total",
          "colorRGB": -256
        }
      }
    }
  ]
}