{
  "type": "FeatureCollection",
  "features": [
    {
      "type": "Feature",
      "geometry": {
        "type": "Polygon",
        "coordinates": [
          [
            [
              108,
              130
            ],
            [
              633,
              130
            ],
            [
              633,
              249
            ],
            [
              108,
              249
            ],
            [
              108,
              130
            ]
          ]
        ]
      },
      "properties": {
        "name": "company",
        "classification": {
          "name": "company",
          "colorRGB": -65536
        }
      }
    },
    {
      "type": "Feature",
      "geometry": {
        "type": "Polygon",
        "coordinates": [
          [
            [
              33,
              569
            ],
            [
              174,
              569
            ],
            [
              174,
              596
            ],
            [
              33,
              596
            ],
            [
              33,
              569
            ]
          ]
        ]
      },
      "properties": {
        "name": "date",
        "classification": {
          "name": "date",
          "colorRGB": -16711936
        }
      }
    },
    {
      "type": "Feature",
      "geometry": {
        "type": "Polygon",
        "coordinates": [
          [
            [
              51,
              335
            ],
            [
              649,
              335
            ],
            [
              649,
              399
            ],
            [
              51,
              399
            ],
            [
              51,
              335
            ]
          ]
        ]
      },
      "properties": {
        "name": "address",
        "classification": {
          "name": "address",
          "colorRGB": -16776961
        }
      }
    },
    {
      "type": "Feature",
      "geometry": {
        "type": "Polygon",
        "coordinates": [
          [
            [
              583,
              917
            ],
            [
              652,
              917
            ],
            [
              652,
              945
            ],
            [
              583,
              945
            ],
            [
              583,
              917
            ]
          ]
        ]
      },
      "properties": {
        "name": "total",
        "classification": {
          "name": "total",
          "colorRGB": -256
        }
      }
    }
  ]
}