{
  "type": "FeatureCollection",
  "features": [
    {
      "type": "Feature",
      "geometry": {
        "type": "Polygon",
        "coordinates": [
          [
            [
              119,
              203
            ],
            [
              710,
              203
            ],
            [
              710,
              251
            ],
            [
              119,
              251
            ],
            [
              119,
              203
            ]
          ]
        ]
      },
      "properties": {
        "name": "company",
        "classification": {
          "name": "company",
          "colorRGB": -65536
        }
      }
    },
    {
      "type": "Feature",
      "geometry": {
        "type": "Polygon",
        "coordinates": [
          [
            [
              351,
              780
            ],
            [
              372,
              780
            ],
            [
              372,
              875
            ],
            [
              351,
              875
            ],
            [
              351,
              780
            ]
          ]
        ]
      },
      "properties": {
        "name": "date",
        "classification": {
          "name": "date",
          "colorRGB": -16711936
        }
      }
    },
    {
      "type": "Feature",
      "geometry": {
        "type": "Polygon",
        "coordinates": [
          [
            [
              238,
              293
            ],
            [
              586,
              293
            ],
            [
              586,
              398
            ],
            [
              238,
              398
            ],
            [
              238,
              293
            ]
          ]
        ]
      },
      "properties": {
        "name": "address",
        "classification": {
          "name": "address",
          "colorRGB": -16776961
        }
      }
    },
    {
      "type": "Feature",
      "geometry": {
        "type": "Polygon",
        "coordinates": [
          [
            [
              447,
              770
            ],
            [
              680,
              770
            ],
            [
              680,
              866
            ],
            [
              447,
              866
            ],
            [
              447,
              770
            ]
          ]
        ]
      },
      "properties": {
        "name": "total",
        "classification": {
          "name": "total",
          "colorRGB": -256
        }
      }
    }
  ]
}