{
  "type": "FeatureCollection",
  "features": [
    {
      "type": "Feature",
      "geometry": {
        "type": "Polygon",
        "coordinates": [
          [
            [
              48,
              135
            ],
            [
              517,
              135
            ],
            [
              517,
              173
            ],
            [
              48,
              173
            ],
            [
              48,
              135
            ]
          ]
        ]
      },
      "properties": {
        "name": "company",
        "classification": {
          "name": "company",
          "colorRGB": -65536
        }
      }
    },
    {
      "type": "Feature",
      "geometry": {
        "type": "Polygon",
        "coordinates": [
          [
            [
              322,
              1032
            ],
            [
              523,
              1032
            ],
            [
              523,
              1056
            ],
            [
              322,
              1056
            ],
            [
              322,
              1032
            ]
          ]
        ]
      },
      "properties": {
        "name": "date",
        "classification": {
          "name": "date",
          "colorRGB": -16711936
        }
      }
    },
    {
      "type": "Feature",
      "geometry": {
        "type": "Polygon",
        "coordinates": [
          [
            [
              47,
              180
            ],
            [
              510,
              180
            ],
            [
              510,
              228
            ],
            [
              47,
              228
            ],
            [
              47,
              180
            ]
          ]
        ]
      },
      "properties": {
        "name": "address",
        "classification": {
          "name": "address",
          "colorRGB": -16776961
        }
      }
    },
    {
      "type": "Feature",
      "geometry": {
        "type": "Polygon",
        "coordinates": [
          [
            [
              483,
              724
            ],
            [
              531,
              724
            ],
            [
              531,
              815
            ],
            [
              483,
              815
            ],
            [
              483,
              724
            ]
          ]
        ]
      },
      "properties": {
        "name": "total",
        "classification": {
          "name": "total",
          "colorRGB": -256
        }
      }
    }
  ]
}