{
  "type": "FeatureCollection",
  "features": [
    {
      "type": "Feature",
      "geometry": {
        "type": "Polygon",
        "coordinates": [
          [
            [
              80,
              246
            ],
            [
              570,
              246
            ],
            [
              570,
              280
            ],
            [
              80,
              280
            ],
            [
              80,
              246
            ]
          ]
        ]
      },
      "properties": {
        "name": "company",
        "classification": {
          "name": "company",
          "colorRGB": -65536
        }
      }
    },
    {
      "type": "Feature",
      "geometry": {
        "type": "Polygon",
        "coordinates": [
          [
            [
              323,
              766
            ],
            [
              339,
              766
            ],
            [
              339,
              950
            ],
            [
              323,
              950
            ],
            [
              323,
              766
            ]
          ]
        ]
      },
      "properties": {
        "name": "date",
        "classification": {
          "name": "date",
          "colorRGB": -16711936
        }
      }
    },
    {
      "type": "Feature",
      "geometry": {
        "type": "Polygon",
        "coordinates": [
          [
            [
              121,
              327
            ],
            [
              524,
              327
            ],
            [
              524,
              439
            ],
            [
              121,
              439
            ],
            [
              121,
              327
            ]
          ]
        ]
      },
      "properties": {
        "name": "address",
        "classification": {
          "name": "address",
          "colorRGB": -16776961
        }
      }
    },
    {
      "type": "Feature",
      "geometry": {
        "type": "Polygon",
        "coordinates": [
          [
            [
              456,
              1218
            ],
            [
              603,
              1218
            ],
            [
              603,
              1323
            ],
            [
              456,
              1323
            ],
            [
              456,
              1218
            ]
          ]
        ]
      },
      "properties": {
        "name": "total",
        "classification": {
          "name": "total",
          "colorRGB": -256
        }
      }
    }
  ]
}