{
  "type": "FeatureCollection",
  "features": [
    {
      "type": "Feature",
      "geometry": {
        "type": "Polygon",
        "coordinates": [
          [
            [
              147,
              153
            ],
            [
              549,
              153
            ],
            [
              549,
              193
            ],
            [
              147,
              193
            ],
            [
              147,
              153
            ]
          ]
        ]
      },
      "properties": {
        "name": "company",
        "classification": {
          "name": "company",
          "colorRGB": -65536
        }
      }
    },
    {
      "type": "Feature",
      "geometry": {
        "type": "Polygon",
        "coordinates": [
          [
            [
              100,
              548
            ],
            [
              598,
              548
            ],
            [
              598,
              585
            ],
            [
              100,
              585
            ],
            [
              100,
              548
            ]
          ]
        ]
      },
      "properties": {
        "name": "date",
        "classification": {
          "name": "date",
          "colorRGB": -16711936
        }
      }
    },
    {
      "type": "Feature",
      "geometry": {
        "type": "Polygon",
        "coordinates": [
          [
            [
              179,
              230
            ],
            [
              515,
              230
            ],
            [
              515,
              263
            ],
            [
              179,
              263
            ],
            [
              179,
              230
            ]
          ]
        ]
      },
      "properties": {
        "name": "address",
        "classification": {
          "name": "address",
          "colorRGB": -16776961
        }
      }
    },
    {
      "type": "Feature",
      "geometry": {
        "type": "Polygon",
        "coordinates": [
          [
            [
              452,
              900
            ],
            [
              582,
              900
            ],
            [
              582,
              1029
            ],
            [
              452,
              1029
            ],
            [
              452,
              900
            ]
          ]
        ]
      },
      "properties": {
        "name": "total",
        "classification": {
          "name": "total",
          "colorRGB": -256
        }
      }
    }
  ]
}