{
  "type": "FeatureCollection",
  "features": [
    {
      "type": "Feature",
      "geometry": {
        "type": "Polygon",
        "coordinates": [
          [
            [
              160,
              167
            ],
            [
              651,
              167
            ],
            [
              651,
              209
            ],
            [
              160,
              209
            ],
            [
              160,
              167
            ]
          ]
        ]
      },
      "properties": {
        "name": "company",
        "classification": {
          "name": "company",
          "colorRGB": -65536
        }
      }
    },
    {
      "type": "Feature",
      "geometry": {
        "type": "Polygon",
        "coordinates": [
          [
            [
              447,
              618
            ],
            [
              470,
              618
            ],
            [
              470,
              907
            ],
            [
              447,
              907
            ],
            [
              447,
              618
            ]
          ]
        ]
      },
      "properties": {
        "name": "date",
        "classification": {
          "name": "date",
          "colorRGB": -16711936
        }
      }
    },
    {
      "type": "Feature",
      "geometry": {
        "type": "Polygon",
        "coordinates": [
          [
            [
              447,
              618
            ],
            [
              470,
              618
            ],
            [
              470,
              907
            ],
            [
              447,
              907
            ],
            [
              447,
              618
            ]
          ]
        ]
      },
      "properties": {
        "name": "address",
        "classification": {
          "name": "address",
          "colorRGB": -16776961
        }
      }
    },
    {
      "type": "Feature",
      "geometry": {
        "type": "Polygon",
        "coordinates": [
          [
            [
              443,
              793
            ],
            [
              487,
              793
            ],
            [
              487,
              907
            ],
            [
              443,
              907
            ],
            [
              443,
              793
            ]
          ]
        ]
      },
      "properties": {
        "name": "total",
        "classification": {
          "name": "total",
          "colorRGB": -256
        }
      }
    }
  ]
}