{
  "type": "FeatureCollection",
  "features": [
    {
      "type": "Feature",
      "geometry": {
        "type": "Polygon",
        "coordinates": [
          [
            [
              166,
              114
            ],
            [
              547,
              114
            ],
            [
              547,
              152
            ],
            [
              166,
              152
            ],
            [
              166,
              114
            ]
          ]
        ]
      },
      "properties": {
        "name": "company",
        "classification": {
          "name": "company",
          "colorRGB": -65536
        }
      }
    },
    {
      "type": "Feature",
      "geometry": {
        "type": "Polygon",
        "coordinates": [
          [
            [
              51,
              1282
            ],
            [
              276,
              1282
            ],
            [
              276,
              1317
            ],
            [
              51,
              1317
            ],
            [
              51,
              1282
            ]
          ]
        ]
      },
      "properties": {
        "name": "date",
        "classification": {
          "name": "date",
          "colorRGB": -16711936
        }
      }
    },
    {
      "type": "Feature",
      "geometry": {
        "type": "Polygon",
        "coordinates": [
          [
            [
              152,
              155
            ],
            [
              563,
              155
            ],
            [
              563,
              271
            ],
            [
              152,
              271
            ],
            [
              152,
              155
            ]
          ]
        ]
      },
      "properties": {
        "name": "address",
        "classification": {
          "name": "address",
          "colorRGB": -16776961
        }
      }
    },
    {
      "type": "Feature",
      "geometry": {
        "type": "Polygon",
        "coordinates": [
          [
            [
              537,
              964
            ],
            [
              612,
              964
            ],
            [
              612,
              994
            ],
            [
              537,
              994
            ],
            [
              537,
              964
            ]
          ]
        ]
      },
      "properties": {
        "name": "total",
        "classification": {
          "name": "total",
          "colorRGB": -256
        }
      }
    }
  ]
}