{
  "type": "FeatureCollection",
  "features": [
    {
      "type": "Feature",
      "geometry": {
        "type": "Polygon",
        "coordinates": [
          [
            [
              150,
              133
            ],
            [
              472,
              133
            ],
            [
              472,
              154
            ],
            [
              150,
              154
            ],
            [
              150,
              133
            ]
          ]
        ]
      },
      "properties": {
        "name": "company",
        "classification": {
          "name": "company",
          "colorRGB": -65536
        }
      }
    },
    {
      "type": "Feature",
      "geometry": {
        "type": "Polygon",
        "coordinates": [
          [
            [
              116,
              335
            ],
            [
              211,
              335
            ],
            [
              211,
              356
            ],
            [
              116,
              356
            ],
            [
              116,
              335
            ]
          ]
        ]
      },
      "properties": {
        "name": "date",
        "classification": {
          "name": "date",
          "colorRGB": -16711936
        }
      }
    },
    {
      "type": "Feature",
      "geometry": {
        "type": "Polygon",
        "coordinates": [
          [
            [
              128,
              179
            ],
            [
              494,
              179
            ],
            [
              494,
              270
            ],
            [
              128,
              270
            ],
            [
              128,
              179
            ]
          ]
        ]
      },
      "properties": {
        "name": "address",
        "classification": {
          "name": "address",
          "colorRGB": -16776961
        }
      }
    },
    {
      "type": "Feature",
      "geometry": {
        "type": "Polygon",
        "coordinates": [
          [
            [
              437,
              800
            ],
            [
              478,
              800
            ],
            [
              478,
              844
            ],
            [
              437,
              844
            ],
            [
              437,
              800
            ]
          ]
        ]
      },
      "properties": {
        "name": "total",
        "classification": {
          "name": "total",
          "colorRGB": -256
        }
      }
    }
  ]
}