{
  "type": "FeatureCollection",
  "features": [
    {
      "type": "Feature",
      "geometry": {
        "type": "Polygon",
        "coordinates": [
          [
            [
              257,
              166
            ],
            [
              683,
              166
            ],
            [
              683,
              259
            ],
            [
              257,
              259
            ],
            [
              257,
              166
            ]
          ]
        ]
      },
      "properties": {
        "name": "company",
        "classification": {
          "name": "company",
          "colorRGB": -65536
        }
      }
    },
    {
      "type": "Feature",
      "geometry": {
        "type": "Polygon",
        "coordinates": [
          [
            [
              325,
              959
            ],
            [
              492,
              959
            ],
            [
              492,
              1239
            ],
            [
              325,
              1239
            ],
            [
              325,
              959
            ]
          ]
        ]
      },
      "properties": {
        "name": "date",
        "classification": {
          "name": "date",
          "colorRGB": -16711936
        }
      }
    },
    {
      "type": "Feature",
      "geometry": {
        "type": "Polygon",
        "coordinates": [
          [
            [
              430,
              959
            ],
            [
              861,
              959
            ],
            [
              861,
              1239
            ],
            [
              430,
              1239
            ],
            [
              430,
              959
            ]
          ]
        ]
      },
      "properties": {
        "name": "address",
        "classification": {
          "name": "address",
          "colorRGB": -16776961
        }
      }
    },
    {
      "type": "Feature",
      "geometry": {
        "type": "Polygon",
        "coordinates": [
          [
            [
              325,
              1203
            ],
            [
              878,
              1203
            ],
            [
              878,
              1664
            ],
            [
              325,
              1664
            ],
            [
              325,
              1203
            ]
          ]
        ]
      },
      "properties": {
        "name": "total",
        "classification": {
          "name": "total",
          "colorRGB": -256
        }
      }
    }
  ]
}