{
  "type": "FeatureCollection",
  "features": [
    {
      "type": "Feature",
      "geometry": {
        "type": "Polygon",
        "coordinates": [
          [
            [
              238,
              269
            ],
            [
              562,
              269
            ],
            [
              562,
              306
            ],
            [
              238,
              306
            ],
            [
              238,
              269
            ]
          ]
        ]
      },
      "properties": {
        "name": "company",
        "classification": {
          "name": "company",
          "colorRGB": -65536
        }
      }
    },
    {
      "type": "Feature",
      "geometry": {
        "type": "Polygon",
        "coordinates": [
          [
            [
              171,
              701
            ],
            [
              548,
              701
            ],
            [
              548,
              738
            ],
            [
              171,
              738
            ],
            [
              171,
              701
            ]
          ]
        ]
      },
      "properties": {
        "name": "date",
        "classification": {
          "name": "date",
          "colorRGB": -16711936
        }
      }
    },
    {
      "type": "Feature",
      "geometry": {
        "type": "Polygon",
        "coordinates": [
          [
            [
              117,
              356
            ],
            [
              700,
              356
            ],
            [
              700,
              481
            ],
            [
              117,
              481
            ],
            [
              117,
              356
            ]
          ]
        ]
      },
      "properties": {
        "name": "address",
        "classification": {
          "name": "address",
          "colorRGB": -16776961
        }
      }
    },
    {
      "type": "Feature",
      "geometry": {
        "type": "Polygon",
        "coordinates": [
          [
            [
              609,
              1291
            ],
            [
              762,
              1291
            ],
            [
              762,
              1500
            ],
            [
              609,
              1500
            ],
            [
              609,
              1291
            ]
          ]
        ]
      },
      "properties": {
        "name": "total",
        "classification": {
          "name": "total",
          "colorRGB": -256
        }
      }
    }
  ]
}