{
  "type": "FeatureCollection",
  "features": [
    {
      "type": "Feature",
      "geometry": {
        "type": "Polygon",
        "coordinates": [
          [
            [
              183,
              332
            ],
            [
              697,
              332
            ],
            [
              697,
              372
            ],
            [
              183,
              372
            ],
            [
              183,
              332
            ]
          ]
        ]
      },
      "properties": {
        "name": "company",
        "classification": {
          "name": "company",
          "colorRGB": -65536
        }
      }
    },
    {
      "type": "Feature",
      "geometry": {
        "type": "Polygon",
        "coordinates": [
          [
            [
              75,
              1746
            ],
            [
              524,
              1746
            ],
            [
              524,
              1784
            ],
            [
              75,
              1784
            ],
            [
              75,
              1746
            ]
          ]
        ]
      },
      "properties": {
        "name": "date",
        "classification": {
          "name": "date",
          "colorRGB": -16711936
        }
      }
    },
    {
      "type": "Feature",
      "geometry": {
        "type": "Polygon",
        "coordinates": [
          [
            [
              129,
              383
            ],
            [
              749,
              383
            ],
            [
              749,
              524
            ],
            [
              129,
              524
            ],
            [
              129,
              383
            ]
          ]
        ]
      },
      "properties": {
        "name": "address",
        "classification": {
          "name": "address",
          "colorRGB": -16776961
        }
      }
    },
    {
      "type": "Feature",
      "geometry": {
        "type": "Polygon",
        "coordinates": [
          [
            [
              672,
              1447
            ],
            [
              830,
              1447
            ],
            [
              830,
              1486
            ],
            [
              672,
              1486
            ],
            [
              672,
              1447
            ]
          ]
        ]
      },
      "properties": {
        "name": "total",
        "classification": {
          "name": "total",
          "colorRGB": -256
        }
      }
    }
  ]
}