{
  "type": "FeatureCollection",
  "features": [
    {
      "type": "Feature",
      "geometry": {
        "type": "Polygon",
        "coordinates": [
          [
            [
              41,
              141
            ],
            [
              446,
              141
            ],
            [
              446,
              170
            ],
            [
              41,
              170
            ],
            [
              41,
              141
            ]
          ]
        ]
      },
      "properties": {
        "name": "company",
        "classification": {
          "name": "company",
          "colorRGB": -65536
        }
      }
    },
    {
      "type": "Feature",
      "geometry": {
        "type": "Polygon",
        "coordinates": [
          [
            [
              212,
              527
            ],
            [
              362,
              527
            ],
            [
              362,
              556
            ],
            [
              212,
              556
            ],
            [
              212,
              527
            ]
          ]
        ]
      },
      "properties": {
        "name": "date",
        "classification": {
          "name": "date",
          "colorRGB": -16711936
        }
      }
    },
    {
      "type": "Feature",
      "geometry": {
        "type": "Polygon",
        "coordinates": [
          [
            [
              41,
              211
            ],
            [
              341,
              211
            ],
            [
              341,
              312
            ],
            [
              41,
              312
            ],
            [
              41,
              211
            ]
          ]
        ]
      },
      "properties": {
        "name": "address",
        "classification": {
          "name": "address",
          "colorRGB": -16776961
        }
      }
    },
    {
      "type": "Feature",
      "geometry": {
        "type": "Polygon",
        "coordinates": [
          [
            [
              349,
              597
            ],
            [
              428,
              597
            ],
            [
              428,
              622
            ],
            [
              349,
              622
            ],
            [
              349,
              597
            ]
          ]
        ]
      },
      "properties": {
        "name": "total",
        "classification": {
          "name": "total",
          "colorRGB": -256
        }
      }
    }
  ]
}