{
  "type": "FeatureCollection",
  "features": [
    {
      "type": "Feature",
      "geometry": {
        "type": "Polygon",
        "coordinates": [
          [
            [
              348,
              339
            ],
            [
              638,
              339
            ],
            [
              638,
              354
            ],
            [
              348,
              354
            ],
            [
              348,
              339
            ]
          ]
        ]
      },
      "properties": {
        "name": "company",
        "classification": {
          "name": "company",
          "colorRGB": -65536
        }
      }
    },
    {
      "type": "Feature",
      "geometry": {
        "type": "Polygon",
        "coordinates": [
          [
            [
              440,
              356
            ],
            [
              548,
              356
            ],
            [
              548,
              369
            ],
            [
              440,
              369
            ],
            [
              440,
              356
            ]
          ]
        ]
      },
      "properties": {
        "name": "date",
        "classification": {
          "name": "date",
          "colorRGB": -16711936
        }
      }
    },
    {
      "type": "Feature",
      "geometry": {
        "type": "Polygon",
        "coordinates": [
          [
            [
              368,
              392
            ],
            [
              619,
              392
            ],
            [
              619,
              426
            ],
            [
              368,
              426
            ],
            [
              368,
              392
            ]
          ]
        ]
      },
      "properties": {
        "name": "address",
        "classification": {
          "name": "address",
          "colorRGB": -16776961
        }
      }
    },
    {
      "type": "Feature",
      "geometry": {
        "type": "Polygon",
        "coordinates": [
          [
            [
              535,
              589
            ],
            [
              651,
              589
            ],
            [
              651,
              685
            ],
            [
              535,
              685
            ],
            [
              535,
              589
            ]
          ]
        ]
      },
      "properties": {
        "name": "total",
        "classification": {
          "name": "total",
          "colorRGB": -256
        }
      }
    }
  ]
}