{
  "type": "FeatureCollection",
  "features": [
    {
      "type": "Feature",
      "geometry": {
        "type": "Polygon",
        "coordinates": [
          [
            [
              71,
              154
            ],
            [
              624,
              154
            ],
            [
              624,
              190
            ],
            [
              71,
              190
            ],
            [
              71,
              154
            ]
          ]
        ]
      },
      "properties": {
        "name": "company",
        "classification": {
          "name": "company",
          "colorRGB": -65536
        }
      }
    },
    {
      "type": "Feature",
      "geometry": {
        "type": "Polygon",
        "coordinates": [
          [
            [
              236,
              845
            ],
            [
              277,
              845
            ],
            [
              277,
              908
            ],
            [
              236,
              908
            ],
            [
              236,
              845
            ]
          ]
        ]
      },
      "properties": {
        "name": "date",
        "classification": {
          "name": "date",
          "colorRGB": -16711936
        }
      }
    },
    {
      "type": "Feature",
      "geometry": {
        "type": "Polygon",
        "coordinates": [
          [
            [
              165,
              235
            ],
            [
              527,
              235
            ],
            [
              527,
              357
            ],
            [
              165,
              357
            ],
            [
              165,
              235
            ]
          ]
        ]
      },
      "properties": {
        "name": "address",
        "classification": {
          "name": "address",
          "colorRGB": -16776961
        }
      }
    },
    {
      "type": "Feature",
      "geometry": {
        "type": "Polygon",
        "coordinates": [
          [
            [
              478,
              665
            ],
            [
              664,
              665
            ],
            [
              664,
              780
            ],
            [
              478,
              780
            ],
            [
              478,
              665
            ]
          ]
        ]
      },
      "properties": {
        "name": "total",
        "classification": {
          "name": "total",
          "colorRGB": -256
        }
      }
    }
  ]
}