{
  "type": "FeatureCollection",
  "features": [
    {
      "type": "Feature",
      "geometry": {
        "type": "Polygon",
        "coordinates": [
          [
            [
              177,
              218
            ],
            [
              778,
              218
            ],
            [
              778,
              255
            ],
            [
              177,
              255
            ],
            [
              177,
              218
            ]
          ]
        ]
      },
      "properties": {
        "name": "company",
        "classification": {
          "name": "company",
          "colorRGB": -65536
        }
      }
    },
    {
      "type": "Feature",
      "geometry": {
        "type": "Polygon",
        "coordinates": [
          [
            [
              378,
              917
            ],
            [
              399,
              917
            ],
            [
              399,
              1043
            ],
            [
              378,
              1043
            ],
            [
              378,
              917
            ]
          ]
        ]
      },
      "properties": {
        "name": "date",
        "classification": {
          "name": "date",
          "colorRGB": -16711936
        }
      }
    },
    {
      "type": "Feature",
      "geometry": {
        "type": "Polygon",
        "coordinates": [
          [
            [
              93,
              319
            ],
            [
              863,
              319
            ],
            [
              863,
              443
            ],
            [
              93,
              443
            ],
            [
              93,
              319
            ]
          ]
        ]
      },
      "properties": {
        "name": "address",
        "classification": {
          "name": "address",
          "colorRGB": -16776961
        }
      }
    },
    {
      "type": "Feature",
      "geometry": {
        "type": "Polygon",
        "coordinates": [
          [
            [
              499,
              917
            ],
            [
              781,
              917
            ],
            [
              781,
              1041
            ],
            [
              499,
              1041
            ],
            [
              499,
              917
            ]
          ]
        ]
      },
      "properties": {
        "name": "total",
        "classification": {
          "name": "total",
          "colorRGB": -256
        }
      }
    }
  ]
}