{
  "type": "FeatureCollection",
  "features": [
    {
      "type": "Feature",
      "geometry": {
        "type": "Polygon",
        "coordinates": [
          [
            [
              107,
              268
            ],
            [
              645,
              268
            ],
            [
              645,
              297
            ],
            [
              107,
              297
            ],
            [
              107,
              268
            ]
          ]
        ]
      },
      "properties": {
        "name": "company",
        "classification": {
          "name": "company",
          "colorRGB": -65536
        }
      }
    },
    {
      "type": "Feature",
      "geometry": {
        "type": "Polygon",
        "coordinates": [
          [
            [
              22,
              579
            ],
            [
              467,
              579
            ],
            [
              467,
              821
            ],
            [
              22,
              821
            ],
            [
              22,
              579
            ]
          ]
        ]
      },
      "properties": {
        "name": "date",
        "classification": {
          "name": "date",
          "colorRGB": -16711936
        }
      }
    },
    {
      "type": "Feature",
      "geometry": {
        "type": "Polygon",
        "coordinates": [
          [
            [
              137,
              373
            ],
            [
              593,
              373
            ],
            [
              593,
              438
            ],
            [
              137,
              438
            ],
            [
              137,
              373
            ]
          ]
        ]
      },
      "properties": {
        "name": "address",
        "classification": {
          "name": "address",
          "colorRGB": -16776961
        }
      }
    },
    {
      "type": "Feature",
      "geometry": {
        "type": "Polygon",
        "coordinates": [
          [
            [
              636,
              936
            ],
            [
              706,
              936
            ],
            [
              706,
              1016
            ],
            [
              636,
              1016
            ],
            [
              636,
              936
            ]
          ]
        ]
      },
      "properties": {
        "name": "total",
        "classification": {
          "name": "total",
          "colorRGB": -256
        }
      }
    }
  ]
}