{
  "type": "FeatureCollection",
  "features": [
    {
      "type": "Feature",
      "geometry": {
        "type": "Polygon",
        "coordinates": [
          [
            [
              27,
              97
            ],
            [
              587,
              97
            ],
            [
              587,
              120
            ],
            [
              27,
              120
            ],
            [
              27,
              97
            ]
          ]
        ]
      },
      "properties": {
        "name": "company",
        "classification": {
          "name": "company",
          "colorRGB": -65536
        }
      }
    },
    {
      "type": "Feature",
      "geometry": {
        "type": "Polygon",
        "coordinates": [
          [
            [
              248,
              491
            ],
            [
              448,
              491
            ],
            [
              448,
              625
            ],
            [
              248,
              625
            ],
            [
              248,
              491
            ]
          ]
        ]
      },
      "properties": {
        "name": "date",
        "classification": {
          "name": "date",
          "colorRGB": -16711936
        }
      }
    },
    {
      "type": "Feature",
      "geometry": {
        "type": "Polygon",
        "coordinates": [
          [
            [
              287,
              558
            ],
            [
              448,
              558
            ],
            [
              448,
              625
            ],
            [
              287,
              625
            ],
            [
              287,
              558
            ]
          ]
        ]
      },
      "properties": {
        "name": "address",
        "classification": {
          "name": "address",
          "colorRGB": -16776961
        }
      }
    },
    {
      "type": "Feature",
      "geometry": {
        "type": "Polygon",
        "coordinates": [
          [
            [
              288,
              558
            ],
            [
              446,
              558
            ],
            [
              446,
              625
            ],
            [
              288,
              625
            ],
            [
              288,
              558
            ]
          ]
        ]
      },
      "properties": {
        "name": "total",
        "classification": {
          "name": "total",
          "colorRGB": -256
        }
      }
    }
  ]
}