{
  "type": "FeatureCollection",
  "features": [
    {
      "type": "Feature",
      "geometry": {
        "type": "Polygon",
        "coordinates": [
          [
            [
              87,
              237
            ],
            [
              375,
              237
            ],
            [
              375,
              264
            ],
            [
              87,
              264
            ],
            [
              87,
              237
            ]
          ]
        ]
      },
      "properties": {
        "name": "company",
        "classification": {
          "name": "company",
          "colorRGB": -65536
        }
      }
    },
    {
      "type": "Feature",
      "geometry": {
        "type": "Polygon",
        "coordinates": [
          [
            [
              293,
              664
            ],
            [
              308,
              664
            ],
            [
              308,
              744
            ],
            [
              293,
              744
            ],
            [
              293,
              664
            ]
          ]
        ]
      },
      "properties": {
        "name": "date",
        "classification": {
          "name": "date",
          "colorRGB": -16711936
        }
      }
    },
    {
      "type": "Feature",
      "geometry": {
        "type": "Polygon",
        "coordinates": [
          [
            [
              92,
              321
            ],
            [
              364,
              321
            ],
            [
              364,
              452
            ],
            [
              92,
              452
            ],
            [
              92,
              321
            ]
          ]
        ]
      },
      "properties": {
        "name": "address",
        "classification": {
          "name": "address",
          "colorRGB": -16776961
        }
      }
    },
    {
      "type": "Feature",
      "geometry": {
        "type": "Polygon",
        "coordinates": [
          [
            [
              293,
              805
            ],
            [
              308,
              805
            ],
            [
              308,
              969
            ],
            [
              293,
              969
            ],
            [
              293,
              805
            ]
          ]
        ]
      },
      "properties": {
        "name": "total",
        "classification": {
          "name": "total",
          "colorRGB": -256
        }
      }
    }
  ]
}