{
  "type": "FeatureCollection",
  "features": [
    {
      "type": "Feature",
      "geometry": {
        "type": "Polygon",
        "coordinates": [
          [
            [
              173,
              86
            ],
            [
              680,
              86
            ],
            [
              680,
              144
            ],
            [
              173,
              144
            ],
            [
              173,
              86
            ]
          ]
        ]
      },
      "properties": {
        "name": "company",
        "classification": {
          "name": "company",
          "colorRGB": -65536
        }
      }
    },
    {
      "type": "Feature",
      "geometry": {
        "type": "Polygon",
        "coordinates": [
          [
            [
              78,
              470
            ],
            [
              648,
              470
            ],
            [
              648,
              553
            ],
            [
              78,
              553
            ],
            [
              78,
              470
            ]
          ]
        ]
      },
      "properties": {
        "name": "date",
        "classification": {
          "name": "date",
          "colorRGB": -16711936
        }
      }
    },
    {
      "type": "Feature",
      "geometry": {
        "type": "Polygon",
        "coordinates": [
          [
            [
              192,
              130
            ],
            [
              657,
              130
            ],
            [
              657,
              241
            ],
            [
              192,
              241
            ],
            [
              192,
              130
            ]
          ]
        ]
      },
      "properties": {
        "name": "address",
        "classification": {
          "name": "address",
          "colorRGB": -16776961
        }
      }
    },
    {
      "type": "Feature",
      "geometry": {
        "type": "Polygon",
        "coordinates": [
          [
            [
              510,
              1188
            ],
            [
              609,
              1188
            ],
            [
              609,
              1255
            ],
            [
              510,
              1255
            ],
            [
              510,
              1188
            ]
          ]
        ]
      },
      "properties": {
        "name": "total",
        "classification": {
          "name": "total",
          "colorRGB": -256
        }
      }
    }
  ]
}