{
  "type": "FeatureCollection",
  "features": [
    {
      "type": "Feature",
      "geometry": {
        "type": "Polygon",
        "coordinates": [
          [
            [
              23,
              145
            ],
            [
              600,
              145
            ],
            [
              600,
              195
            ],
            [
              23,
              195
            ],
            [
              23,
              145
            ]
          ]
        ]
      },
      "properties": {
        "name": "company",
        "classification": {
          "name": "company",
          "colorRGB": -65536
        }
      }
    },
    {
      "type": "Feature",
      "geometry": {
        "type": "Polygon",
        "coordinates": [
          [
            [
              338,
              1023
            ],
            [
              582,
              1023
            ],
            [
              582,
              1057
            ],
            [
              338,
              1057
            ],
            [
              338,
              1023
            ]
          ]
        ]
      },
      "properties": {
        "name": "date",
        "classification": {
          "name": "date",
          "colorRGB": -16711936
        }
      }
    },
    {
      "type": "Feature",
      "geometry": {
        "type": "Polygon",
        "coordinates": [
          [
            [
              23,
              207
            ],
            [
              408,
              207
            ],
            [
              408,
              273
            ],
            [
              23,
              273
            ],
            [
              23,
              207
            ]
          ]
        ]
      },
      "properties": {
        "name": "address",
        "classification": {
          "name": "address",
          "colorRGB": -16776961
        }
      }
    },
    {
      "type": "Feature",
      "geometry": {
        "type": "Polygon",
        "coordinates": [
          [
            [
              553,
              678
            ],
            [
              630,
              678
            ],
            [
              630,
              859
            ],
            [
              553,
              859
            ],
            [
              553,
              678
            ]
          ]
        ]
      },
      "properties": {
        "name": "total",
        "classification": {
          "name": "total",
          "colorRGB": -256
        }
      }
    }
  ]
}