{
  "type": "FeatureCollection",
  "features": [
    {
      "type": "Feature",
      "geometry": {
        "type": "Polygon",
        "coordinates": [
          [
            [
              476,
              826
            ],
            [
              498,
              826
            ],
            [
              498,
              1312
            ],
            [
              476,
              1312
            ],
            [
              476,
              826
            ]
          ]
        ]
      },
      "properties": {
        "name": "company",
        "classification": {
          "name": "company",
          "colorRGB": -65536
        }
      }
    },
    {
      "type": "Feature",
      "geometry": {
        "type": "Polygon",
        "coordinates": [
          [
            [
              136,
              825
            ],
            [
              150,
              825
            ],
            [
              150,
              1310
            ],
            [
              136,
              1310
            ],
            [
              136,
              825
            ]
          ]
        ]
      },
      "properties": {
        "name": "date",
        "classification": {
          "name": "date",
          "colorRGB": -16711936
        }
      }
    },
    {
      "type": "Feature",
      "geometry": {
        "type": "Polygon",
        "coordinates": [
          [
            [
              136,
              825
            ],
            [
              498,
              825
            ],
            [
              498,
              1312
            ],
            [
              136,
              1312
            ],
            [
              136,
              825
            ]
          ]
        ]
      },
      "properties": {
        "name": "address",
        "classification": {
          "name": "address",
          "colorRGB": -16776961
        }
      }
    },
    {
      "type": "Feature",
      "geometry": {
        "type": "Polygon",
        "coordinates": [
          [
            [
              136,
              825
            ],
            [
              150,
              825
            ],
            [
              150,
              1310
            ],
            [
              136,
              1310
            ],
            [
              136,
              825
            ]
          ]
        ]
      },
      "properties": {
        "name": "total",
        "classification": {
          "name": "total",
          "colorRGB": -256
        }
      }
    }
  ]
}