{
  "type": "FeatureCollection",
  "features": [
    {
      "type": "Feature",
      "geometry": {
        "type": "Polygon",
        "coordinates": [
          [
            [
              1635,
              1473
            ],
            [
              2969,
              1473
            ],
            [
              2969,
              1537
            ],
            [
              1635,
              1537
            ],
            [
              1635,
              1473
            ]
          ]
        ]
      },
      "properties": {
        "name": "company",
        "classification": {
          "name": "company",
          "colorRGB": -65536
        }
      }
    },
    {
      "type": "Feature",
      "geometry": {
        "type": "Polygon",
        "coordinates": [
          [
            [
              2059,
              1549
            ],
            [
              2555,
              1549
            ],
            [
              2555,
              1624
            ],
            [
              2059,
              1624
            ],
            [
              2059,
              1549
            ]
          ]
        ]
      },
      "properties": {
        "name": "date",
        "classification": {
          "name": "date",
          "colorRGB": -16711936
        }
      }
    },
    {
      "type": "Feature",
      "geometry": {
        "type": "Polygon",
        "coordinates": [
          [
            [
              1727,
              1718
            ],
            [
              2871,
              1718
            ],
            [
              2871,
              1863
            ],
            [
              1727,
              1863
            ],
            [
              1727,
              1718
            ]
          ]
        ]
      },
      "properties": {
        "name": "address",
        "classification": {
          "name": "address",
          "colorRGB": -16776961
        }
      }
    },
    {
      "type": "Feature",
      "geometry": {
        "type": "Polygon",
        "coordinates": [
          [
            [
              2493,
              3051
            ],
            [
              3025,
              3051
            ],
            [
              3025,
              3482
            ],
            [
              2493,
              3482
            ],
            [
              2493,
              3051
            ]
          ]
        ]
      },
      "properties": {
        "name": "total",
        "classification": {
          "name": "total",
          "colorRGB": -256
        }
      }
    }
  ]
}