{
  "type": "FeatureCollection",
  "features": [
    {
      "type": "Feature",
      "geometry": {
        "type": "Polygon",
        "coordinates": [
          [
            [
              54,
              256
            ],
            [
              545,
              256
            ],
            [
              545,
              285
            ],
            [
              54,
              285
            ],
            [
              54,
              256
            ]
          ]
        ]
      },
      "properties": {
        "name": "company",
        "classification": {
          "name": "company",
          "colorRGB": -65536
        }
      }
    },
    {
      "type": "Feature",
      "geometry": {
        "type": "Polygon",
        "coordinates": [
          [
            [
              259,
              440
            ],
            [
              520,
              440
            ],
            [
              520,
              465
            ],
            [
              259,
              465
            ],
            [
              259,
              440
            ]
          ]
        ]
      },
      "properties": {
        "name": "date",
        "classification": {
          "name": "date",
          "colorRGB": -16711936
        }
      }
    },
    {
      "type": "Feature",
      "geometry": {
        "type": "Polygon",
        "coordinates": [
          [
            [
              56,
              298
            ],
            [
              413,
              298
            ],
            [
              413,
              358
            ],
            [
              56,
              358
            ],
            [
              56,
              298
            ]
          ]
        ]
      },
      "properties": {
        "name": "address",
        "classification": {
          "name": "address",
          "colorRGB": -16776961
        }
      }
    },
    {
      "type": "Feature",
      "geometry": {
        "type": "Polygon",
        "coordinates": [
          [
            [
              490,
              547
            ],
            [
              554,
              547
            ],
            [
              554,
              613
            ],
            [
              490,
              613
            ],
            [
              490,
              547
            ]
          ]
        ]
      },
      "properties": {
        "name": "total",
        "classification": {
          "name": "total",
          "colorRGB": -256
        }
      }
    }
  ]
}