{
  "type": "FeatureCollection",
  "features": [
    {
      "type": "Feature",
      "geometry": {
        "type": "Polygon",
        "coordinates": [
          [
            [
              33,
              71
            ],
            [
              586,
              71
            ],
            [
              586,
              96
            ],
            [
              33,
              96
            ],
            [
              33,
              71
            ]
          ]
        ]
      },
      "properties": {
        "name": "company",
        "classification": {
          "name": "company",
          "colorRGB": -65536
        }
      }
    },
    {
      "type": "Feature",
      "geometry": {
        "type": "Polygon",
        "coordinates": [
          [
            [
              244,
              533
            ],
            [
              402,
              533
            ],
            [
              402,
              599
            ],
            [
              244,
              599
            ],
            [
              244,
              533
            ]
          ]
        ]
      },
      "properties": {
        "name": "date",
        "classification": {
          "name": "date",
          "colorRGB": -16711936
        }
      }
    },
    {
      "type": "Feature",
      "geometry": {
        "type": "Polygon",
        "coordinates": [
          [
            [
              245,
              535
            ],
            [
              402,
              535
            ],
            [
              402,
              599
            ],
            [
              245,
              599
            ],
            [
              245,
              535
            ]
          ]
        ]
      },
      "properties": {
        "name": "address",
        "classification": {
          "name": "address",
          "colorRGB": -16776961
        }
      }
    },
    {
      "type": "Feature",
      "geometry": {
        "type": "Polygon",
        "coordinates": [
          [
            [
              245,
              535
            ],
            [
              402,
              535
            ],
            [
              402,
              599
            ],
            [
              245,
              599
            ],
            [
              245,
              535
            ]
          ]
        ]
      },
      "properties": {
        "name": "total",
        "classification": {
          "name": "total",
          "colorRGB": -256
        }
      }
    }
  ]
}