{
  "type": "FeatureCollection",
  "features": [
    {
      "type": "Feature",
      "geometry": {
        "type": "Polygon",
        "coordinates": [
          [
            [
              189,
              318
            ],
            [
              707,
              318
            ],
            [
              707,
              365
            ],
            [
              189,
              365
            ],
            [
              189,
              318
            ]
          ]
        ]
      },
      "properties": {
        "name": "company",
        "classification": {
          "name": "company",
          "colorRGB": -65536
        }
      }
    },
    {
      "type": "Feature",
      "geometry": {
        "type": "Polygon",
        "coordinates": [
          [
            [
              75,
              2376
            ],
            [
              532,
              2376
            ],
            [
              532,
              2422
            ],
            [
              75,
              2422
            ],
            [
              75,
              2376
            ]
          ]
        ]
      },
      "properties": {
        "name": "date",
        "classification": {
          "name": "date",
          "colorRGB": -16711936
        }
      }
    },
    {
      "type": "Feature",
      "geometry": {
        "type": "Polygon",
        "coordinates": [
          [
            [
              131,
              420
            ],
            [
              756,
              420
            ],
            [
              756,
              566
            ],
            [
              131,
              566
            ],
            [
              131,
              420
            ]
          ]
        ]
      },
      "properties": {
        "name": "address",
        "classification": {
          "name": "address",
          "colorRGB": -16776961
        }
      }
    },
    {
      "type": "Feature",
      "geometry": {
        "type": "Polygon",
        "coordinates": [
          [
            [
              673,
              2084
            ],
            [
              838,
              2084
            ],
            [
              838,
              2119
            ],
            [
              673,
              2119
            ],
            [
              673,
              2084
            ]
          ]
        ]
      },
      "properties": {
        "name": "total",
        "classification": {
          "name": "total",
          "colorRGB": -256
        }
      }
    }
  ]
}