{
  "type": "FeatureCollection",
  "features": [
    {
      "type": "Feature",
      "geometry": {
        "type": "Polygon",
        "coordinates": [
          [
            [
              126,
              185
            ],
            [
              826,
              185
            ],
            [
              826,
              291
            ],
            [
              126,
              291
            ],
            [
              126,
              185
            ]
          ]
        ]
      },
      "properties": {
        "name": "company",
        "classification": {
          "name": "company",
          "colorRGB": -65536
        }
      }
    },
    {
      "type": "Feature",
      "geometry": {
        "type": "Polygon",
        "coordinates": [
          [
            [
              102,
              1018
            ],
            [
              125,
              1018
            ],
            [
              125,
              1391
            ],
            [
              102,
              1391
            ],
            [
              102,
              1018
            ]
          ]
        ]
      },
      "properties": {
        "name": "date",
        "classification": {
          "name": "date",
          "colorRGB": -16711936
        }
      }
    },
    {
      "type": "Feature",
      "geometry": {
        "type": "Polygon",
        "coordinates": [
          [
            [
              102,
              1018
            ],
            [
              125,
              1018
            ],
            [
              125,
              1391
            ],
            [
              102,
              1391
            ],
            [
              102,
              1018
            ]
          ]
        ]
      },
      "properties": {
        "name": "address",
        "classification": {
          "name": "address",
          "colorRGB": -16776961
        }
      }
    },
    {
      "type": "Feature",
      "geometry": {
        "type": "Polygon",
        "coordinates": [
          [
            [
              777,
              1443
            ],
            [
              863,
              1443
            ],
            [
              863,
              1550
            ],
            [
              777,
              1550
            ],
            [
              777,
              1443
            ]
          ]
        ]
      },
      "properties": {
        "name": "total",
        "classification": {
          "name": "total",
          "colorRGB": -256
        }
      }
    }
  ]
}