{
  "type": "FeatureCollection",
  "features": [
    {
      "type": "Feature",
      "geometry": {
        "type": "Polygon",
        "coordinates": [
          [
            [
              8,
              209
            ],
            [
              480,
              209
            ],
            [
              480,
              244
            ],
            [
              8,
              244
            ],
            [
              8,
              209
            ]
          ]
        ]
      },
      "properties": {
        "name": "company",
        "classification": {
          "name": "company",
          "colorRGB": -65536
        }
      }
    },
    {
      "type": "Feature",
      "geometry": {
        "type": "Polygon",
        "coordinates": [
          [
            [
              178,
              611
            ],
            [
              495,
              611
            ],
            [
              495,
              668
            ],
            [
              178,
              668
            ],
            [
              178,
              611
            ]
          ]
        ]
      },
      "properties": {
        "name": "date",
        "classification": {
          "name": "date",
          "colorRGB": -16711936
        }
      }
    },
    {
      "type": "Feature",
      "geometry": {
        "type": "Polygon",
        "coordinates": [
          [
            [
              66,
              246
            ],
            [
              408,
              246
            ],
            [
              408,
              341
            ],
            [
              66,
              341
            ],
            [
              66,
              246
            ]
          ]
        ]
      },
      "properties": {
        "name": "address",
        "classification": {
          "name": "address",
          "colorRGB": -16776961
        }
      }
    },
    {
      "type": "Feature",
      "geometry": {
        "type": "Polygon",
        "coordinates": [
          [
            [
              362,
              872
            ],
            [
              488,
              872
            ],
            [
              488,
              929
            ],
            [
              362,
              929
            ],
            [
              362,
              872
            ]
          ]
        ]
      },
      "properties": {
        "name": "total",
        "classification": {
          "name": "total",
          "colorRGB": -256
        }
      }
    }
  ]
}