{
  "type": "FeatureCollection",
  "features": [
    {
      "type": "Feature",
      "geometry": {
        "type": "Polygon",
        "coordinates": [
          [
            [
              378,
              233
            ],
            [
              663,
              233
            ],
            [
              663,
              249
            ],
            [
              378,
              249
            ],
            [
              378,
              233
            ]
          ]
        ]
      },
      "properties": {
        "name": "company",
        "classification": {
          "name": "company",
          "colorRGB": -65536
        }
      }
    },
    {
      "type": "Feature",
      "geometry": {
        "type": "Polygon",
        "coordinates": [
          [
            [
              364,
              629
            ],
            [
              376,
              629
            ],
            [
              376,
              664
            ],
            [
              364,
              664
            ],
            [
              364,
              629
            ]
          ]
        ]
      },
      "properties": {
        "name": "date",
        "classification": {
          "name": "date",
          "colorRGB": -16711936
        }
      }
    },
    {
      "type": "Feature",
      "geometry": {
        "type": "Polygon",
        "coordinates": [
          [
            [
              392,
              298
            ],
            [
              646,
              298
            ],
            [
              646,
              335
            ],
            [
              392,
              335
            ],
            [
              392,
              298
            ]
          ]
        ]
      },
      "properties": {
        "name": "address",
        "classification": {
          "name": "address",
          "colorRGB": -16776961
        }
      }
    },
    {
      "type": "Feature",
      "geometry": {
        "type": "Polygon",
        "coordinates": [
          [
            [
              577,
              866
            ],
            [
              672,
              866
            ],
            [
              672,
              942
            ],
            [
              577,
              942
            ],
            [
              577,
              866
            ]
          ]
        ]
      },
      "properties": {
        "name": "total",
        "classification": {
          "name": "total",
          "colorRGB": -256
        }
      }
    }
  ]
}