{
  "type": "FeatureCollection",
  "features": [
    {
      "type": "Feature",
      "geometry": {
        "type": "Polygon",
        "coordinates": [
          [
            [
              53,
              128
            ],
            [
              573,
              128
            ],
            [
              573,
              155
            ],
            [
              53,
              155
            ],
            [
              53,
              128
            ]
          ]
        ]
      },
      "properties": {
        "name": "company",
        "classification": {
          "name": "company",
          "colorRGB": -65536
        }
      }
    },
    {
      "type": "Feature",
      "geometry": {
        "type": "Polygon",
        "coordinates": [
          [
            [
              206,
              423
            ],
            [
              495,
              423
            ],
            [
              495,
              446
            ],
            [
              206,
              446
            ],
            [
              206,
              423
            ]
          ]
        ]
      },
      "properties": {
        "name": "date",
        "classification": {
          "name": "date",
          "colorRGB": -16711936
        }
      }
    },
    {
      "type": "Feature",
      "geometry": {
        "type": "Polygon",
        "coordinates": [
          [
            [
              183,
              160
            ],
            [
              439,
              160
            ],
            [
              439,
              283
            ],
            [
              183,
              283
            ],
            [
              183,
              160
            ]
          ]
        ]
      },
      "properties": {
        "name": "address",
        "classification": {
          "name": "address",
          "colorRGB": -16776961
        }
      }
    },
    {
      "type": "Feature",
      "geometry": {
        "type": "Polygon",
        "coordinates": [
          [
            [
              478,
              932
            ],
            [
              543,
              932
            ],
            [
              543,
              955
            ],
            [
              478,
              955
            ],
            [
              478,
              932
            ]
          ]
        ]
      },
      "properties": {
        "name": "total",
        "classification": {
          "name": "total",
          "colorRGB": -256
        }
      }
    }
  ]
}