{
  "type": "FeatureCollection",
  "features": [
    {
      "type": "Feature",
      "geometry": {
        "type": "Polygon",
        "coordinates": [
          [
            [
              1567,
              1847
            ],
            [
              2908,
              1847
            ],
            [
              2908,
              1943
            ],
            [
              1567,
              1943
            ],
            [
              1567,
              1847
            ]
          ]
        ]
      },
      "properties": {
        "name": "company",
        "classification": {
          "name": "company",
          "colorRGB": -65536
        }
      }
    },
    {
      "type": "Feature",
      "geometry": {
        "type": "Polygon",
        "coordinates": [
          [
            [
              1949,
              2863
            ],
            [
              1986,
              2863
            ],
            [
              1986,
              3147
            ],
            [
              1949,
              3147
            ],
            [
              1949,
              2863
            ]
          ]
        ]
      },
      "properties": {
        "name": "date",
        "classification": {
          "name": "date",
          "colorRGB": -16711936
        }
      }
    },
    {
      "type": "Feature",
      "geometry": {
        "type": "Polygon",
        "coordinates": [
          [
            [
              1949,
              2652
            ],
            [
              1990,
              2652
            ],
            [
              1990,
              3147
            ],
            [
              1949,
              3147
            ],
            [
              1949,
              2652
            ]
          ]
        ]
      },
      "properties": {
        "name": "address",
        "classification": {
          "name": "address",
          "colorRGB": -16776961
        }
      }
    },
    {
      "type": "Feature",
      "geometry": {
        "type": "Polygon",
        "coordinates": [
          [
            [
              2444,
              3483
            ],
            [
              2935,
              3483
            ],
            [
              2935,
              3757
            ],
            [
              2444,
              3757
            ],
            [
              2444,
              3483
            ]
          ]
        ]
      },
      "properties": {
        "name": "total",
        "classification": {
          "name": "total",
          "colorRGB": -256
        }
      }
    }
  ]
}