{
  "type": "FeatureCollection",
  "features": [
    {
      "type": "Feature",
      "geometry": {
        "type": "Polygon",
        "coordinates": [
          [
            [
              499,
              514
            ],
            [
              530,
              514
            ],
            [
              530,
              654
            ],
            [
              499,
              654
            ],
            [
              499,
              514
            ]
          ]
        ]
      },
      "properties": {
        "name": "company",
        "classification": {
          "name": "company",
          "colorRGB": -65536
        }
      }
    },
    {
      "type": "Feature",
      "geometry": {
        "type": "Polygon",
        "coordinates": [
          [
            [
              136,
              517
            ],
            [
              164,
              517
            ],
            [
              164,
              654
            ],
            [
              136,
              654
            ],
            [
              136,
              517
            ]
          ]
        ]
      },
      "properties": {
        "name": "date",
        "classification": {
          "name": "date",
          "colorRGB": -16711936
        }
      }
    },
    {
      "type": "Feature",
      "geometry": {
        "type": "Polygon",
        "coordinates": [
          [
            [
              28,
              183
            ],
            [
              542,
              183
            ],
            [
              542,
              295
            ],
            [
              28,
              295
            ],
            [
              28,
              183
            ]
          ]
        ]
      },
      "properties": {
        "name": "address",
        "classification": {
          "name": "address",
          "colorRGB": -16776961
        }
      }
    },
    {
      "type": "Feature",
      "geometry": {
        "type": "Polygon",
        "coordinates": [
          [
            [
              484,
              690
            ],
            [
              530,
              690
            ],
            [
              530,
              743
            ],
            [
              484,
              743
            ],
            [
              484,
              690
            ]
          ]
        ]
      },
      "properties": {
        "name": "total",
        "classification": {
          "name": "total",
          "colorRGB": -256
        }
      }
    }
  ]
}