{
  "type": "FeatureCollection",
  "features": [
    {
      "type": "Feature",
      "geometry": {
        "type": "Polygon",
        "coordinates": [
          [
            [
              134,
              178
            ],
            [
              769,
              178
            ],
            [
              769,
              215
            ],
            [
              134,
              215
            ],
            [
              134,
              178
            ]
          ]
        ]
      },
      "properties": {
        "name": "company",
        "classification": {
          "name": "company",
          "colorRGB": -65536
        }
      }
    },
    {
      "type": "Feature",
      "geometry": {
        "type": "Polygon",
        "coordinates": [
          [
            [
              103,
              512
            ],
            [
              273,
              512
            ],
            [
              273,
              543
            ],
            [
              103,
              543
            ],
            [
              103,
              512
            ]
          ]
        ]
      },
      "properties": {
        "name": "date",
        "classification": {
          "name": "date",
          "colorRGB": -16711936
        }
      }
    },
    {
      "type": "Feature",
      "geometry": {
        "type": "Polygon",
        "coordinates": [
          [
            [
              174,
              343
            ],
            [
              724,
              343
            ],
            [
              724,
              422
            ],
            [
              174,
              422
            ],
            [
              174,
              343
            ]
          ]
        ]
      },
      "properties": {
        "name": "address",
        "classification": {
          "name": "address",
          "colorRGB": -16776961
        }
      }
    },
    {
      "type": "Feature",
      "geometry": {
        "type": "Polygon",
        "coordinates": [
          [
            [
              719,
              1176
            ],
            [
              807,
              1176
            ],
            [
              807,
              1348
            ],
            [
              719,
              1348
            ],
            [
              719,
              1176
            ]
          ]
        ]
      },
      "properties": {
        "name": "total",
        "classification": {
          "name": "total",
          "colorRGB": -256
        }
      }
    }
  ]
}