{
  "type": "FeatureCollection",
  "features": [
    {
      "type": "Feature",
      "geometry": {
        "type": "Polygon",
        "coordinates": [
          [
            [
              59,
              219
            ],
            [
              478,
              219
            ],
            [
              478,
              253
            ],
            [
              59,
              253
            ],
            [
              59,
              219
            ]
          ]
        ]
      },
      "properties": {
        "name": "company",
        "classification": {
          "name": "company",
          "colorRGB": -65536
        }
      }
    },
    {
      "type": "Feature",
      "geometry": {
        "type": "Polygon",
        "coordinates": [
          [
            [
              301,
              1546
            ],
            [
              376,
              1546
            ],
            [
              376,
              1571
            ],
            [
              301,
              1571
            ],
            [
              301,
              1546
            ]
          ]
        ]
      },
      "properties": {
        "name": "date",
        "classification": {
          "name": "date",
          "colorRGB": -16711936
        }
      }
    },
    {
      "type": "Feature",
      "geometry": {
        "type": "Polygon",
        "coordinates": [
          [
            [
              57,
              257
            ],
            [
              643,
              257
            ],
            [
              643,
              328
            ],
            [
              57,
              328
            ],
            [
              57,
              257
            ]
          ]
        ]
      },
      "properties": {
        "name": "address",
        "classification": {
          "name": "address",
          "colorRGB": -16776961
        }
      }
    },
    {
      "type": "Feature",
      "geometry": {
        "type": "Polygon",
        "coordinates": [
          [
            [
              571,
              1787
            ],
            [
              662,
              1787
            ],
            [
              662,
              1895
            ],
            [
              571,
              1895
            ],
            [
              571,
              1787
            ]
          ]
        ]
      },
      "properties": {
        "name": "total",
        "classification": {
          "name": "total",
          "colorRGB": -256
        }
      }
    }
  ]
}