{
  "type": "FeatureCollection",
  "features": [
    {
      "type": "Feature",
      "geometry": {
        "type": "Polygon",
        "coordinates": [
          [
            [
              196,
              164
            ],
            [
              654,
              164
            ],
            [
              654,
              210
            ],
            [
              196,
              210
            ],
            [
              196,
              164
            ]
          ]
        ]
      },
      "properties": {
        "name": "company",
        "classification": {
          "name": "company",
          "colorRGB": -65536
        }
      }
    },
    {
      "type": "Feature",
      "geometry": {
        "type": "Polygon",
        "coordinates": [
          [
            [
              43,
              616
            ],
            [
              627,
              616
            ],
            [
              627,
              874
            ],
            [
              43,
              874
            ],
            [
              43,
              616
            ]
          ]
        ]
      },
      "properties": {
        "name": "date",
        "classification": {
          "name": "date",
          "colorRGB": -16711936
        }
      }
    },
    {
      "type": "Feature",
      "geometry": {
        "type": "Polygon",
        "coordinates": [
          [
            [
              602,
              705
            ],
            [
              627,
              705
            ],
            [
              627,
              874
            ],
            [
              602,
              874
            ],
            [
              602,
              705
            ]
          ]
        ]
      },
      "properties": {
        "name": "address",
        "classification": {
          "name": "address",
          "colorRGB": -16776961
        }
      }
    },
    {
      "type": "Feature",
      "geometry": {
        "type": "Polygon",
        "coordinates": [
          [
            [
              346,
              705
            ],
            [
              812,
              705
            ],
            [
              812,
              995
            ],
            [
              346,
              995
            ],
            [
              346,
              705
            ]
          ]
        ]
      },
      "properties": {
        "name": "total",
        "classification": {
          "name": "total",
          "colorRGB": -256
        }
      }
    }
  ]
}