{
  "type": "FeatureCollection",
  "features": [
    {
      "type": "Feature",
      "geometry": {
        "type": "Polygon",
        "coordinates": [
          [
            [
              35,
              74
            ],
            [
              591,
              74
            ],
            [
              591,
              97
            ],
            [
              35,
              97
            ],
            [
              35,
              74
            ]
          ]
        ]
      },
      "properties": {
        "name": "company",
        "classification": {
          "name": "company",
          "colorRGB": -65536
        }
      }
    },
    {
      "type": "Feature",
      "geometry": {
        "type": "Polygon",
        "coordinates": [
          [
            [
              255,
              468
            ],
            [
              416,
              468
            ],
            [
              416,
              599
            ],
            [
              255,
              599
            ],
            [
              255,
              468
            ]
          ]
        ]
      },
      "properties": {
        "name": "date",
        "classification": {
          "name": "date",
          "colorRGB": -16711936
        }
      }
    },
    {
      "type": "Feature",
      "geometry": {
        "type": "Polygon",
        "coordinates": [
          [
            [
              294,
              535
            ],
            [
              402,
              535
            ],
            [
              402,
              599
            ],
            [
              294,
              599
            ],
            [
              294,
              535
            ]
          ]
        ]
      },
      "properties": {
        "name": "address",
        "classification": {
          "name": "address",
          "colorRGB": -16776961
        }
      }
    },
    {
      "type": "Feature",
      "geometry": {
        "type": "Polygon",
        "coordinates": [
          [
            [
              294,
              535
            ],
            [
              402,
              535
            ],
            [
              402,
              599
            ],
            [
              294,
              599
            ],
            [
              294,
              535
            ]
          ]
        ]
      },
      "properties": {
        "name": "total",
        "classification": {
          "name": "total",
          "colorRGB": -256
        }
      }
    }
  ]
}