{
  "type": "FeatureCollection",
  "features": [
    {
      "type": "Feature",
      "geometry": {
        "type": "Polygon",
        "coordinates": [
          [
            [
              365,
              356
            ],
            [
              657,
              356
            ],
            [
              657,
              372
            ],
            [
              365,
              372
            ],
            [
              365,
              356
            ]
          ]
        ]
      },
      "properties": {
        "name": "company",
        "classification": {
          "name": "company",
          "colorRGB": -65536
        }
      }
    },
    {
      "type": "Feature",
      "geometry": {
        "type": "Polygon",
        "coordinates": [
          [
            [
              454,
              373
            ],
            [
              566,
              373
            ],
            [
              566,
              386
            ],
            [
              454,
              386
            ],
            [
              454,
              373
            ]
          ]
        ]
      },
      "properties": {
        "name": "date",
        "classification": {
          "name": "date",
          "colorRGB": -16711936
        }
      }
    },
    {
      "type": "Feature",
      "geometry": {
        "type": "Polygon",
        "coordinates": [
          [
            [
              385,
              408
            ],
            [
              636,
              408
            ],
            [
              636,
              443
            ],
            [
              385,
              443
            ],
            [
              385,
              408
            ]
          ]
        ]
      },
      "properties": {
        "name": "address",
        "classification": {
          "name": "address",
          "colorRGB": -16776961
        }
      }
    },
    {
      "type": "Feature",
      "geometry": {
        "type": "Polygon",
        "coordinates": [
          [
            [
              351,
              527
            ],
            [
              668,
              527
            ],
            [
              668,
              607
            ],
            [
              351,
              607
            ],
            [
              351,
              527
            ]
          ]
        ]
      },
      "properties": {
        "name": "total",
        "classification": {
          "name": "total",
          "colorRGB": -256
        }
      }
    }
  ]
}