{
  "type": "FeatureCollection",
  "features": [
    {
      "type": "Feature",
      "geometry": {
        "type": "Polygon",
        "coordinates": [
          [
            [
              259,
              337
            ],
            [
              632,
              337
            ],
            [
              632,
              374
            ],
            [
              259,
              374
            ],
            [
              259,
              337
            ]
          ]
        ]
      },
      "properties": {
        "name": "company",
        "classification": {
          "name": "company",
          "colorRGB": -65536
        }
      }
    },
    {
      "type": "Feature",
      "geometry": {
        "type": "Polygon",
        "coordinates": [
          [
            [
              32,
              1313
            ],
            [
              526,
              1313
            ],
            [
              526,
              1352
            ],
            [
              32,
              1352
            ],
            [
              32,
              1313
            ]
          ]
        ]
      },
      "properties": {
        "name": "date",
        "classification": {
          "name": "date",
          "colorRGB": -16711936
        }
      }
    },
    {
      "type": "Feature",
      "geometry": {
        "type": "Polygon",
        "coordinates": [
          [
            [
              92,
              419
            ],
            [
              769,
              419
            ],
            [
              769,
              546
            ],
            [
              92,
              546
            ],
            [
              92,
              419
            ]
          ]
        ]
      },
      "properties": {
        "name": "address",
        "classification": {
          "name": "address",
          "colorRGB": -16776961
        }
      }
    },
    {
      "type": "Feature",
      "geometry": {
        "type": "Polygon",
        "coordinates": [
          [
            [
              590,
              807
            ],
            [
              814,
              807
            ],
            [
              814,
              845
            ],
            [
              590,
              845
            ],
            [
              590,
              807
            ]
          ]
        ]
      },
      "properties": {
        "name": "total",
        "classification": {
          "name": "total",
          "colorRGB": -256
        }
      }
    }
  ]
}