{
  "type": "FeatureCollection",
  "features": [
    {
      "type": "Feature",
      "geometry": {
        "type": "Polygon",
        "coordinates": [
          [
            [
              1514,
              1347
            ],
            [
              2852,
              1347
            ],
            [
              2852,
              1425
            ],
            [
              1514,
              1425
            ],
            [
              1514,
              1347
            ]
          ]
        ]
      },
      "properties": {
        "name": "company",
        "classification": {
          "name": "company",
          "colorRGB": -65536
        }
      }
    },
    {
      "type": "Feature",
      "geometry": {
        "type": "Polygon",
        "coordinates": [
          [
            [
              1920,
              2142
            ],
            [
              1951,
              2142
            ],
            [
              1951,
              2422
            ],
            [
              1920,
              2422
            ],
            [
              1920,
              2142
            ]
          ]
        ]
      },
      "properties": {
        "name": "date",
        "classification": {
          "name": "date",
          "colorRGB": -16711936
        }
      }
    },
    {
      "type": "Feature",
      "geometry": {
        "type": "Polygon",
        "coordinates": [
          [
            [
              1605,
              1588
            ],
            [
              2757,
              1588
            ],
            [
              2757,
              1752
            ],
            [
              1605,
              1752
            ],
            [
              1605,
              1588
            ]
          ]
        ]
      },
      "properties": {
        "name": "address",
        "classification": {
          "name": "address",
          "colorRGB": -16776961
        }
      }
    },
    {
      "type": "Feature",
      "geometry": {
        "type": "Polygon",
        "coordinates": [
          [
            [
              2373,
              2498
            ],
            [
              2917,
              2498
            ],
            [
              2917,
              2935
            ],
            [
              2373,
              2935
            ],
            [
              2373,
              2498
            ]
          ]
        ]
      },
      "properties": {
        "name": "total",
        "classification": {
          "name": "total",
          "colorRGB": -256
        }
      }
    }
  ]
}