{
  "type": "FeatureCollection",
  "features": [
    {
      "type": "Feature",
      "geometry": {
        "type": "Polygon",
        "coordinates": [
          [
            [
              145,
              195
            ],
            [
              568,
              195
            ],
            [
              568,
              224
            ],
            [
              145,
              224
            ],
            [
              145,
              195
            ]
          ]
        ]
      },
      "properties": {
        "name": "company",
        "classification": {
          "name": "company",
          "colorRGB": -65536
        }
      }
    },
    {
      "type": "Feature",
      "geometry": {
        "type": "Polygon",
        "coordinates": [
          [
            [
              66,
              632
            ],
            [
              417,
              632
            ],
            [
              417,
              655
            ],
            [
              66,
              655
            ],
            [
              66,
              632
            ]
          ]
        ]
      },
      "properties": {
        "name": "date",
        "classification": {
          "name": "date",
          "colorRGB": -16711936
        }
      }
    },
    {
      "type": "Feature",
      "geometry": {
        "type": "Polygon",
        "coordinates": [
          [
            [
              108,
              235
            ],
            [
              602,
              235
            ],
            [
              602,
              305
            ],
            [
              108,
              305
            ],
            [
              108,
              235
            ]
          ]
        ]
      },
      "properties": {
        "name": "address",
        "classification": {
          "name": "address",
          "colorRGB": -16776961
        }
      }
    },
    {
      "type": "Feature",
      "geometry": {
        "type": "Polygon",
        "coordinates": [
          [
            [
              66,
              628
            ],
            [
              664,
              628
            ],
            [
              664,
              655
            ],
            [
              66,
              655
            ],
            [
              66,
              628
            ]
          ]
        ]
      },
      "properties": {
        "name": "total",
        "classification": {
          "name": "total",
          "colorRGB": -256
        }
      }
    }
  ]
}