{
  "type": "FeatureCollection",
  "features": [
    {
      "type": "Feature",
      "geometry": {
        "type": "Polygon",
        "coordinates": [
          [
            [
              254,
              100
            ],
            [
              721,
              100
            ],
            [
              721,
              144
            ],
            [
              254,
              144
            ],
            [
              254,
              100
            ]
          ]
        ]
      },
      "properties": {
        "name": "company",
        "classification": {
          "name": "company",
          "colorRGB": -65536
        }
      }
    },
    {
      "type": "Feature",
      "geometry": {
        "type": "Polygon",
        "coordinates": [
          [
            [
              292,
              501
            ],
            [
              686,
              501
            ],
            [
              686,
              537
            ],
            [
              292,
              537
            ],
            [
              292,
              501
            ]
          ]
        ]
      },
      "properties": {
        "name": "date",
        "classification": {
          "name": "date",
          "colorRGB": -16711936
        }
      }
    },
    {
      "type": "Feature",
      "geometry": {
        "type": "Polygon",
        "coordinates": [
          [
            [
              268,
              191
            ],
            [
              707,
              191
            ],
            [
              707,
              342
            ],
            [
              268,
              342
            ],
            [
              268,
              191
            ]
          ]
        ]
      },
      "properties": {
        "name": "address",
        "classification": {
          "name": "address",
          "colorRGB": -16776961
        }
      }
    },
    {
      "type": "Feature",
      "geometry": {
        "type": "Polygon",
        "coordinates": [
          [
            [
              793,
              1042
            ],
            [
              879,
              1042
            ],
            [
              879,
              1143
            ],
            [
              793,
              1143
            ],
            [
              793,
              1042
            ]
          ]
        ]
      },
      "properties": {
        "name": "total",
        "classification": {
          "name": "total",
          "colorRGB": -256
        }
      }
    }
  ]
}