{
  "type": "FeatureCollection",
  "features": [
    {
      "type": "Feature",
      "geometry": {
        "type": "Polygon",
        "coordinates": [
          [
            [
              360,
              320
            ],
            [
              649,
              320
            ],
            [
              649,
              335
            ],
            [
              360,
              335
            ],
            [
              360,
              320
            ]
          ]
        ]
      },
      "properties": {
        "name": "company",
        "classification": {
          "name": "company",
          "colorRGB": -65536
        }
      }
    },
    {
      "type": "Feature",
      "geometry": {
        "type": "Polygon",
        "coordinates": [
          [
            [
              450,
              337
            ],
            [
              558,
              337
            ],
            [
              558,
              352
            ],
            [
              450,
              352
            ],
            [
              450,
              337
            ]
          ]
        ]
      },
      "properties": {
        "name": "date",
        "classification": {
          "name": "date",
          "colorRGB": -16711936
        }
      }
    },
    {
      "type": "Feature",
      "geometry": {
        "type": "Polygon",
        "coordinates": [
          [
            [
              381,
              372
            ],
            [
              629,
              372
            ],
            [
              629,
              389
            ],
            [
              381,
              389
            ],
            [
              381,
              372
            ]
          ]
        ]
      },
      "properties": {
        "name": "address",
        "classification": {
          "name": "address",
          "colorRGB": -16776961
        }
      }
    },
    {
      "type": "Feature",
      "geometry": {
        "type": "Polygon",
        "coordinates": [
          [
            [
              548,
              572
            ],
            [
              661,
              572
            ],
            [
              661,
              666
            ],
            [
              548,
              666
            ],
            [
              548,
              572
            ]
          ]
        ]
      },
      "properties": {
        "name": "total",
        "classification": {
          "name": "total",
          "colorRGB": -256
        }
      }
    }
  ]
}