{
  "type": "FeatureCollection",
  "features": [
    {
      "type": "Feature",
      "geometry": {
        "type": "Polygon",
        "coordinates": [
          [
            [
              663,
              598
            ],
            [
              697,
              598
            ],
            [
              697,
              830
            ],
            [
              663,
              830
            ],
            [
              663,
              598
            ]
          ]
        ]
      },
      "properties": {
        "name": "company",
        "classification": {
          "name": "company",
          "colorRGB": -65536
        }
      }
    },
    {
      "type": "Feature",
      "geometry": {
        "type": "Polygon",
        "coordinates": [
          [
            [
              399,
              667
            ],
            [
              412,
              667
            ],
            [
              412,
              694
            ],
            [
              399,
              694
            ],
            [
              399,
              667
            ]
          ]
        ]
      },
      "properties": {
        "name": "date",
        "classification": {
          "name": "date",
          "colorRGB": -16711936
        }
      }
    },
    {
      "type": "Feature",
      "geometry": {
        "type": "Polygon",
        "coordinates": [
          [
            [
              398,
              598
            ],
            [
              697,
              598
            ],
            [
              697,
              861
            ],
            [
              398,
              861
            ],
            [
              398,
              598
            ]
          ]
        ]
      },
      "properties": {
        "name": "address",
        "classification": {
          "name": "address",
          "colorRGB": -16776961
        }
      }
    },
    {
      "type": "Feature",
      "geometry": {
        "type": "Polygon",
        "coordinates": [
          [
            [
              399,
              767
            ],
            [
              414,
              767
            ],
            [
              414,
              795
            ],
            [
              399,
              795
            ],
            [
              399,
              767
            ]
          ]
        ]
      },
      "properties": {
        "name": "total",
        "classification": {
          "name": "total",
          "colorRGB": -256
        }
      }
    }
  ]
}