{
  "type": "FeatureCollection",
  "features": [
    {
      "type": "Feature",
      "geometry": {
        "type": "Polygon",
        "coordinates": [
          [
            [
              34,
              128
            ],
            [
              591,
              128
            ],
            [
              591,
              153
            ],
            [
              34,
              153
            ],
            [
              34,
              128
            ]
          ]
        ]
      },
      "properties": {
        "name": "company",
        "classification": {
          "name": "company",
          "colorRGB": -65536
        }
      }
    },
    {
      "type": "Feature",
      "geometry": {
        "type": "Polygon",
        "coordinates": [
          [
            [
              249,
              591
            ],
            [
              349,
              591
            ],
            [
              349,
              657
            ],
            [
              249,
              657
            ],
            [
              249,
              591
            ]
          ]
        ]
      },
      "properties": {
        "name": "date",
        "classification": {
          "name": "date",
          "colorRGB": -16711936
        }
      }
    },
    {
      "type": "Feature",
      "geometry": {
        "type": "Polygon",
        "coordinates": [
          [
            [
              251,
              591
            ],
            [
              405,
              591
            ],
            [
              405,
              658
            ],
            [
              251,
              658
            ],
            [
              251,
              591
            ]
          ]
        ]
      },
      "properties": {
        "name": "address",
        "classification": {
          "name": "address",
          "colorRGB": -16776961
        }
      }
    },
    {
      "type": "Feature",
      "geometry": {
        "type": "Polygon",
        "coordinates": [
          [
            [
              251,
              591
            ],
            [
              405,
              591
            ],
            [
              405,
              658
            ],
            [
              251,
              658
            ],
            [
              251,
              591
            ]
          ]
        ]
      },
      "properties": {
        "name": "total",
        "classification": {
          "name": "total",
          "colorRGB": -256
        }
      }
    }
  ]
}