{
  "type": "FeatureCollection",
  "features": [
    {
      "type": "Feature",
      "geometry": {
        "type": "Polygon",
        "coordinates": [
          [
            [
              481,
              828
            ],
            [
              504,
              828
            ],
            [
              504,
              1164
            ],
            [
              481,
              1164
            ],
            [
              481,
              828
            ]
          ]
        ]
      },
      "properties": {
        "name": "company",
        "classification": {
          "name": "company",
          "colorRGB": -65536
        }
      }
    },
    {
      "type": "Feature",
      "geometry": {
        "type": "Polygon",
        "coordinates": [
          [
            [
              139,
              830
            ],
            [
              156,
              830
            ],
            [
              156,
              1163
            ],
            [
              139,
              1163
            ],
            [
              139,
              830
            ]
          ]
        ]
      },
      "properties": {
        "name": "date",
        "classification": {
          "name": "date",
          "colorRGB": -16711936
        }
      }
    },
    {
      "type": "Feature",
      "geometry": {
        "type": "Polygon",
        "coordinates": [
          [
            [
              139,
              828
            ],
            [
              504,
              828
            ],
            [
              504,
              1164
            ],
            [
              139,
              1164
            ],
            [
              139,
              828
            ]
          ]
        ]
      },
      "properties": {
        "name": "address",
        "classification": {
          "name": "address",
          "colorRGB": -16776961
        }
      }
    },
    {
      "type": "Feature",
      "geometry": {
        "type": "Polygon",
        "coordinates": [
          [
            [
              540,
              1243
            ],
            [
              700,
              1243
            ],
            [
              700,
              1351
            ],
            [
              540,
              1351
            ],
            [
              540,
              1243
            ]
          ]
        ]
      },
      "properties": {
        "name": "total",
        "classification": {
          "name": "total",
          "colorRGB": -256
        }
      }
    }
  ]
}