{
  "type": "FeatureCollection",
  "features": [
    {
      "type": "Feature",
      "geometry": {
        "type": "Polygon",
        "coordinates": [
          [
            [
              241,
              37
            ],
            [
              619,
              37
            ],
            [
              619,
              71
            ],
            [
              241,
              71
            ],
            [
              241,
              37
            ]
          ]
        ]
      },
      "properties": {
        "name": "company",
        "classification": {
          "name": "company",
          "colorRGB": -65536
        }
      }
    },
    {
      "type": "Feature",
      "geometry": {
        "type": "Polygon",
        "coordinates": [
          [
            [
              421,
              688
            ],
            [
              438,
              688
            ],
            [
              438,
              818
            ],
            [
              421,
              818
            ],
            [
              421,
              688
            ]
          ]
        ]
      },
      "properties": {
        "name": "date",
        "classification": {
          "name": "date",
          "colorRGB": -16711936
        }
      }
    },
    {
      "type": "Feature",
      "geometry": {
        "type": "Polygon",
        "coordinates": [
          [
            [
              52,
              87
            ],
            [
              787,
              87
            ],
            [
              787,
              222
            ],
            [
              52,
              222
            ],
            [
              52,
              87
            ]
          ]
        ]
      },
      "properties": {
        "name": "address",
        "classification": {
          "name": "address",
          "colorRGB": -16776961
        }
      }
    },
    {
      "type": "Feature",
      "geometry": {
        "type": "Polygon",
        "coordinates": [
          [
            [
              740,
              1032
            ],
            [
              816,
              1032
            ],
            [
              816,
              1065
            ],
            [
              740,
              1065
            ],
            [
              740,
              1032
            ]
          ]
        ]
      },
      "properties": {
        "name": "total",
        "classification": {
          "name": "total",
          "colorRGB": -256
        }
      }
    }
  ]
}