{
  "type": "FeatureCollection",
  "features": [
    {
      "type": "Feature",
      "geometry": {
        "type": "Polygon",
        "coordinates": [
          [
            [
              437,
              386
            ],
            [
              652,
              386
            ],
            [
              652,
              405
            ],
            [
              437,
              405
            ],
            [
              437,
              386
            ]
          ]
        ]
      },
      "properties": {
        "name": "company",
        "classification": {
          "name": "company",
          "colorRGB": -65536
        }
      }
    },
    {
      "type": "Feature",
      "geometry": {
        "type": "Polygon",
        "coordinates": [
          [
            [
              363,
              663
            ],
            [
              374,
              663
            ],
            [
              374,
              829
            ],
            [
              363,
              829
            ],
            [
              363,
              663
            ]
          ]
        ]
      },
      "properties": {
        "name": "date",
        "classification": {
          "name": "date",
          "colorRGB": -16711936
        }
      }
    },
    {
      "type": "Feature",
      "geometry": {
        "type": "Polygon",
        "coordinates": [
          [
            [
              436,
              1016
            ],
            [
              734,
              1016
            ],
            [
              734,
              1050
            ],
            [
              436,
              1050
            ],
            [
              436,
              1016
            ]
          ]
        ]
      },
      "properties": {
        "name": "address",
        "classification": {
          "name": "address",
          "colorRGB": -16776961
        }
      }
    },
    {
      "type": "Feature",
      "geometry": {
        "type": "Polygon",
        "coordinates": [
          [
            [
              364,
              663
            ],
            [
              733,
              663
            ],
            [
              733,
              861
            ],
            [
              364,
              861
            ],
            [
              364,
              663
            ]
          ]
        ]
      },
      "properties": {
        "name": "total",
        "classification": {
          "name": "total",
          "colorRGB": -256
        }
      }
    }
  ]
}