{
  "type": "FeatureCollection",
  "features": [
    {
      "type": "Feature",
      "geometry": {
        "type": "Polygon",
        "coordinates": [
          [
            [
              210,
              134
            ],
            [
              594,
              134
            ],
            [
              594,
              164
            ],
            [
              210,
              164
            ],
            [
              210,
              134
            ]
          ]
        ]
      },
      "properties": {
        "name": "company",
        "classification": {
          "name": "company",
          "colorRGB": -65536
        }
      }
    },
    {
      "type": "Feature",
      "geometry": {
        "type": "Polygon",
        "coordinates": [
          [
            [
              78,
              907
            ],
            [
              226,
              907
            ],
            [
              226,
              943
            ],
            [
              78,
              943
            ],
            [
              78,
              907
            ]
          ]
        ]
      },
      "properties": {
        "name": "date",
        "classification": {
          "name": "date",
          "colorRGB": -16711936
        }
      }
    },
    {
      "type": "Feature",
      "geometry": {
        "type": "Polygon",
        "coordinates": [
          [
            [
              195,
              171
            ],
            [
              605,
              171
            ],
            [
              605,
              278
            ],
            [
              195,
              278
            ],
            [
              195,
              171
            ]
          ]
        ]
      },
      "properties": {
        "name": "address",
        "classification": {
          "name": "address",
          "colorRGB": -16776961
        }
      }
    },
    {
      "type": "Feature",
      "geometry": {
        "type": "Polygon",
        "coordinates": [
          [
            [
              559,
              442
            ],
            [
              656,
              442
            ],
            [
              656,
              670
            ],
            [
              559,
              670
            ],
            [
              559,
              442
            ]
          ]
        ]
      },
      "properties": {
        "name": "total",
        "classification": {
          "name": "total",
          "colorRGB": -256
        }
      }
    }
  ]
}