{
  "type": "FeatureCollection",
  "features": [
    {
      "type": "Feature",
      "geometry": {
        "type": "Polygon",
        "coordinates": [
          [
            [
              112,
              240
            ],
            [
              365,
              240
            ],
            [
              365,
              278
            ],
            [
              112,
              278
            ],
            [
              112,
              240
            ]
          ]
        ]
      },
      "properties": {
        "name": "company",
        "classification": {
          "name": "company",
          "colorRGB": -65536
        }
      }
    },
    {
      "type": "Feature",
      "geometry": {
        "type": "Polygon",
        "coordinates": [
          [
            [
              114,
              1461
            ],
            [
              657,
              1461
            ],
            [
              657,
              1499
            ],
            [
              114,
              1499
            ],
            [
              114,
              1461
            ]
          ]
        ]
      },
      "properties": {
        "name": "date",
        "classification": {
          "name": "date",
          "colorRGB": -16711936
        }
      }
    },
    {
      "type": "Feature",
      "geometry": {
        "type": "Polygon",
        "coordinates": [
          [
            [
              321,
              853
            ],
            [
              637,
              853
            ],
            [
              637,
              1155
            ],
            [
              321,
              1155
            ],
            [
              321,
              853
            ]
          ]
        ]
      },
      "properties": {
        "name": "address",
        "classification": {
          "name": "address",
          "colorRGB": -16776961
        }
      }
    },
    {
      "type": "Feature",
      "geometry": {
        "type": "Polygon",
        "coordinates": [
          [
            [
              727,
              853
            ],
            [
              883,
              853
            ],
            [
              883,
              1158
            ],
            [
              727,
              1158
            ],
            [
              727,
              853
            ]
          ]
        ]
      },
      "properties": {
        "name": "total",
        "classification": {
          "name": "total",
          "colorRGB": -256
        }
      }
    }
  ]
}