{
  "type": "FeatureCollection",
  "features": [
    {
      "type": "Feature",
      "geometry": {
        "type": "Polygon",
        "coordinates": [
          [
            [
              188,
              113
            ],
            [
              572,
              113
            ],
            [
              572,
              150
            ],
            [
              188,
              150
            ],
            [
              188,
              113
            ]
          ]
        ]
      },
      "properties": {
        "name": "company",
        "classification": {
          "name": "company",
          "colorRGB": -65536
        }
      }
    },
    {
      "type": "Feature",
      "geometry": {
        "type": "Polygon",
        "coordinates": [
          [
            [
              61,
              2027
            ],
            [
              287,
              2027
            ],
            [
              287,
              2063
            ],
            [
              61,
              2063
            ],
            [
              61,
              2027
            ]
          ]
        ]
      },
      "properties": {
        "name": "date",
        "classification": {
          "name": "date",
          "colorRGB": -16711936
        }
      }
    },
    {
      "type": "Feature",
      "geometry": {
        "type": "Polygon",
        "coordinates": [
          [
            [
              175,
              154
            ],
            [
              589,
              154
            ],
            [
              589,
              270
            ],
            [
              175,
              270
            ],
            [
              175,
              154
            ]
          ]
        ]
      },
      "properties": {
        "name": "address",
        "classification": {
          "name": "address",
          "colorRGB": -16776961
        }
      }
    },
    {
      "type": "Feature",
      "geometry": {
        "type": "Polygon",
        "coordinates": [
          [
            [
              559,
              1754
            ],
            [
              633,
              1754
            ],
            [
              633,
              1787
            ],
            [
              559,
              1787
            ],
            [
              559,
              1754
            ]
          ]
        ]
      },
      "properties": {
        "name": "total",
        "classification": {
          "name": "total",
          "colorRGB": -256
        }
      }
    }
  ]
}