{
  "type": "FeatureCollection",
  "features": [
    {
      "type": "Feature",
      "geometry": {
        "type": "Polygon",
        "coordinates": [
          [
            [
              258,
              118
            ],
            [
              570,
              118
            ],
            [
              570,
              160
            ],
            [
              258,
              160
            ],
            [
              258,
              118
            ]
          ]
        ]
      },
      "properties": {
        "name": "company",
        "classification": {
          "name": "company",
          "colorRGB": -65536
        }
      }
    },
    {
      "type": "Feature",
      "geometry": {
        "type": "Polygon",
        "coordinates": [
          [
            [
              45,
              675
            ],
            [
              379,
              675
            ],
            [
              379,
              706
            ],
            [
              45,
              706
            ],
            [
              45,
              675
            ]
          ]
        ]
      },
      "properties": {
        "name": "date",
        "classification": {
          "name": "date",
          "colorRGB": -16711936
        }
      }
    },
    {
      "type": "Feature",
      "geometry": {
        "type": "Polygon",
        "coordinates": [
          [
            [
              175,
              156
            ],
            [
              661,
              156
            ],
            [
              661,
              288
            ],
            [
              175,
              288
            ],
            [
              175,
              156
            ]
          ]
        ]
      },
      "properties": {
        "name": "address",
        "classification": {
          "name": "address",
          "colorRGB": -16776961
        }
      }
    },
    {
      "type": "Feature",
      "geometry": {
        "type": "Polygon",
        "coordinates": [
          [
            [
              588,
              886
            ],
            [
              740,
              886
            ],
            [
              740,
              923
            ],
            [
              588,
              923
            ],
            [
              588,
              886
            ]
          ]
        ]
      },
      "properties": {
        "name": "total",
        "classification": {
          "name": "total",
          "colorRGB": -256
        }
      }
    }
  ]
}