{
  "type": "FeatureCollection",
  "features": [
    {
      "type": "Feature",
      "geometry": {
        "type": "Polygon",
        "coordinates": [
          [
            [
              37,
              67
            ],
            [
              595,
              67
            ],
            [
              595,
              91
            ],
            [
              37,
              91
            ],
            [
              37,
              67
            ]
          ]
        ]
      },
      "properties": {
        "name": "company",
        "classification": {
          "name": "company",
          "colorRGB": -65536
        }
      }
    },
    {
      "type": "Feature",
      "geometry": {
        "type": "Polygon",
        "coordinates": [
          [
            [
              238,
              658
            ],
            [
              405,
              658
            ],
            [
              405,
              724
            ],
            [
              238,
              724
            ],
            [
              238,
              658
            ]
          ]
        ]
      },
      "properties": {
        "name": "date",
        "classification": {
          "name": "date",
          "colorRGB": -16711936
        }
      }
    },
    {
      "type": "Feature",
      "geometry": {
        "type": "Polygon",
        "coordinates": [
          [
            [
              247,
              530
            ],
            [
              405,
              530
            ],
            [
              405,
              595
            ],
            [
              247,
              595
            ],
            [
              247,
              530
            ]
          ]
        ]
      },
      "properties": {
        "name": "address",
        "classification": {
          "name": "address",
          "colorRGB": -16776961
        }
      }
    },
    {
      "type": "Feature",
      "geometry": {
        "type": "Polygon",
        "coordinates": [
          [
            [
              247,
              577
            ],
            [
              311,
              577
            ],
            [
              311,
              594
            ],
            [
              247,
              594
            ],
            [
              247,
              577
            ]
          ]
        ]
      },
      "properties": {
        "name": "total",
        "classification": {
          "name": "total",
          "colorRGB": -256
        }
      }
    }
  ]
}