{
  "type": "FeatureCollection",
  "features": [
    {
      "type": "Feature",
      "geometry": {
        "type": "Polygon",
        "coordinates": [
          [
            [
              105,
              268
            ],
            [
              648,
              268
            ],
            [
              648,
              303
            ],
            [
              105,
              303
            ],
            [
              105,
              268
            ]
          ]
        ]
      },
      "properties": {
        "name": "company",
        "classification": {
          "name": "company",
          "colorRGB": -65536
        }
      }
    },
    {
      "type": "Feature",
      "geometry": {
        "type": "Polygon",
        "coordinates": [
          [
            [
              19,
              587
            ],
            [
              709,
              587
            ],
            [
              709,
              893
            ],
            [
              19,
              893
            ],
            [
              19,
              587
            ]
          ]
        ]
      },
      "properties": {
        "name": "date",
        "classification": {
          "name": "date",
          "colorRGB": -16711936
        }
      }
    },
    {
      "type": "Feature",
      "geometry": {
        "type": "Polygon",
        "coordinates": [
          [
            [
              132,
              377
            ],
            [
              595,
              377
            ],
            [
              595,
              442
            ],
            [
              132,
              442
            ],
            [
              132,
              377
            ]
          ]
        ]
      },
      "properties": {
        "name": "address",
        "classification": {
          "name": "address",
          "colorRGB": -16776961
        }
      }
    },
    {
      "type": "Feature",
      "geometry": {
        "type": "Polygon",
        "coordinates": [
          [
            [
              639,
              941
            ],
            [
              712,
              941
            ],
            [
              712,
              1024
            ],
            [
              639,
              1024
            ],
            [
              639,
              941
            ]
          ]
        ]
      },
      "properties": {
        "name": "total",
        "classification": {
          "name": "total",
          "colorRGB": -256
        }
      }
    }
  ]
}