{
  "type": "FeatureCollection",
  "features": [
    {
      "type": "Feature",
      "geometry": {
        "type": "Polygon",
        "coordinates": [
          [
            [
              76,
              133
            ],
            [
              814,
              133
            ],
            [
              814,
              170
            ],
            [
              76,
              170
            ],
            [
              76,
              133
            ]
          ]
        ]
      },
      "properties": {
        "name": "company",
        "classification": {
          "name": "company",
          "colorRGB": -65536
        }
      }
    },
    {
      "type": "Feature",
      "geometry": {
        "type": "Polygon",
        "coordinates": [
          [
            [
              493,
              431
            ],
            [
              855,
              431
            ],
            [
              855,
              513
            ],
            [
              493,
              513
            ],
            [
              493,
              431
            ]
          ]
        ]
      },
      "properties": {
        "name": "date",
        "classification": {
          "name": "date",
          "colorRGB": -16711936
        }
      }
    },
    {
      "type": "Feature",
      "geometry": {
        "type": "Polygon",
        "coordinates": [
          [
            [
              204,
              245
            ],
            [
              681,
              245
            ],
            [
              681,
              352
            ],
            [
              204,
              352
            ],
            [
              204,
              245
            ]
          ]
        ]
      },
      "properties": {
        "name": "address",
        "classification": {
          "name": "address",
          "colorRGB": -16776961
        }
      }
    },
    {
      "type": "Feature",
      "geometry": {
        "type": "Polygon",
        "coordinates": [
          [
            [
              783,
              863
            ],
            [
              857,
              863
            ],
            [
              857,
              890
            ],
            [
              783,
              890
            ],
            [
              783,
              863
            ]
          ]
        ]
      },
      "properties": {
        "name": "total",
        "classification": {
          "name": "total",
          "colorRGB": -256
        }
      }
    }
  ]
}