{
  "type": "FeatureCollection",
  "features": [
    {
      "type": "Feature",
      "geometry": {
        "type": "Polygon",
        "coordinates": [
          [
            [
              84,
              90
            ],
            [
              373,
              90
            ],
            [
              373,
              143
            ],
            [
              84,
              143
            ],
            [
              84,
              90
            ]
          ]
        ]
      },
      "properties": {
        "name": "company",
        "classification": {
          "name": "company",
          "colorRGB": -65536
        }
      }
    },
    {
      "type": "Feature",
      "geometry": {
        "type": "Polygon",
        "coordinates": [
          [
            [
              118,
              364
            ],
            [
              273,
              364
            ],
            [
              273,
              394
            ],
            [
              118,
              394
            ],
            [
              118,
              364
            ]
          ]
        ]
      },
      "properties": {
        "name": "date",
        "classification": {
          "name": "date",
          "colorRGB": -16711936
        }
      }
    },
    {
      "type": "Feature",
      "geometry": {
        "type": "Polygon",
        "coordinates": [
          [
            [
              36,
              230
            ],
            [
              406,
              230
            ],
            [
              406,
              283
            ],
            [
              36,
              283
            ],
            [
              36,
              230
            ]
          ]
        ]
      },
      "properties": {
        "name": "address",
        "classification": {
          "name": "address",
          "colorRGB": -16776961
        }
      }
    },
    {
      "type": "Feature",
      "geometry": {
        "type": "Polygon",
        "coordinates": [
          [
            [
              223,
              641
            ],
            [
              414,
              641
            ],
            [
              414,
              693
            ],
            [
              223,
              693
            ],
            [
              223,
              641
            ]
          ]
        ]
      },
      "properties": {
        "name": "total",
        "classification": {
          "name": "total",
          "colorRGB": -256
        }
      }
    }
  ]
}