{
  "type": "FeatureCollection",
  "features": [
    {
      "type": "Feature",
      "geometry": {
        "type": "Polygon",
        "coordinates": [
          [
            [
              224,
              260
            ],
            [
              554,
              260
            ],
            [
              554,
              306
            ],
            [
              224,
              306
            ],
            [
              224,
              260
            ]
          ]
        ]
      },
      "properties": {
        "name": "company",
        "classification": {
          "name": "company",
          "colorRGB": -65536
        }
      }
    },
    {
      "type": "Feature",
      "geometry": {
        "type": "Polygon",
        "coordinates": [
          [
            [
              163,
              697
            ],
            [
              543,
              697
            ],
            [
              543,
              732
            ],
            [
              163,
              732
            ],
            [
              163,
              697
            ]
          ]
        ]
      },
      "properties": {
        "name": "date",
        "classification": {
          "name": "date",
          "colorRGB": -16711936
        }
      }
    },
    {
      "type": "Feature",
      "geometry": {
        "type": "Polygon",
        "coordinates": [
          [
            [
              99,
              347
            ],
            [
              692,
              347
            ],
            [
              692,
              476
            ],
            [
              99,
              476
            ],
            [
              99,
              347
            ]
          ]
        ]
      },
      "properties": {
        "name": "address",
        "classification": {
          "name": "address",
          "colorRGB": -16776961
        }
      }
    },
    {
      "type": "Feature",
      "geometry": {
        "type": "Polygon",
        "coordinates": [
          [
            [
              588,
              1372
            ],
            [
              747,
              1372
            ],
            [
              747,
              1538
            ],
            [
              588,
              1538
            ],
            [
              588,
              1372
            ]
          ]
        ]
      },
      "properties": {
        "name": "total",
        "classification": {
          "name": "total",
          "colorRGB": -256
        }
      }
    }
  ]
}