{
  "type": "FeatureCollection",
  "features": [
    {
      "type": "Feature",
      "geometry": {
        "type": "Polygon",
        "coordinates": [
          [
            [
              222,
              260
            ],
            [
              562,
              260
            ],
            [
              562,
              308
            ],
            [
              222,
              308
            ],
            [
              222,
              260
            ]
          ]
        ]
      },
      "properties": {
        "name": "company",
        "classification": {
          "name": "company",
          "colorRGB": -65536
        }
      }
    },
    {
      "type": "Feature",
      "geometry": {
        "type": "Polygon",
        "coordinates": [
          [
            [
              162,
              694
            ],
            [
              546,
              694
            ],
            [
              546,
              731
            ],
            [
              162,
              731
            ],
            [
              162,
              694
            ]
          ]
        ]
      },
      "properties": {
        "name": "date",
        "classification": {
          "name": "date",
          "colorRGB": -16711936
        }
      }
    },
    {
      "type": "Feature",
      "geometry": {
        "type": "Polygon",
        "coordinates": [
          [
            [
              99,
              348
            ],
            [
              688,
              348
            ],
            [
              688,
              478
            ],
            [
              99,
              478
            ],
            [
              99,
              348
            ]
          ]
        ]
      },
      "properties": {
        "name": "address",
        "classification": {
          "name": "address",
          "colorRGB": -16776961
        }
      }
    },
    {
      "type": "Feature",
      "geometry": {
        "type": "Polygon",
        "coordinates": [
          [
            [
              598,
              1203
            ],
            [
              753,
              1203
            ],
            [
              753,
              1371
            ],
            [
              598,
              1371
            ],
            [
              598,
              1203
            ]
          ]
        ]
      },
      "properties": {
        "name": "total",
        "classification": {
          "name": "total",
          "colorRGB": -256
        }
      }
    }
  ]
}