{
  "type": "FeatureCollection",
  "features": [
    {
      "type": "Feature",
      "geometry": {
        "type": "Polygon",
        "coordinates": [
          [
            [
              505,
              336
            ],
            [
              531,
              336
            ],
            [
              531,
              418
            ],
            [
              505,
              418
            ],
            [
              505,
              336
            ]
          ]
        ]
      },
      "properties": {
        "name": "company",
        "classification": {
          "name": "company",
          "colorRGB": -65536
        }
      }
    },
    {
      "type": "Feature",
      "geometry": {
        "type": "Polygon",
        "coordinates": [
          [
            [
              207,
              1192
            ],
            [
              299,
              1192
            ],
            [
              299,
              1215
            ],
            [
              207,
              1215
            ],
            [
              207,
              1192
            ]
          ]
        ]
      },
      "properties": {
        "name": "date",
        "classification": {
          "name": "date",
          "colorRGB": -16711936
        }
      }
    },
    {
      "type": "Feature",
      "geometry": {
        "type": "Polygon",
        "coordinates": [
          [
            [
              155,
              285
            ],
            [
              531,
              285
            ],
            [
              531,
              418
            ],
            [
              155,
              418
            ],
            [
              155,
              285
            ]
          ]
        ]
      },
      "properties": {
        "name": "address",
        "classification": {
          "name": "address",
          "colorRGB": -16776961
        }
      }
    },
    {
      "type": "Feature",
      "geometry": {
        "type": "Polygon",
        "coordinates": [
          [
            [
              400,
              576
            ],
            [
              495,
              576
            ],
            [
              495,
              604
            ],
            [
              400,
              604
            ],
            [
              400,
              576
            ]
          ]
        ]
      },
      "properties": {
        "name": "total",
        "classification": {
          "name": "total",
          "colorRGB": -256
        }
      }
    }
  ]
}