{
  "type": "FeatureCollection",
  "features": [
    {
      "type": "Feature",
      "geometry": {
        "type": "Polygon",
        "coordinates": [
          [
            [
              2854,
              2110
            ],
            [
              2996,
              2110
            ],
            [
              2996,
              3862
            ],
            [
              2854,
              3862
            ],
            [
              2854,
              2110
            ]
          ]
        ]
      },
      "properties": {
        "name": "company",
        "classification": {
          "name": "company",
          "colorRGB": -65536
        }
      }
    },
    {
      "type": "Feature",
      "geometry": {
        "type": "Polygon",
        "coordinates": [
          [
            [
              2204,
              2197
            ],
            [
              2269,
              2197
            ],
            [
              2269,
              3849
            ],
            [
              2204,
              3849
            ],
            [
              2204,
              2197
            ]
          ]
        ]
      },
      "properties": {
        "name": "date",
        "classification": {
          "name": "date",
          "colorRGB": -16711936
        }
      }
    },
    {
      "type": "Feature",
      "geometry": {
        "type": "Polygon",
        "coordinates": [
          [
            [
              2204,
              2197
            ],
            [
              2530,
              2197
            ],
            [
              2530,
              3849
            ],
            [
              2204,
              3849
            ],
            [
              2204,
              2197
            ]
          ]
        ]
      },
      "properties": {
        "name": "address",
        "classification": {
          "name": "address",
          "colorRGB": -16776961
        }
      }
    },
    {
      "type": "Feature",
      "geometry": {
        "type": "Polygon",
        "coordinates": [
          [
            [
              1936,
              5130
            ],
            [
              2351,
              5130
            ],
            [
              2351,
              5318
            ],
            [
              1936,
              5318
            ],
            [
              1936,
              5130
            ]
          ]
        ]
      },
      "properties": {
        "name": "total",
        "classification": {
          "name": "total",
          "colorRGB": -256
        }
      }
    }
  ]
}