{
  "type": "FeatureCollection",
  "features": [
    {
      "type": "Feature",
      "geometry": {
        "type": "Polygon",
        "coordinates": [
          [
            [
              71,
              200
            ],
            [
              500,
              200
            ],
            [
              500,
              279
            ],
            [
              71,
              279
            ],
            [
              71,
              200
            ]
          ]
        ]
      },
      "properties": {
        "name": "company",
        "classification": {
          "name": "company",
          "colorRGB": -65536
        }
      }
    },
    {
      "type": "Feature",
      "geometry": {
        "type": "Polygon",
        "coordinates": [
          [
            [
              257,
              722
            ],
            [
              364,
              722
            ],
            [
              364,
              870
            ],
            [
              257,
              870
            ],
            [
              257,
              722
            ]
          ]
        ]
      },
      "properties": {
        "name": "date",
        "classification": {
          "name": "date",
          "colorRGB": -16711936
        }
      }
    },
    {
      "type": "Feature",
      "geometry": {
        "type": "Polygon",
        "coordinates": [
          [
            [
              257,
              720
            ],
            [
              538,
              720
            ],
            [
              538,
              798
            ],
            [
              257,
              798
            ],
            [
              257,
              720
            ]
          ]
        ]
      },
      "properties": {
        "name": "address",
        "classification": {
          "name": "address",
          "colorRGB": -16776961
        }
      }
    },
    {
      "type": "Feature",
      "geometry": {
        "type": "Polygon",
        "coordinates": [
          [
            [
              337,
              845
            ],
            [
              537,
              845
            ],
            [
              537,
              1017
            ],
            [
              337,
              1017
            ],
            [
              337,
              845
            ]
          ]
        ]
      },
      "properties": {
        "name": "total",
        "classification": {
          "name": "total",
          "colorRGB": -256
        }
      }
    }
  ]
}