{
  "type": "FeatureCollection",
  "features": [
    {
      "type": "Feature",
      "geometry": {
        "type": "Polygon",
        "coordinates": [
          [
            [
              233,
              324
            ],
            [
              652,
              324
            ],
            [
              652,
              371
            ],
            [
              233,
              371
            ],
            [
              233,
              324
            ]
          ]
        ]
      },
      "properties": {
        "name": "company",
        "classification": {
          "name": "company",
          "colorRGB": -65536
        }
      }
    },
    {
      "type": "Feature",
      "geometry": {
        "type": "Polygon",
        "coordinates": [
          [
            [
              59,
              1532
            ],
            [
              517,
              1532
            ],
            [
              517,
              1575
            ],
            [
              59,
              1575
            ],
            [
              59,
              1532
            ]
          ]
        ]
      },
      "properties": {
        "name": "date",
        "classification": {
          "name": "date",
          "colorRGB": -16711936
        }
      }
    },
    {
      "type": "Feature",
      "geometry": {
        "type": "Polygon",
        "coordinates": [
          [
            [
              125,
              428
            ],
            [
              743,
              428
            ],
            [
              743,
              574
            ],
            [
              125,
              574
            ],
            [
              125,
              428
            ]
          ]
        ]
      },
      "properties": {
        "name": "address",
        "classification": {
          "name": "address",
          "colorRGB": -16776961
        }
      }
    },
    {
      "type": "Feature",
      "geometry": {
        "type": "Polygon",
        "coordinates": [
          [
            [
              680,
              1237
            ],
            [
              822,
              1237
            ],
            [
              822,
              1276
            ],
            [
              680,
              1276
            ],
            [
              680,
              1237
            ]
          ]
        ]
      },
      "properties": {
        "name": "total",
        "classification": {
          "name": "total",
          "colorRGB": -256
        }
      }
    }
  ]
}