{
  "type": "FeatureCollection",
  "features": [
    {
      "type": "Feature",
      "geometry": {
        "type": "Polygon",
        "coordinates": [
          [
            [
              36,
              61
            ],
            [
              592,
              61
            ],
            [
              592,
              86
            ],
            [
              36,
              86
            ],
            [
              36,
              61
            ]
          ]
        ]
      },
      "properties": {
        "name": "company",
        "classification": {
          "name": "company",
          "colorRGB": -65536
        }
      }
    },
    {
      "type": "Feature",
      "geometry": {
        "type": "Polygon",
        "coordinates": [
          [
            [
              253,
              456
            ],
            [
              414,
              456
            ],
            [
              414,
              589
            ],
            [
              253,
              589
            ],
            [
              253,
              456
            ]
          ]
        ]
      },
      "properties": {
        "name": "date",
        "classification": {
          "name": "date",
          "colorRGB": -16711936
        }
      }
    },
    {
      "type": "Feature",
      "geometry": {
        "type": "Polygon",
        "coordinates": [
          [
            [
              247,
              522
            ],
            [
              404,
              522
            ],
            [
              404,
              589
            ],
            [
              247,
              589
            ],
            [
              247,
              522
            ]
          ]
        ]
      },
      "properties": {
        "name": "address",
        "classification": {
          "name": "address",
          "colorRGB": -16776961
        }
      }
    },
    {
      "type": "Feature",
      "geometry": {
        "type": "Polygon",
        "coordinates": [
          [
            [
              247,
              522
            ],
            [
              404,
              522
            ],
            [
              404,
              589
            ],
            [
              247,
              589
            ],
            [
              247,
              522
            ]
          ]
        ]
      },
      "properties": {
        "name": "total",
        "classification": {
          "name": "total",
          "colorRGB": -256
        }
      }
    }
  ]
}