{
  "type": "FeatureCollection",
  "features": [
    {
      "type": "Feature",
      "geometry": {
        "type": "Polygon",
        "coordinates": [
          [
            [
              116,
              283
            ],
            [
              592,
              283
            ],
            [
              592,
              321
            ],
            [
              116,
              321
            ],
            [
              116,
              283
            ]
          ]
        ]
      },
      "properties": {
        "name": "company",
        "classification": {
          "name": "company",
          "colorRGB": -65536
        }
      }
    },
    {
      "type": "Feature",
      "geometry": {
        "type": "Polygon",
        "coordinates": [
          [
            [
              47,
              720
            ],
            [
              62,
              720
            ],
            [
              62,
              792
            ],
            [
              47,
              792
            ],
            [
              47,
              720
            ]
          ]
        ]
      },
      "properties": {
        "name": "date",
        "classification": {
          "name": "date",
          "colorRGB": -16711936
        }
      }
    },
    {
      "type": "Feature",
      "geometry": {
        "type": "Polygon",
        "coordinates": [
          [
            [
              43,
              326
            ],
            [
              669,
              326
            ],
            [
              669,
              439
            ],
            [
              43,
              439
            ],
            [
              43,
              326
            ]
          ]
        ]
      },
      "properties": {
        "name": "address",
        "classification": {
          "name": "address",
          "colorRGB": -16776961
        }
      }
    },
    {
      "type": "Feature",
      "geometry": {
        "type": "Polygon",
        "coordinates": [
          [
            [
              542,
              1461
            ],
            [
              656,
              1461
            ],
            [
              656,
              1490
            ],
            [
              542,
              1490
            ],
            [
              542,
              1461
            ]
          ]
        ]
      },
      "properties": {
        "name": "total",
        "classification": {
          "name": "total",
          "colorRGB": -256
        }
      }
    }
  ]
}