{
  "type": "FeatureCollection",
  "features": [
    {
      "type": "Feature",
      "geometry": {
        "type": "Polygon",
        "coordinates": [
          [
            [
              35,
              87
            ],
            [
              590,
              87
            ],
            [
              590,
              110
            ],
            [
              35,
              110
            ],
            [
              35,
              87
            ]
          ]
        ]
      },
      "properties": {
        "name": "company",
        "classification": {
          "name": "company",
          "colorRGB": -65536
        }
      }
    },
    {
      "type": "Feature",
      "geometry": {
        "type": "Polygon",
        "coordinates": [
          [
            [
              296,
              673
            ],
            [
              463,
              673
            ],
            [
              463,
              741
            ],
            [
              296,
              741
            ],
            [
              296,
              673
            ]
          ]
        ]
      },
      "properties": {
        "name": "date",
        "classification": {
          "name": "date",
          "colorRGB": -16711936
        }
      }
    },
    {
      "type": "Feature",
      "geometry": {
        "type": "Polygon",
        "coordinates": [
          [
            [
              305,
              545
            ],
            [
              462,
              545
            ],
            [
              462,
              611
            ],
            [
              305,
              611
            ],
            [
              305,
              545
            ]
          ]
        ]
      },
      "properties": {
        "name": "address",
        "classification": {
          "name": "address",
          "colorRGB": -16776961
        }
      }
    },
    {
      "type": "Feature",
      "geometry": {
        "type": "Polygon",
        "coordinates": [
          [
            [
              352,
              547
            ],
            [
              405,
              547
            ],
            [
              405,
              611
            ],
            [
              352,
              611
            ],
            [
              352,
              547
            ]
          ]
        ]
      },
      "properties": {
        "name": "total",
        "classification": {
          "name": "total",
          "colorRGB": -256
        }
      }
    }
  ]
}