{
  "type": "FeatureCollection",
  "features": [
    {
      "type": "Feature",
      "geometry": {
        "type": "Polygon",
        "coordinates": [
          [
            [
              36,
              74
            ],
            [
              591,
              74
            ],
            [
              591,
              98
            ],
            [
              36,
              98
            ],
            [
              36,
              74
            ]
          ]
        ]
      },
      "properties": {
        "name": "company",
        "classification": {
          "name": "company",
          "colorRGB": -65536
        }
      }
    },
    {
      "type": "Feature",
      "geometry": {
        "type": "Polygon",
        "coordinates": [
          [
            [
              253,
              469
            ],
            [
              463,
              469
            ],
            [
              463,
              606
            ],
            [
              253,
              606
            ],
            [
              253,
              469
            ]
          ]
        ]
      },
      "properties": {
        "name": "date",
        "classification": {
          "name": "date",
          "colorRGB": -16711936
        }
      }
    },
    {
      "type": "Feature",
      "geometry": {
        "type": "Polygon",
        "coordinates": [
          [
            [
              304,
              536
            ],
            [
              463,
              536
            ],
            [
              463,
              606
            ],
            [
              304,
              606
            ],
            [
              304,
              536
            ]
          ]
        ]
      },
      "properties": {
        "name": "address",
        "classification": {
          "name": "address",
          "colorRGB": -16776961
        }
      }
    },
    {
      "type": "Feature",
      "geometry": {
        "type": "Polygon",
        "coordinates": [
          [
            [
              304,
              536
            ],
            [
              463,
              536
            ],
            [
              463,
              606
            ],
            [
              304,
              606
            ],
            [
              304,
              536
            ]
          ]
        ]
      },
      "properties": {
        "name": "total",
        "classification": {
          "name": "total",
          "colorRGB": -256
        }
      }
    }
  ]
}