{
  "type": "FeatureCollection",
  "features": [
    {
      "type": "Feature",
      "geometry": {
        "type": "Polygon",
        "coordinates": [
          [
            [
              68,
              266
            ],
            [
              689,
              266
            ],
            [
              689,
              303
            ],
            [
              68,
              303
            ],
            [
              68,
              266
            ]
          ]
        ]
      },
      "properties": {
        "name": "company",
        "classification": {
          "name": "company",
          "colorRGB": -65536
        }
      }
    },
    {
      "type": "Feature",
      "geometry": {
        "type": "Polygon",
        "coordinates": [
          [
            [
              33,
              880
            ],
            [
              55,
              880
            ],
            [
              55,
              1421
            ],
            [
              33,
              1421
            ],
            [
              33,
              880
            ]
          ]
        ]
      },
      "properties": {
        "name": "date",
        "classification": {
          "name": "date",
          "colorRGB": -16711936
        }
      }
    },
    {
      "type": "Feature",
      "geometry": {
        "type": "Polygon",
        "coordinates": [
          [
            [
              36,
              1049
            ],
            [
              53,
              1049
            ],
            [
              53,
              1338
            ],
            [
              36,
              1338
            ],
            [
              36,
              1049
            ]
          ]
        ]
      },
      "properties": {
        "name": "address",
        "classification": {
          "name": "address",
          "colorRGB": -16776961
        }
      }
    },
    {
      "type": "Feature",
      "geometry": {
        "type": "Polygon",
        "coordinates": [
          [
            [
              562,
              1519
            ],
            [
              740,
              1519
            ],
            [
              740,
              1670
            ],
            [
              562,
              1670
            ],
            [
              562,
              1519
            ]
          ]
        ]
      },
      "properties": {
        "name": "total",
        "classification": {
          "name": "total",
          "colorRGB": -256
        }
      }
    }
  ]
}