{
  "type": "FeatureCollection",
  "features": [
    {
      "type": "Feature",
      "geometry": {
        "type": "Polygon",
        "coordinates": [
          [
            [
              648,
              576
            ],
            [
              681,
              576
            ],
            [
              681,
              705
            ],
            [
              648,
              705
            ],
            [
              648,
              576
            ]
          ]
        ]
      },
      "properties": {
        "name": "company",
        "classification": {
          "name": "company",
          "colorRGB": -65536
        }
      }
    },
    {
      "type": "Feature",
      "geometry": {
        "type": "Polygon",
        "coordinates": [
          [
            [
              384,
              744
            ],
            [
              400,
              744
            ],
            [
              400,
              836
            ],
            [
              384,
              836
            ],
            [
              384,
              744
            ]
          ]
        ]
      },
      "properties": {
        "name": "date",
        "classification": {
          "name": "date",
          "colorRGB": -16711936
        }
      }
    },
    {
      "type": "Feature",
      "geometry": {
        "type": "Polygon",
        "coordinates": [
          [
            [
              183,
              576
            ],
            [
              682,
              576
            ],
            [
              682,
              905
            ],
            [
              183,
              905
            ],
            [
              183,
              576
            ]
          ]
        ]
      },
      "properties": {
        "name": "address",
        "classification": {
          "name": "address",
          "colorRGB": -16776961
        }
      }
    },
    {
      "type": "Feature",
      "geometry": {
        "type": "Polygon",
        "coordinates": [
          [
            [
              384,
              744
            ],
            [
              400,
              744
            ],
            [
              400,
              836
            ],
            [
              384,
              836
            ],
            [
              384,
              744
            ]
          ]
        ]
      },
      "properties": {
        "name": "total",
        "classification": {
          "name": "total",
          "colorRGB": -256
        }
      }
    }
  ]
}