{
  "type": "FeatureCollection",
  "features": [
    {
      "type": "Feature",
      "geometry": {
        "type": "Polygon",
        "coordinates": [
          [
            [
              117,
              458
            ],
            [
              588,
              458
            ],
            [
              588,
              491
            ],
            [
              117,
              491
            ],
            [
              117,
              458
            ]
          ]
        ]
      },
      "properties": {
        "name": "company",
        "classification": {
          "name": "company",
          "colorRGB": -65536
        }
      }
    },
    {
      "type": "Feature",
      "geometry": {
        "type": "Polygon",
        "coordinates": [
          [
            [
              423,
              780
            ],
            [
              649,
              780
            ],
            [
              649,
              848
            ],
            [
              423,
              848
            ],
            [
              423,
              780
            ]
          ]
        ]
      },
      "properties": {
        "name": "date",
        "classification": {
          "name": "date",
          "colorRGB": -16711936
        }
      }
    },
    {
      "type": "Feature",
      "geometry": {
        "type": "Polygon",
        "coordinates": [
          [
            [
              58,
              542
            ],
            [
              630,
              542
            ],
            [
              630,
              617
            ],
            [
              58,
              617
            ],
            [
              58,
              542
            ]
          ]
        ]
      },
      "properties": {
        "name": "address",
        "classification": {
          "name": "address",
          "colorRGB": -16776961
        }
      }
    },
    {
      "type": "Feature",
      "geometry": {
        "type": "Polygon",
        "coordinates": [
          [
            [
              496,
              1021
            ],
            [
              645,
              1021
            ],
            [
              645,
              1089
            ],
            [
              496,
              1089
            ],
            [
              496,
              1021
            ]
          ]
        ]
      },
      "properties": {
        "name": "total",
        "classification": {
          "name": "total",
          "colorRGB": -256
        }
      }
    }
  ]
}