{
  "type": "FeatureCollection",
  "features": [
    {
      "type": "Feature",
      "geometry": {
        "type": "Polygon",
        "coordinates": [
          [
            [
              21,
              263
            ],
            [
              555,
              263
            ],
            [
              555,
              299
            ],
            [
              21,
              299
            ],
            [
              21,
              263
            ]
          ]
        ]
      },
      "properties": {
        "name": "company",
        "classification": {
          "name": "company",
          "colorRGB": -65536
        }
      }
    },
    {
      "type": "Feature",
      "geometry": {
        "type": "Polygon",
        "coordinates": [
          [
            [
              38,
              1163
            ],
            [
              419,
              1163
            ],
            [
              419,
              1191
            ],
            [
              38,
              1191
            ],
            [
              38,
              1163
            ]
          ]
        ]
      },
      "properties": {
        "name": "date",
        "classification": {
          "name": "date",
          "colorRGB": -16711936
        }
      }
    },
    {
      "type": "Feature",
      "geometry": {
        "type": "Polygon",
        "coordinates": [
          [
            [
              20,
              301
            ],
            [
              512,
              301
            ],
            [
              512,
              451
            ],
            [
              20,
              451
            ],
            [
              20,
              301
            ]
          ]
        ]
      },
      "properties": {
        "name": "address",
        "classification": {
          "name": "address",
          "colorRGB": -16776961
        }
      }
    },
    {
      "type": "Feature",
      "geometry": {
        "type": "Polygon",
        "coordinates": [
          [
            [
              471,
              716
            ],
            [
              585,
              716
            ],
            [
              585,
              892
            ],
            [
              471,
              892
            ],
            [
              471,
              716
            ]
          ]
        ]
      },
      "properties": {
        "name": "total",
        "classification": {
          "name": "total",
          "colorRGB": -256
        }
      }
    }
  ]
}