{
  "type": "FeatureCollection",
  "features": [
    {
      "type": "Feature",
      "geometry": {
        "type": "Polygon",
        "coordinates": [
          [
            [
              238,
              225
            ],
            [
              495,
              225
            ],
            [
              495,
              253
            ],
            [
              238,
              253
            ],
            [
              238,
              225
            ]
          ]
        ]
      },
      "properties": {
        "name": "company",
        "classification": {
          "name": "company",
          "colorRGB": -65536
        }
      }
    },
    {
      "type": "Feature",
      "geometry": {
        "type": "Polygon",
        "coordinates": [
          [
            [
              314,
              633
            ],
            [
              613,
              633
            ],
            [
              613,
              662
            ],
            [
              314,
              662
            ],
            [
              314,
              633
            ]
          ]
        ]
      },
      "properties": {
        "name": "date",
        "classification": {
          "name": "date",
          "colorRGB": -16711936
        }
      }
    },
    {
      "type": "Feature",
      "geometry": {
        "type": "Polygon",
        "coordinates": [
          [
            [
              138,
              299
            ],
            [
              593,
              299
            ],
            [
              593,
              404
            ],
            [
              138,
              404
            ],
            [
              138,
              299
            ]
          ]
        ]
      },
      "properties": {
        "name": "address",
        "classification": {
          "name": "address",
          "colorRGB": -16776961
        }
      }
    },
    {
      "type": "Feature",
      "geometry": {
        "type": "Polygon",
        "coordinates": [
          [
            [
              570,
              1002
            ],
            [
              643,
              1002
            ],
            [
              643,
              1180
            ],
            [
              570,
              1180
            ],
            [
              570,
              1002
            ]
          ]
        ]
      },
      "properties": {
        "name": "total",
        "classification": {
          "name": "total",
          "colorRGB": -256
        }
      }
    }
  ]
}