{
  "type": "FeatureCollection",
  "features": [
    {
      "type": "Feature",
      "geometry": {
        "type": "Polygon",
        "coordinates": [
          [
            [
              334,
              120
            ],
            [
              976,
              120
            ],
            [
              976,
              182
            ],
            [
              334,
              182
            ],
            [
              334,
              120
            ]
          ]
        ]
      },
      "properties": {
        "name": "company",
        "classification": {
          "name": "company",
          "colorRGB": -65536
        }
      }
    },
    {
      "type": "Feature",
      "geometry": {
        "type": "Polygon",
        "coordinates": [
          [
            [
              598,
              809
            ],
            [
              641,
              809
            ],
            [
              641,
              998
            ],
            [
              598,
              998
            ],
            [
              598,
              809
            ]
          ]
        ]
      },
      "properties": {
        "name": "date",
        "classification": {
          "name": "date",
          "colorRGB": -16711936
        }
      }
    },
    {
      "type": "Feature",
      "geometry": {
        "type": "Polygon",
        "coordinates": [
          [
            [
              598,
              809
            ],
            [
              641,
              809
            ],
            [
              641,
              998
            ],
            [
              598,
              998
            ],
            [
              598,
              809
            ]
          ]
        ]
      },
      "properties": {
        "name": "address",
        "classification": {
          "name": "address",
          "colorRGB": -16776961
        }
      }
    },
    {
      "type": "Feature",
      "geometry": {
        "type": "Polygon",
        "coordinates": [
          [
            [
              964,
              935
            ],
            [
              1043,
              935
            ],
            [
              1043,
              972
            ],
            [
              964,
              972
            ],
            [
              964,
              935
            ]
          ]
        ]
      },
      "properties": {
        "name": "total",
        "classification": {
          "name": "total",
          "colorRGB": -256
        }
      }
    }
  ]
}