{
  "type": "FeatureCollection",
  "features": [
    {
      "type": "Feature",
      "geometry": {
        "type": "Polygon",
        "coordinates": [
          [
            [
              682,
              978
            ],
            [
              738,
              978
            ],
            [
              738,
              1487
            ],
            [
              682,
              1487
            ],
            [
              682,
              978
            ]
          ]
        ]
      },
      "properties": {
        "name": "company",
        "classification": {
          "name": "company",
          "colorRGB": -65536
        }
      }
    },
    {
      "type": "Feature",
      "geometry": {
        "type": "Polygon",
        "coordinates": [
          [
            [
              352,
              1017
            ],
            [
              387,
              1017
            ],
            [
              387,
              1529
            ],
            [
              352,
              1529
            ],
            [
              352,
              1017
            ]
          ]
        ]
      },
      "properties": {
        "name": "date",
        "classification": {
          "name": "date",
          "colorRGB": -16711936
        }
      }
    },
    {
      "type": "Feature",
      "geometry": {
        "type": "Polygon",
        "coordinates": [
          [
            [
              357,
              978
            ],
            [
              738,
              978
            ],
            [
              738,
              1487
            ],
            [
              357,
              1487
            ],
            [
              357,
              978
            ]
          ]
        ]
      },
      "properties": {
        "name": "address",
        "classification": {
          "name": "address",
          "colorRGB": -16776961
        }
      }
    },
    {
      "type": "Feature",
      "geometry": {
        "type": "Polygon",
        "coordinates": [
          [
            [
              352,
              1017
            ],
            [
              745,
              1017
            ],
            [
              745,
              1733
            ],
            [
              352,
              1733
            ],
            [
              352,
              1017
            ]
          ]
        ]
      },
      "properties": {
        "name": "total",
        "classification": {
          "name": "total",
          "colorRGB": -256
        }
      }
    }
  ]
}