{
  "type": "FeatureCollection",
  "features": [
    {
      "type": "Feature",
      "geometry": {
        "type": "Polygon",
        "coordinates": [
          [
            [
              169,
              165
            ],
            [
              453,
              165
            ],
            [
              453,
              192
            ],
            [
              169,
              192
            ],
            [
              169,
              165
            ]
          ]
        ]
      },
      "properties": {
        "name": "company",
        "classification": {
          "name": "company",
          "colorRGB": -65536
        }
      }
    },
    {
      "type": "Feature",
      "geometry": {
        "type": "Polygon",
        "coordinates": [
          [
            [
              245,
              630
            ],
            [
              257,
              630
            ],
            [
              257,
              711
            ],
            [
              245,
              711
            ],
            [
              245,
              630
            ]
          ]
        ]
      },
      "properties": {
        "name": "date",
        "classification": {
          "name": "date",
          "colorRGB": -16711936
        }
      }
    },
    {
      "type": "Feature",
      "geometry": {
        "type": "Polygon",
        "coordinates": [
          [
            [
              130,
              229
            ],
            [
              494,
              229
            ],
            [
              494,
              312
            ],
            [
              130,
              312
            ],
            [
              130,
              229
            ]
          ]
        ]
      },
      "properties": {
        "name": "address",
        "classification": {
          "name": "address",
          "colorRGB": -16776961
        }
      }
    },
    {
      "type": "Feature",
      "geometry": {
        "type": "Polygon",
        "coordinates": [
          [
            [
              325,
              629
            ],
            [
              512,
              629
            ],
            [
              512,
              716
            ],
            [
              325,
              716
            ],
            [
              325,
              629
            ]
          ]
        ]
      },
      "properties": {
        "name": "total",
        "classification": {
          "name": "total",
          "colorRGB": -256
        }
      }
    }
  ]
}