{
  "type": "FeatureCollection",
  "features": [
    {
      "type": "Feature",
      "geometry": {
        "type": "Polygon",
        "coordinates": [
          [
            [
              44,
              129
            ],
            [
              516,
              129
            ],
            [
              516,
              166
            ],
            [
              44,
              166
            ],
            [
              44,
              129
            ]
          ]
        ]
      },
      "properties": {
        "name": "company",
        "classification": {
          "name": "company",
          "colorRGB": -65536
        }
      }
    },
    {
      "type": "Feature",
      "geometry": {
        "type": "Polygon",
        "coordinates": [
          [
            [
              169,
              1057
            ],
            [
              294,
              1057
            ],
            [
              294,
              1076
            ],
            [
              169,
              1076
            ],
            [
              169,
              1057
            ]
          ]
        ]
      },
      "properties": {
        "name": "date",
        "classification": {
          "name": "date",
          "colorRGB": -16711936
        }
      }
    },
    {
      "type": "Feature",
      "geometry": {
        "type": "Polygon",
        "coordinates": [
          [
            [
              45,
              176
            ],
            [
              506,
              176
            ],
            [
              506,
              223
            ],
            [
              45,
              223
            ],
            [
              45,
              176
            ]
          ]
        ]
      },
      "properties": {
        "name": "address",
        "classification": {
          "name": "address",
          "colorRGB": -16776961
        }
      }
    },
    {
      "type": "Feature",
      "geometry": {
        "type": "Polygon",
        "coordinates": [
          [
            [
              468,
              645
            ],
            [
              530,
              645
            ],
            [
              530,
              737
            ],
            [
              468,
              737
            ],
            [
              468,
              645
            ]
          ]
        ]
      },
      "properties": {
        "name": "total",
        "classification": {
          "name": "total",
          "colorRGB": -256
        }
      }
    }
  ]
}