{
  "type": "FeatureCollection",
  "features": [
    {
      "type": "Feature",
      "geometry": {
        "type": "Polygon",
        "coordinates": [
          [
            [
              63,
              340
            ],
            [
              553,
              340
            ],
            [
              553,
              369
            ],
            [
              63,
              369
            ],
            [
              63,
              340
            ]
          ]
        ]
      },
      "properties": {
        "name": "company",
        "classification": {
          "name": "company",
          "colorRGB": -65536
        }
      }
    },
    {
      "type": "Feature",
      "geometry": {
        "type": "Polygon",
        "coordinates": [
          [
            [
              460,
              561
            ],
            [
              587,
              561
            ],
            [
              587,
              582
            ],
            [
              460,
              582
            ],
            [
              460,
              561
            ]
          ]
        ]
      },
      "properties": {
        "name": "date",
        "classification": {
          "name": "date",
          "colorRGB": -16711936
        }
      }
    },
    {
      "type": "Feature",
      "geometry": {
        "type": "Polygon",
        "coordinates": [
          [
            [
              74,
              406
            ],
            [
              541,
              406
            ],
            [
              541,
              432
            ],
            [
              74,
              432
            ],
            [
              74,
              406
            ]
          ]
        ]
      },
      "properties": {
        "name": "address",
        "classification": {
          "name": "address",
          "colorRGB": -16776961
        }
      }
    },
    {
      "type": "Feature",
      "geometry": {
        "type": "Polygon",
        "coordinates": [
          [
            [
              505,
              1189
            ],
            [
              580,
              1189
            ],
            [
              580,
              1214
            ],
            [
              505,
              1214
            ],
            [
              505,
              1189
            ]
          ]
        ]
      },
      "properties": {
        "name": "total",
        "classification": {
          "name": "total",
          "colorRGB": -256
        }
      }
    }
  ]
}