{
  "type": "FeatureCollection",
  "features": [
    {
      "type": "Feature",
      "geometry": {
        "type": "Polygon",
        "coordinates": [
          [
            [
              45,
              134
            ],
            [
              517,
              134
            ],
            [
              517,
              174
            ],
            [
              45,
              174
            ],
            [
              45,
              134
            ]
          ]
        ]
      },
      "properties": {
        "name": "company",
        "classification": {
          "name": "company",
          "colorRGB": -65536
        }
      }
    },
    {
      "type": "Feature",
      "geometry": {
        "type": "Polygon",
        "coordinates": [
          [
            [
              322,
              1062
            ],
            [
              523,
              1062
            ],
            [
              523,
              1086
            ],
            [
              322,
              1086
            ],
            [
              322,
              1062
            ]
          ]
        ]
      },
      "properties": {
        "name": "date",
        "classification": {
          "name": "date",
          "colorRGB": -16711936
        }
      }
    },
    {
      "type": "Feature",
      "geometry": {
        "type": "Polygon",
        "coordinates": [
          [
            [
              44,
              184
            ],
            [
              514,
              184
            ],
            [
              514,
              233
            ],
            [
              44,
              233
            ],
            [
              44,
              184
            ]
          ]
        ]
      },
      "properties": {
        "name": "address",
        "classification": {
          "name": "address",
          "colorRGB": -16776961
        }
      }
    },
    {
      "type": "Feature",
      "geometry": {
        "type": "Polygon",
        "coordinates": [
          [
            [
              470,
              680
            ],
            [
              531,
              680
            ],
            [
              531,
              699
            ],
            [
              470,
              699
            ],
            [
              470,
              680
            ]
          ]
        ]
      },
      "properties": {
        "name": "total",
        "classification": {
          "name": "total",
          "colorRGB": -256
        }
      }
    }
  ]
}