{
  "type": "FeatureCollection",
  "features": [
    {
      "type": "Feature",
      "geometry": {
        "type": "Polygon",
        "coordinates": [
          [
            [
              148,
              334
            ],
            [
              646,
              334
            ],
            [
              646,
              375
            ],
            [
              148,
              375
            ],
            [
              148,
              334
            ]
          ]
        ]
      },
      "properties": {
        "name": "company",
        "classification": {
          "name": "company",
          "colorRGB": -65536
        }
      }
    },
    {
      "type": "Feature",
      "geometry": {
        "type": "Polygon",
        "coordinates": [
          [
            [
              631,
              784
            ],
            [
              775,
              784
            ],
            [
              775,
              825
            ],
            [
              631,
              825
            ],
            [
              631,
              784
            ]
          ]
        ]
      },
      "properties": {
        "name": "date",
        "classification": {
          "name": "date",
          "colorRGB": -16711936
        }
      }
    },
    {
      "type": "Feature",
      "geometry": {
        "type": "Polygon",
        "coordinates": [
          [
            [
              168,
              385
            ],
            [
              646,
              385
            ],
            [
              646,
              570
            ],
            [
              168,
              570
            ],
            [
              168,
              385
            ]
          ]
        ]
      },
      "properties": {
        "name": "address",
        "classification": {
          "name": "address",
          "colorRGB": -16776961
        }
      }
    },
    {
      "type": "Feature",
      "geometry": {
        "type": "Polygon",
        "coordinates": [
          [
            [
              631,
              1587
            ],
            [
              740,
              1587
            ],
            [
              740,
              1725
            ],
            [
              631,
              1725
            ],
            [
              631,
              1587
            ]
          ]
        ]
      },
      "properties": {
        "name": "total",
        "classification": {
          "name": "total",
          "colorRGB": -256
        }
      }
    }
  ]
}