{
  "type": "FeatureCollection",
  "features": [
    {
      "type": "Feature",
      "geometry": {
        "type": "Polygon",
        "coordinates": [
          [
            [
              86,
              127
            ],
            [
              512,
              127
            ],
            [
              512,
              157
            ],
            [
              86,
              157
            ],
            [
              86,
              127
            ]
          ]
        ]
      },
      "properties": {
        "name": "company",
        "classification": {
          "name": "company",
          "colorRGB": -65536
        }
      }
    },
    {
      "type": "Feature",
      "geometry": {
        "type": "Polygon",
        "coordinates": [
          [
            [
              65,
              356
            ],
            [
              181,
              356
            ],
            [
              181,
              378
            ],
            [
              65,
              378
            ],
            [
              65,
              356
            ]
          ]
        ]
      },
      "properties": {
        "name": "date",
        "classification": {
          "name": "date",
          "colorRGB": -16711936
        }
      }
    },
    {
      "type": "Feature",
      "geometry": {
        "type": "Polygon",
        "coordinates": [
          [
            [
              114,
              217
            ],
            [
              481,
              217
            ],
            [
              481,
              293
            ],
            [
              114,
              293
            ],
            [
              114,
              217
            ]
          ]
        ]
      },
      "properties": {
        "name": "address",
        "classification": {
          "name": "address",
          "colorRGB": -16776961
        }
      }
    },
    {
      "type": "Feature",
      "geometry": {
        "type": "Polygon",
        "coordinates": [
          [
            [
              474,
              724
            ],
            [
              535,
              724
            ],
            [
              535,
              808
            ],
            [
              474,
              808
            ],
            [
              474,
              724
            ]
          ]
        ]
      },
      "properties": {
        "name": "total",
        "classification": {
          "name": "total",
          "colorRGB": -256
        }
      }
    }
  ]
}