{
  "type": "FeatureCollection",
  "features": [
    {
      "type": "Feature",
      "geometry": {
        "type": "Polygon",
        "coordinates": [
          [
            [
              71,
              19
            ],
            [
              468,
              19
            ],
            [
              468,
              89
            ],
            [
              71,
              89
            ],
            [
              71,
              19
            ]
          ]
        ]
      },
      "properties": {
        "name": "company",
        "classification": {
          "name": "company",
          "colorRGB": -65536
        }
      }
    },
    {
      "type": "Feature",
      "geometry": {
        "type": "Polygon",
        "coordinates": [
          [
            [
              184,
              512
            ],
            [
              410,
              512
            ],
            [
              410,
              567
            ],
            [
              184,
              567
            ],
            [
              184,
              512
            ]
          ]
        ]
      },
      "properties": {
        "name": "date",
        "classification": {
          "name": "date",
          "colorRGB": -16711936
        }
      }
    },
    {
      "type": "Feature",
      "geometry": {
        "type": "Polygon",
        "coordinates": [
          [
            [
              52,
              161
            ],
            [
              463,
              161
            ],
            [
              463,
              282
            ],
            [
              52,
              282
            ],
            [
              52,
              161
            ]
          ]
        ]
      },
      "properties": {
        "name": "address",
        "classification": {
          "name": "address",
          "colorRGB": -16776961
        }
      }
    },
    {
      "type": "Feature",
      "geometry": {
        "type": "Polygon",
        "coordinates": [
          [
            [
              364,
              762
            ],
            [
              495,
              762
            ],
            [
              495,
              823
            ],
            [
              364,
              823
            ],
            [
              364,
              762
            ]
          ]
        ]
      },
      "properties": {
        "name": "total",
        "classification": {
          "name": "total",
          "colorRGB": -256
        }
      }
    }
  ]
}