{
  "type": "FeatureCollection",
  "features": [
    {
      "type": "Feature",
      "geometry": {
        "type": "Polygon",
        "coordinates": [
          [
            [
              333,
              214
            ],
            [
              698,
              214
            ],
            [
              698,
              252
            ],
            [
              333,
              252
            ],
            [
              333,
              214
            ]
          ]
        ]
      },
      "properties": {
        "name": "company",
        "classification": {
          "name": "company",
          "colorRGB": -65536
        }
      }
    },
    {
      "type": "Feature",
      "geometry": {
        "type": "Polygon",
        "coordinates": [
          [
            [
              325,
              965
            ],
            [
              526,
              965
            ],
            [
              526,
              996
            ],
            [
              325,
              996
            ],
            [
              325,
              965
            ]
          ]
        ]
      },
      "properties": {
        "name": "date",
        "classification": {
          "name": "date",
          "colorRGB": -16711936
        }
      }
    },
    {
      "type": "Feature",
      "geometry": {
        "type": "Polygon",
        "coordinates": [
          [
            [
              318,
              279
            ],
            [
              706,
              279
            ],
            [
              706,
              567
            ],
            [
              318,
              567
            ],
            [
              318,
              279
            ]
          ]
        ]
      },
      "properties": {
        "name": "address",
        "classification": {
          "name": "address",
          "colorRGB": -16776961
        }
      }
    },
    {
      "type": "Feature",
      "geometry": {
        "type": "Polygon",
        "coordinates": [
          [
            [
              624,
              1823
            ],
            [
              740,
              1823
            ],
            [
              740,
              1855
            ],
            [
              624,
              1855
            ],
            [
              624,
              1823
            ]
          ]
        ]
      },
      "properties": {
        "name": "total",
        "classification": {
          "name": "total",
          "colorRGB": -256
        }
      }
    }
  ]
}