{
  "type": "FeatureCollection",
  "features": [
    {
      "type": "Feature",
      "geometry": {
        "type": "Polygon",
        "coordinates": [
          [
            [
              34,
              124
            ],
            [
              590,
              124
            ],
            [
              590,
              147
            ],
            [
              34,
              147
            ],
            [
              34,
              124
            ]
          ]
        ]
      },
      "properties": {
        "name": "company",
        "classification": {
          "name": "company",
          "colorRGB": -65536
        }
      }
    },
    {
      "type": "Feature",
      "geometry": {
        "type": "Polygon",
        "coordinates": [
          [
            [
              254,
              518
            ],
            [
              415,
              518
            ],
            [
              415,
              650
            ],
            [
              254,
              650
            ],
            [
              254,
              518
            ]
          ]
        ]
      },
      "properties": {
        "name": "date",
        "classification": {
          "name": "date",
          "colorRGB": -16711936
        }
      }
    },
    {
      "type": "Feature",
      "geometry": {
        "type": "Polygon",
        "coordinates": [
          [
            [
              247,
              584
            ],
            [
              405,
              584
            ],
            [
              405,
              650
            ],
            [
              247,
              650
            ],
            [
              247,
              584
            ]
          ]
        ]
      },
      "properties": {
        "name": "address",
        "classification": {
          "name": "address",
          "colorRGB": -16776961
        }
      }
    },
    {
      "type": "Feature",
      "geometry": {
        "type": "Polygon",
        "coordinates": [
          [
            [
              247,
              584
            ],
            [
              402,
              584
            ],
            [
              402,
              650
            ],
            [
              247,
              650
            ],
            [
              247,
              584
            ]
          ]
        ]
      },
      "properties": {
        "name": "total",
        "classification": {
          "name": "total",
          "colorRGB": -256
        }
      }
    }
  ]
}