{
  "type": "FeatureCollection",
  "features": [
    {
      "type": "Feature",
      "geometry": {
        "type": "Polygon",
        "coordinates": [
          [
            [
              42,
              72
            ],
            [
              596,
              72
            ],
            [
              596,
              95
            ],
            [
              42,
              95
            ],
            [
              42,
              72
            ]
          ]
        ]
      },
      "properties": {
        "name": "company",
        "classification": {
          "name": "company",
          "colorRGB": -65536
        }
      }
    },
    {
      "type": "Feature",
      "geometry": {
        "type": "Polygon",
        "coordinates": [
          [
            [
              257,
              466
            ],
            [
              419,
              466
            ],
            [
              419,
              599
            ],
            [
              257,
              599
            ],
            [
              257,
              466
            ]
          ]
        ]
      },
      "properties": {
        "name": "date",
        "classification": {
          "name": "date",
          "colorRGB": -16711936
        }
      }
    },
    {
      "type": "Feature",
      "geometry": {
        "type": "Polygon",
        "coordinates": [
          [
            [
              250,
              533
            ],
            [
              408,
              533
            ],
            [
              408,
              599
            ],
            [
              250,
              599
            ],
            [
              250,
              533
            ]
          ]
        ]
      },
      "properties": {
        "name": "address",
        "classification": {
          "name": "address",
          "colorRGB": -16776961
        }
      }
    },
    {
      "type": "Feature",
      "geometry": {
        "type": "Polygon",
        "coordinates": [
          [
            [
              300,
              533
            ],
            [
              408,
              533
            ],
            [
              408,
              552
            ],
            [
              300,
              552
            ],
            [
              300,
              533
            ]
          ]
        ]
      },
      "properties": {
        "name": "total",
        "classification": {
          "name": "total",
          "colorRGB": -256
        }
      }
    }
  ]
}