{
  "type": "FeatureCollection",
  "features": [
    {
      "type": "Feature",
      "geometry": {
        "type": "Polygon",
        "coordinates": [
          [
            [
              1663,
              1253
            ],
            [
              2977,
              1253
            ],
            [
              2977,
              1344
            ],
            [
              1663,
              1344
            ],
            [
              1663,
              1253
            ]
          ]
        ]
      },
      "properties": {
        "name": "company",
        "classification": {
          "name": "company",
          "colorRGB": -65536
        }
      }
    },
    {
      "type": "Feature",
      "geometry": {
        "type": "Polygon",
        "coordinates": [
          [
            [
              2594,
              2640
            ],
            [
              2644,
              2640
            ],
            [
              2644,
              3231
            ],
            [
              2594,
              3231
            ],
            [
              2594,
              2640
            ]
          ]
        ]
      },
      "properties": {
        "name": "date",
        "classification": {
          "name": "date",
          "colorRGB": -16711936
        }
      }
    },
    {
      "type": "Feature",
      "geometry": {
        "type": "Polygon",
        "coordinates": [
          [
            [
              2594,
              2640
            ],
            [
              2644,
              2640
            ],
            [
              2644,
              3231
            ],
            [
              2594,
              3231
            ],
            [
              2594,
              2640
            ]
          ]
        ]
      },
      "properties": {
        "name": "address",
        "classification": {
          "name": "address",
          "colorRGB": -16776961
        }
      }
    },
    {
      "type": "Feature",
      "geometry": {
        "type": "Polygon",
        "coordinates": [
          [
            [
              2594,
              2640
            ],
            [
              2644,
              2640
            ],
            [
              2644,
              3231
            ],
            [
              2594,
              3231
            ],
            [
              2594,
              2640
            ]
          ]
        ]
      },
      "properties": {
        "name": "total",
        "classification": {
          "name": "total",
          "colorRGB": -256
        }
      }
    }
  ]
}