{
  "type": "FeatureCollection",
  "features": [
    {
      "type": "Feature",
      "geometry": {
        "type": "Polygon",
        "coordinates": [
          [
            [
              159,
              283
            ],
            [
              754,
              283
            ],
            [
              754,
              328
            ],
            [
              159,
              328
            ],
            [
              159,
              283
            ]
          ]
        ]
      },
      "properties": {
        "name": "company",
        "classification": {
          "name": "company",
          "colorRGB": -65536
        }
      }
    },
    {
      "type": "Feature",
      "geometry": {
        "type": "Polygon",
        "coordinates": [
          [
            [
              598,
              931
            ],
            [
              873,
              931
            ],
            [
              873,
              967
            ],
            [
              598,
              967
            ],
            [
              598,
              931
            ]
          ]
        ]
      },
      "properties": {
        "name": "date",
        "classification": {
          "name": "date",
          "colorRGB": -16711936
        }
      }
    },
    {
      "type": "Feature",
      "geometry": {
        "type": "Polygon",
        "coordinates": [
          [
            [
              297,
              1181
            ],
            [
              463,
              1181
            ],
            [
              463,
              1308
            ],
            [
              297,
              1308
            ],
            [
              297,
              1181
            ]
          ]
        ]
      },
      "properties": {
        "name": "address",
        "classification": {
          "name": "address",
          "colorRGB": -16776961
        }
      }
    },
    {
      "type": "Feature",
      "geometry": {
        "type": "Polygon",
        "coordinates": [
          [
            [
              678,
              1791
            ],
            [
              788,
              1791
            ],
            [
              788,
              1880
            ],
            [
              678,
              1880
            ],
            [
              678,
              1791
            ]
          ]
        ]
      },
      "properties": {
        "name": "total",
        "classification": {
          "name": "total",
          "colorRGB": -256
        }
      }
    }
  ]
}