{
  "type": "FeatureCollection",
  "features": [
    {
      "type": "Feature",
      "geometry": {
        "type": "Polygon",
        "coordinates": [
          [
            [
              82,
              204
            ],
            [
              832,
              204
            ],
            [
              832,
              259
            ],
            [
              82,
              259
            ],
            [
              82,
              204
            ]
          ]
        ]
      },
      "properties": {
        "name": "company",
        "classification": {
          "name": "company",
          "colorRGB": -65536
        }
      }
    },
    {
      "type": "Feature",
      "geometry": {
        "type": "Polygon",
        "coordinates": [
          [
            [
              344,
              919
            ],
            [
              386,
              919
            ],
            [
              386,
              1268
            ],
            [
              344,
              1268
            ],
            [
              344,
              919
            ]
          ]
        ]
      },
      "properties": {
        "name": "date",
        "classification": {
          "name": "date",
          "colorRGB": -16711936
        }
      }
    },
    {
      "type": "Feature",
      "geometry": {
        "type": "Polygon",
        "coordinates": [
          [
            [
              232,
              306
            ],
            [
              675,
              306
            ],
            [
              675,
              445
            ],
            [
              232,
              445
            ],
            [
              232,
              306
            ]
          ]
        ]
      },
      "properties": {
        "name": "address",
        "classification": {
          "name": "address",
          "colorRGB": -16776961
        }
      }
    },
    {
      "type": "Feature",
      "geometry": {
        "type": "Polygon",
        "coordinates": [
          [
            [
              657,
              1641
            ],
            [
              755,
              1641
            ],
            [
              755,
              1736
            ],
            [
              657,
              1736
            ],
            [
              657,
              1641
            ]
          ]
        ]
      },
      "properties": {
        "name": "total",
        "classification": {
          "name": "total",
          "colorRGB": -256
        }
      }
    }
  ]
}