{
  "type": "FeatureCollection",
  "features": [
    {
      "type": "Feature",
      "geometry": {
        "type": "Polygon",
        "coordinates": [
          [
            [
              228,
              118
            ],
            [
              380,
              118
            ],
            [
              380,
              146
            ],
            [
              228,
              146
            ],
            [
              228,
              118
            ]
          ]
        ]
      },
      "properties": {
        "name": "company",
        "classification": {
          "name": "company",
          "colorRGB": -65536
        }
      }
    },
    {
      "type": "Feature",
      "geometry": {
        "type": "Polygon",
        "coordinates": [
          [
            [
              166,
              408
            ],
            [
              438,
              408
            ],
            [
              438,
              434
            ],
            [
              166,
              434
            ],
            [
              166,
              408
            ]
          ]
        ]
      },
      "properties": {
        "name": "date",
        "classification": {
          "name": "date",
          "colorRGB": -16711936
        }
      }
    },
    {
      "type": "Feature",
      "geometry": {
        "type": "Polygon",
        "coordinates": [
          [
            [
              34,
              221
            ],
            [
              580,
              221
            ],
            [
              580,
              280
            ],
            [
              34,
              280
            ],
            [
              34,
              221
            ]
          ]
        ]
      },
      "properties": {
        "name": "address",
        "classification": {
          "name": "address",
          "colorRGB": -16776961
        }
      }
    },
    {
      "type": "Feature",
      "geometry": {
        "type": "Polygon",
        "coordinates": [
          [
            [
              285,
              554
            ],
            [
              536,
              554
            ],
            [
              536,
              621
            ],
            [
              285,
              621
            ],
            [
              285,
              554
            ]
          ]
        ]
      },
      "properties": {
        "name": "total",
        "classification": {
          "name": "total",
          "colorRGB": -256
        }
      }
    }
  ]
}