{
  "type": "FeatureCollection",
  "features": [
    {
      "type": "Feature",
      "geometry": {
        "type": "Polygon",
        "coordinates": [
          [
            [
              181,
              419
            ],
            [
              670,
              419
            ],
            [
              670,
              455
            ],
            [
              181,
              455
            ],
            [
              181,
              419
            ]
          ]
        ]
      },
      "properties": {
        "name": "company",
        "classification": {
          "name": "company",
          "colorRGB": -65536
        }
      }
    },
    {
      "type": "Feature",
      "geometry": {
        "type": "Polygon",
        "coordinates": [
          [
            [
              124,
              721
            ],
            [
              726,
              721
            ],
            [
              726,
              758
            ],
            [
              124,
              758
            ],
            [
              124,
              721
            ]
          ]
        ]
      },
      "properties": {
        "name": "date",
        "classification": {
          "name": "date",
          "colorRGB": -16711936
        }
      }
    },
    {
      "type": "Feature",
      "geometry": {
        "type": "Polygon",
        "coordinates": [
          [
            [
              101,
              522
            ],
            [
              740,
              522
            ],
            [
              740,
              615
            ],
            [
              101,
              615
            ],
            [
              101,
              522
            ]
          ]
        ]
      },
      "properties": {
        "name": "address",
        "classification": {
          "name": "address",
          "colorRGB": -16776961
        }
      }
    },
    {
      "type": "Feature",
      "geometry": {
        "type": "Polygon",
        "coordinates": [
          [
            [
              462,
              923
            ],
            [
              801,
              923
            ],
            [
              801,
              957
            ],
            [
              462,
              957
            ],
            [
              462,
              923
            ]
          ]
        ]
      },
      "properties": {
        "name": "total",
        "classification": {
          "name": "total",
          "colorRGB": -256
        }
      }
    }
  ]
}