{
  "type": "FeatureCollection",
  "features": [
    {
      "type": "Feature",
      "geometry": {
        "type": "Polygon",
        "coordinates": [
          [
            [
              136,
              348
            ],
            [
              543,
              348
            ],
            [
              543,
              377
            ],
            [
              136,
              377
            ],
            [
              136,
              348
            ]
          ]
        ]
      },
      "properties": {
        "name": "company",
        "classification": {
          "name": "company",
          "colorRGB": -65536
        }
      }
    },
    {
      "type": "Feature",
      "geometry": {
        "type": "Polygon",
        "coordinates": [
          [
            [
              408,
              508
            ],
            [
              650,
              508
            ],
            [
              650,
              535
            ],
            [
              408,
              535
            ],
            [
              408,
              508
            ]
          ]
        ]
      },
      "properties": {
        "name": "date",
        "classification": {
          "name": "date",
          "colorRGB": -16711936
        }
      }
    },
    {
      "type": "Feature",
      "geometry": {
        "type": "Polygon",
        "coordinates": [
          [
            [
              150,
              390
            ],
            [
              528,
              390
            ],
            [
              528,
              418
            ],
            [
              150,
              418
            ],
            [
              150,
              390
            ]
          ]
        ]
      },
      "properties": {
        "name": "address",
        "classification": {
          "name": "address",
          "colorRGB": -16776961
        }
      }
    },
    {
      "type": "Feature",
      "geometry": {
        "type": "Polygon",
        "coordinates": [
          [
            [
              575,
              911
            ],
            [
              649,
              911
            ],
            [
              649,
              978
            ],
            [
              575,
              978
            ],
            [
              575,
              911
            ]
          ]
        ]
      },
      "properties": {
        "name": "total",
        "classification": {
          "name": "total",
          "colorRGB": -256
        }
      }
    }
  ]
}