{
  "type": "FeatureCollection",
  "features": [
    {
      "type": "Feature",
      "geometry": {
        "type": "Polygon",
        "coordinates": [
          [
            [
              88,
              208
            ],
            [
              846,
              208
            ],
            [
              846,
              262
            ],
            [
              88,
              262
            ],
            [
              88,
              208
            ]
          ]
        ]
      },
      "properties": {
        "name": "company",
        "classification": {
          "name": "company",
          "colorRGB": -65536
        }
      }
    },
    {
      "type": "Feature",
      "geometry": {
        "type": "Polygon",
        "coordinates": [
          [
            [
              550,
              693
            ],
            [
              841,
              693
            ],
            [
              841,
              732
            ],
            [
              550,
              732
            ],
            [
              550,
              693
            ]
          ]
        ]
      },
      "properties": {
        "name": "date",
        "classification": {
          "name": "date",
          "colorRGB": -16711936
        }
      }
    },
    {
      "type": "Feature",
      "geometry": {
        "type": "Polygon",
        "coordinates": [
          [
            [
              233,
              310
            ],
            [
              695,
              310
            ],
            [
              695,
              449
            ],
            [
              233,
              449
            ],
            [
              233,
              310
            ]
          ]
        ]
      },
      "properties": {
        "name": "address",
        "classification": {
          "name": "address",
          "colorRGB": -16776961
        }
      }
    },
    {
      "type": "Feature",
      "geometry": {
        "type": "Polygon",
        "coordinates": [
          [
            [
              347,
              925
            ],
            [
              767,
              925
            ],
            [
              767,
              1062
            ],
            [
              347,
              1062
            ],
            [
              347,
              925
            ]
          ]
        ]
      },
      "properties": {
        "name": "total",
        "classification": {
          "name": "total",
          "colorRGB": -256
        }
      }
    }
  ]
}