{
  "type": "FeatureCollection",
  "features": [
    {
      "type": "Feature",
      "geometry": {
        "type": "Polygon",
        "coordinates": [
          [
            [
              70,
              205
            ],
            [
              499,
              205
            ],
            [
              499,
              282
            ],
            [
              70,
              282
            ],
            [
              70,
              205
            ]
          ]
        ]
      },
      "properties": {
        "name": "company",
        "classification": {
          "name": "company",
          "colorRGB": -65536
        }
      }
    },
    {
      "type": "Feature",
      "geometry": {
        "type": "Polygon",
        "coordinates": [
          [
            [
              254,
              732
            ],
            [
              360,
              732
            ],
            [
              360,
              829
            ],
            [
              254,
              829
            ],
            [
              254,
              732
            ]
          ]
        ]
      },
      "properties": {
        "name": "date",
        "classification": {
          "name": "date",
          "colorRGB": -16711936
        }
      }
    },
    {
      "type": "Feature",
      "geometry": {
        "type": "Polygon",
        "coordinates": [
          [
            [
              101,
              305
            ],
            [
              466,
              305
            ],
            [
              466,
              382
            ],
            [
              101,
              382
            ],
            [
              101,
              305
            ]
          ]
        ]
      },
      "properties": {
        "name": "address",
        "classification": {
          "name": "address",
          "colorRGB": -16776961
        }
      }
    },
    {
      "type": "Feature",
      "geometry": {
        "type": "Polygon",
        "coordinates": [
          [
            [
              439,
              877
            ],
            [
              538,
              877
            ],
            [
              538,
              976
            ],
            [
              439,
              976
            ],
            [
              439,
              877
            ]
          ]
        ]
      },
      "properties": {
        "name": "total",
        "classification": {
          "name": "total",
          "colorRGB": -256
        }
      }
    }
  ]
}