{
  "type": "FeatureCollection",
  "features": [
    {
      "type": "Feature",
      "geometry": {
        "type": "Polygon",
        "coordinates": [
          [
            [
              239,
              326
            ],
            [
              659,
              326
            ],
            [
              659,
              370
            ],
            [
              239,
              370
            ],
            [
              239,
              326
            ]
          ]
        ]
      },
      "properties": {
        "name": "company",
        "classification": {
          "name": "company",
          "colorRGB": -65536
        }
      }
    },
    {
      "type": "Feature",
      "geometry": {
        "type": "Polygon",
        "coordinates": [
          [
            [
              70,
              1488
            ],
            [
              525,
              1488
            ],
            [
              525,
              1531
            ],
            [
              70,
              1531
            ],
            [
              70,
              1488
            ]
          ]
        ]
      },
      "properties": {
        "name": "date",
        "classification": {
          "name": "date",
          "colorRGB": -16711936
        }
      }
    },
    {
      "type": "Feature",
      "geometry": {
        "type": "Polygon",
        "coordinates": [
          [
            [
              126,
              428
            ],
            [
              750,
              428
            ],
            [
              750,
              573
            ],
            [
              126,
              573
            ],
            [
              126,
              428
            ]
          ]
        ]
      },
      "properties": {
        "name": "address",
        "classification": {
          "name": "address",
          "colorRGB": -16776961
        }
      }
    },
    {
      "type": "Feature",
      "geometry": {
        "type": "Polygon",
        "coordinates": [
          [
            [
              670,
              1238
            ],
            [
              829,
              1238
            ],
            [
              829,
              1332
            ],
            [
              670,
              1332
            ],
            [
              670,
              1238
            ]
          ]
        ]
      },
      "properties": {
        "name": "total",
        "classification": {
          "name": "total",
          "colorRGB": -256
        }
      }
    }
  ]
}