{
  "type": "FeatureCollection",
  "features": [
    {
      "type": "Feature",
      "geometry": {
        "type": "Polygon",
        "coordinates": [
          [
            [
              1763,
              980
            ],
            [
              2763,
              980
            ],
            [
              2763,
              1041
            ],
            [
              1763,
              1041
            ],
            [
              1763,
              980
            ]
          ]
        ]
      },
      "properties": {
        "name": "company",
        "classification": {
          "name": "company",
          "colorRGB": -65536
        }
      }
    },
    {
      "type": "Feature",
      "geometry": {
        "type": "Polygon",
        "coordinates": [
          [
            [
              2673,
              2351
            ],
            [
              2720,
              2351
            ],
            [
              2720,
              3117
            ],
            [
              2673,
              3117
            ],
            [
              2673,
              2351
            ]
          ]
        ]
      },
      "properties": {
        "name": "date",
        "classification": {
          "name": "date",
          "colorRGB": -16711936
        }
      }
    },
    {
      "type": "Feature",
      "geometry": {
        "type": "Polygon",
        "coordinates": [
          [
            [
              2673,
              2351
            ],
            [
              2720,
              2351
            ],
            [
              2720,
              3117
            ],
            [
              2673,
              3117
            ],
            [
              2673,
              2351
            ]
          ]
        ]
      },
      "properties": {
        "name": "address",
        "classification": {
          "name": "address",
          "colorRGB": -16776961
        }
      }
    },
    {
      "type": "Feature",
      "geometry": {
        "type": "Polygon",
        "coordinates": [
          [
            [
              2673,
              2351
            ],
            [
              2720,
              2351
            ],
            [
              2720,
              3117
            ],
            [
              2673,
              3117
            ],
            [
              2673,
              2351
            ]
          ]
        ]
      },
      "properties": {
        "name": "total",
        "classification": {
          "name": "total",
          "colorRGB": -256
        }
      }
    }
  ]
}