{
  "type": "FeatureCollection",
  "features": [
    {
      "type": "Feature",
      "geometry": {
        "type": "Polygon",
        "coordinates": [
          [
            [
              43,
              136
            ],
            [
              520,
              136
            ],
            [
              520,
              171
            ],
            [
              43,
              171
            ],
            [
              43,
              136
            ]
          ]
        ]
      },
      "properties": {
        "name": "company",
        "classification": {
          "name": "company",
          "colorRGB": -65536
        }
      }
    },
    {
      "type": "Feature",
      "geometry": {
        "type": "Polygon",
        "coordinates": [
          [
            [
              322,
              837
            ],
            [
              575,
              837
            ],
            [
              575,
              941
            ],
            [
              322,
              941
            ],
            [
              322,
              837
            ]
          ]
        ]
      },
      "properties": {
        "name": "date",
        "classification": {
          "name": "date",
          "colorRGB": -16711936
        }
      }
    },
    {
      "type": "Feature",
      "geometry": {
        "type": "Polygon",
        "coordinates": [
          [
            [
              48,
              181
            ],
            [
              509,
              181
            ],
            [
              509,
              228
            ],
            [
              48,
              228
            ],
            [
              48,
              181
            ]
          ]
        ]
      },
      "properties": {
        "name": "address",
        "classification": {
          "name": "address",
          "colorRGB": -16776961
        }
      }
    },
    {
      "type": "Feature",
      "geometry": {
        "type": "Polygon",
        "coordinates": [
          [
            [
              483,
              493
            ],
            [
              536,
              493
            ],
            [
              536,
              756
            ],
            [
              483,
              756
            ],
            [
              483,
              493
            ]
          ]
        ]
      },
      "properties": {
        "name": "total",
        "classification": {
          "name": "total",
          "colorRGB": -256
        }
      }
    }
  ]
}