{
  "type": "FeatureCollection",
  "features": [
    {
      "type": "Feature",
      "geometry": {
        "type": "Polygon",
        "coordinates": [
          [
            [
              156,
              181
            ],
            [
              789,
              181
            ],
            [
              789,
              272
            ],
            [
              156,
              272
            ],
            [
              156,
              181
            ]
          ]
        ]
      },
      "properties": {
        "name": "company",
        "classification": {
          "name": "company",
          "colorRGB": -65536
        }
      }
    },
    {
      "type": "Feature",
      "geometry": {
        "type": "Polygon",
        "coordinates": [
          [
            [
              273,
              646
            ],
            [
              435,
              646
            ],
            [
              435,
              677
            ],
            [
              273,
              677
            ],
            [
              273,
              646
            ]
          ]
        ]
      },
      "properties": {
        "name": "date",
        "classification": {
          "name": "date",
          "colorRGB": -16711936
        }
      }
    },
    {
      "type": "Feature",
      "geometry": {
        "type": "Polygon",
        "coordinates": [
          [
            [
              108,
              754
            ],
            [
              364,
              754
            ],
            [
              364,
              1034
            ],
            [
              108,
              1034
            ],
            [
              108,
              754
            ]
          ]
        ]
      },
      "properties": {
        "name": "address",
        "classification": {
          "name": "address",
          "colorRGB": -16776961
        }
      }
    },
    {
      "type": "Feature",
      "geometry": {
        "type": "Polygon",
        "coordinates": [
          [
            [
              721,
              1629
            ],
            [
              850,
              1629
            ],
            [
              850,
              1670
            ],
            [
              721,
              1670
            ],
            [
              721,
              1629
            ]
          ]
        ]
      },
      "properties": {
        "name": "total",
        "classification": {
          "name": "total",
          "colorRGB": -256
        }
      }
    }
  ]
}