{"type":"FeatureCollection","features":[{"type":"Feature","id":"0a62352d-8f83-4f08-b210-183ed74ffe70","geometry":{"type":"Polygon","coordinates":[[[29, 188],[29, 244],[577, 244],[577, 188],[29, 188]]]},"properties":{"objectType":"annotation","name":"company","classification":{"name":"company","color":[255, 0, 0]}}},{"type":"Feature","id":"cb2735e6-48c1-4203-9702-5e11ab24299f","geometry":{"type":"Polygon","coordinates":[[[40, 292],[40, 386],[563, 386],[563, 292],[40, 292]]]},"properties":{"objectType":"annotation","name":"address","classification":{"name":"address","color":[0, 0, 255]}}},{"type":"Feature","id":"a80f0f8c-7f40-46dc-bf83-b3638eb69c8a","geometry":{"type":"Polygon","coordinates":[[[214, 527],[214, 574],[416, 574],[416, 527],[214, 527]]]},"properties":{"objectType":"annotation","name":"date","classification":{"name":"date","color":[0, 255, 0]}}},{"type":"Feature","id":"ab57cccf-01db-46e7-9e85-ed4bb3799ddc","geometry":{"type":"Polygon","coordinates":[[[436, 752],[436, 812],[553, 812],[553, 752],[436, 752]]]},"properties":{"objectType":"annotation","name":"total","classification":{"name":"total","color":[255, 255, 0]}}}]}