{"type":"FeatureCollection","features":[{"type":"Feature","id":"cc9070ae-876a-4f28-ac09-29fe7e024308","geometry":{"type":"Polygon","coordinates":[[[28, 71],[28, 95],[586, 95],[586, 71],[28, 71]]]},"properties":{"objectType":"annotation","name":"company","classification":{"name":"company","color":[255, 0, 0]}}},{"type":"Feature","id":"7231b924-a6b5-4f24-9b83-f10599245bd5","geometry":{"type":"Polygon","coordinates":[[[427, 911],[427, 951],[515, 951],[515, 911],[427, 911]]]},"properties":{"objectType":"annotation","name":"total","classification":{"name":"total","color":[255, 255, 0]}}},{"type":"Feature","id":"fcfc3808-4486-4f4d-bd0f-18658066465b","geometry":{"type":"Polygon","coordinates":[[[143, 97],[143, 144],[458, 144],[458, 97],[143, 97]]]},"properties":{"objectType":"annotation","name":"address","classification":{"name":"address","color":[0, 0, 255]}}},{"type":"Feature","id":"e8ab73ce-4746-476c-af75-4ebf338914b0","geometry":{"type":"Polygon","coordinates":[[[291, 464],[291, 497],[418, 497],[418, 464],[291, 464]]]},"properties":{"objectType":"annotation","name":"date","classification":{"name":"date","color":[0, 255, 0]}}}]}