{"type":"FeatureCollection","features":[{"type":"Feature","id":"836d5f27-16d3-4adc-813c-547e5f882e65","geometry":{"type":"Polygon","coordinates":[[[101, 312],[101, 419],[599, 419],[599, 312],[101, 312]]]},"properties":{"objectType":"annotation","name":"address","classification":{"name":"address","color":[0, 0, 255]}}},{"type":"Feature","id":"f34446eb-4df0-4294-8679-5af6f9097603","geometry":{"type":"Polygon","coordinates":[[[194, 232],[194, 279],[489, 279],[489, 232],[194, 232]]]},"properties":{"objectType":"annotation","name":"company","classification":{"name":"company","color":[255, 0, 0]}}},{"type":"Feature","id":"b1bef055-0e35-462f-9e8b-d103d1bf9709","geometry":{"type":"Polygon","coordinates":[[[170, 604],[170, 640],[348, 640],[348, 604],[170, 604]]]},"properties":{"objectType":"annotation","name":"date","classification":{"name":"date","color":[0, 255, 0]}}},{"type":"Feature","id":"25daff20-7258-41d2-bc01-23a25b8385d8","geometry":{"type":"Polygon","coordinates":[[[519, 1064],[519, 1111],[653, 1111],[653, 1064],[519, 1064]]]},"properties":{"objectType":"annotation","name":"total","classification":{"name":"total","color":[255, 255, 0]}}}]}