{"type":"FeatureCollection","features":[{"type":"Feature","id":"b19ff54a-d341-4f4c-a1e8-d46bf26e48de","geometry":{"type":"Polygon","coordinates":[[[512, 634],[512, 664],[630, 664],[630, 634],[512, 634]]]},"properties":{"objectType":"annotation","name":"date","classification":{"name":"date","color":[0, 255, 0]}}},{"type":"Feature","id":"c9f1ab1d-256d-42e5-ac27-839eb16bbbd4","geometry":{"type":"Polygon","coordinates":[[[139, 315],[139, 425],[523, 425],[523, 315],[139, 315]]]},"properties":{"objectType":"annotation","name":"address","classification":{"name":"address","color":[0, 0, 255]}}},{"type":"Feature","id":"ada3aac2-faaa-4a4a-8393-297af522bacf","geometry":{"type":"Polygon","coordinates":[[[110, 276],[110, 306],[540, 306],[540, 276],[110, 276]]]},"properties":{"objectType":"annotation","name":"company","classification":{"name":"company","color":[255, 0, 0]}}},{"type":"Feature","id":"04bc18a6-2dee-41a8-b67b-a8b099a09eca","geometry":{"type":"Polygon","coordinates":[[[518, 823],[518, 868],[614, 868],[614, 823],[518, 823]]]},"properties":{"objectType":"annotation","name":"total","classification":{"name":"total","color":[255, 255, 0]}}}]}