{"type":"FeatureCollection","features":[{"type":"Feature","id":"e9c8f4ea-7be8-4fef-b8ac-0db28c90c04a","geometry":{"type":"Polygon","coordinates":[[[23, 124],[23, 147],[596, 147],[596, 124],[23, 124]]]},"properties":{"objectType":"annotation","name":"company","classification":{"name":"company","color":[255, 0, 0]}}},{"type":"Feature","id":"c2a95c84-ed55-46ca-ac4c-99c0dceb1356","geometry":{"type":"Polygon","coordinates":[[[430, 936],[430, 985],[528, 985],[528, 936],[430, 936]]]},"properties":{"objectType":"annotation","name":"total","classification":{"name":"total","color":[255, 255, 0]}}},{"type":"Feature","id":"f95d895a-a64c-4960-9c63-432f3b1c1370","geometry":{"type":"Polygon","coordinates":[[[386, 356],[386, 393],[524, 393],[524, 356],[386, 356]]]},"properties":{"objectType":"annotation","name":"date","classification":{"name":"date","color":[0, 255, 0]}}},{"type":"Feature","id":"c19d5a90-b95e-4052-a3a1-b6062f6e29a4","geometry":{"type":"Polygon","coordinates":[[[126, 149],[126, 200],[478, 200],[478, 149],[126, 149]]]},"properties":{"objectType":"annotation","name":"address","classification":{"name":"address","color":[0, 0, 255]}}}]}