{"type":"FeatureCollection","features":[{"type":"Feature","id":"1d302068-ded9-4760-9c0d-cc163661ed43","geometry":{"type":"Polygon","coordinates":[[[156, 430],[156, 474],[648, 474],[648, 430],[156, 430]]]},"properties":{"objectType":"annotation","name":"company","classification":{"name":"company","color":[255, 0, 0]}}},{"type":"Feature","id":"0dd527ce-3bc6-474c-8ff5-bf598fd4f7aa","geometry":{"type":"Polygon","coordinates":[[[632, 838],[632, 875],[774, 875],[774, 838],[632, 838]]]},"properties":{"objectType":"annotation","name":"date","classification":{"name":"date","color":[0, 255, 0]}}},{"type":"Feature","id":"9b2ebf79-648f-4804-9069-972144f84c1b","geometry":{"type":"Polygon","coordinates":[[[653, 1134],[653, 1174],[740, 1174],[740, 1134],[653, 1134]]]},"properties":{"objectType":"annotation","name":"total","classification":{"name":"total","color":[255, 255, 0]}}},{"type":"Feature","id":"0cdc2f5d-c073-404e-8d8f-2fc1dc469c15","geometry":{"type":"Polygon","coordinates":[[[158, 475],[158, 675],[659, 675],[659, 475],[158, 475]]]},"properties":{"objectType":"annotation","name":"address","classification":{"name":"address","color":[0, 0, 255]}}}]}