{"type":"FeatureCollection","features":[{"type":"Feature","id":"9b5b2ff2-d17f-4be7-aacf-5065d7d27b8f","geometry":{"type":"Polygon","coordinates":[[[26, 66],[26, 86],[598, 86],[598, 66],[26, 66]]]},"properties":{"objectType":"annotation","name":"company","classification":{"name":"company","color":[255, 0, 0]}}},{"type":"Feature","id":"fd6fd526-2feb-421a-ae3e-0e3792df2b5f","geometry":{"type":"Polygon","coordinates":[[[154, 86],[154, 137],[473, 137],[473, 86],[154, 86]]]},"properties":{"objectType":"annotation","name":"address","classification":{"name":"address","color":[0, 0, 255]}}},{"type":"Feature","id":"60c657cd-b122-4071-b844-eee485ef328e","geometry":{"type":"Polygon","coordinates":[[[301, 454],[301, 484],[419, 484],[419, 454],[301, 454]]]},"properties":{"objectType":"annotation","name":"date","classification":{"name":"date","color":[0, 255, 0]}}},{"type":"Feature","id":"765468aa-b330-4fb5-b462-9ade22587c62","geometry":{"type":"Polygon","coordinates":[[[437, 859],[437, 893],[515, 893],[515, 859],[437, 859]]]},"properties":{"objectType":"annotation","name":"total","classification":{"name":"total","color":[255, 255, 0]}}}]}