{"type":"FeatureCollection","features":[{"type":"Feature","id":"a7f8b8c1-a8f0-4746-9f38-f6b5dd1c4e54","geometry":{"type":"Polygon","coordinates":[[[474, 619],[474, 640],[531, 640],[531, 619],[474, 619]]]},"properties":{"objectType":"annotation","name":"total","classification":{"name":"total","color":[255, 255, 0]}}},{"type":"Feature","id":"a8cf3879-ec44-4a1d-8587-c73159369ace","geometry":{"type":"Polygon","coordinates":[[[36, 131],[36, 166],[529, 166],[529, 131],[36, 131]]]},"properties":{"objectType":"annotation","name":"company","classification":{"name":"company","color":[255, 0, 0]}}},{"type":"Feature","id":"f917b196-37ca-4661-a25d-422964fa01ea","geometry":{"type":"Polygon","coordinates":[[[38, 177],[38, 225],[535, 225],[535, 177],[38, 177]]]},"properties":{"objectType":"annotation","name":"address","classification":{"name":"address","color":[0, 0, 255]}}},{"type":"Feature","id":"8a0949b0-dd42-43af-8302-e6a247e3fd4f","geometry":{"type":"Polygon","coordinates":[[[397, 1000],[397, 1038],[529, 1038],[529, 1000],[397, 1000]]]},"properties":{"objectType":"annotation","name":"date","classification":{"name":"date","color":[0, 255, 0]}}}]}