{"type":"FeatureCollection","features":[{"type":"Feature","id":"d93aa305-28b2-4855-895a-bcf0c280576f","geometry":{"type":"Polygon","coordinates":[[[65, 353],[65, 373],[179, 373],[179, 353],[65, 353]]]},"properties":{"objectType":"annotation","name":"date","classification":{"name":"date","color":[0, 255, 0]}}},{"type":"Feature","id":"1c1adc94-2a42-4dac-a39a-b0a51afbc15b","geometry":{"type":"Polygon","coordinates":[[[72, 127],[72, 151],[521, 151],[521, 127],[72, 127]]]},"properties":{"objectType":"annotation","name":"company","classification":{"name":"company","color":[255, 0, 0]}}},{"type":"Feature","id":"31ce38bd-d4d1-461f-ba74-49ba17a26fde","geometry":{"type":"Polygon","coordinates":[[[113, 214],[113, 295],[491, 295],[491, 214],[113, 214]]]},"properties":{"objectType":"annotation","name":"address","classification":{"name":"address","color":[0, 0, 255]}}},{"type":"Feature","id":"308e96fc-0d65-4b97-8eca-4e6af463cfbb","geometry":{"type":"Polygon","coordinates":[[[457, 958],[457, 999],[554, 999],[554, 958],[457, 958]]]},"properties":{"objectType":"annotation","name":"total","classification":{"name":"total","color":[255, 255, 0]}}}]}