{"type":"FeatureCollection","features":[{"type":"Feature","id":"075ecac3-ca84-4c08-b85a-d81a30c741c9","geometry":{"type":"Polygon","coordinates":[[[149, 318],[149, 365],[730, 365],[730, 318],[149, 318]]]},"properties":{"objectType":"annotation","name":"company","classification":{"name":"company","color":[255, 0, 0]}}},{"type":"Feature","id":"4a119776-9432-4930-b0b4-8fe34577688a","geometry":{"type":"Polygon","coordinates":[[[104, 420],[104, 566],[775, 566],[775, 420],[104, 420]]]},"properties":{"objectType":"annotation","name":"address","classification":{"name":"address","color":[0, 0, 255]}}},{"type":"Feature","id":"053f920b-9cd4-45c7-8514-ae36f9edc720","geometry":{"type":"Polygon","coordinates":[[[722, 2079],[722, 2121],[838, 2121],[838, 2079],[722, 2079]]]},"properties":{"objectType":"annotation","name":"total","classification":{"name":"total","color":[255, 255, 0]}}},{"type":"Feature","id":"ff41b8c2-9917-45c3-8d30-30316866cc1b","geometry":{"type":"Polygon","coordinates":[[[75, 2376],[75, 2416],[244, 2416],[244, 2376],[75, 2376]]]},"properties":{"objectType":"annotation","name":"date","classification":{"name":"date","color":[0, 255, 0]}}}]}