{"type":"FeatureCollection","features":[{"type":"Feature","id":"f3ba6dd0-7ba6-47c5-82ed-78f2607270de","geometry":{"type":"Polygon","coordinates":[[[82, 26],[82, 58],[554, 58],[554, 26],[82, 26]]]},"properties":{"objectType":"annotation","name":"company","classification":{"name":"company","color":[255, 0, 0]}}},{"type":"Feature","id":"2b36d2f5-4e28-4971-a13c-1a48a3d32b7d","geometry":{"type":"Polygon","coordinates":[[[34, 97],[34, 201],[586, 201],[586, 97],[34, 97]]]},"properties":{"objectType":"annotation","name":"address","classification":{"name":"address","color":[0, 0, 255]}}},{"type":"Feature","id":"7a8108cc-abd2-40ac-a494-81ee6cdd6976","geometry":{"type":"Polygon","coordinates":[[[436, 801],[436, 833],[630, 833],[630, 801],[436, 801]]]},"properties":{"objectType":"annotation","name":"total","classification":{"name":"total","color":[255, 255, 0]}}},{"type":"Feature","id":"3e280484-08eb-4a40-99b8-b6e67b1e69f1","geometry":{"type":"Polygon","coordinates":[[[117, 1197],[117, 1227],[285, 1227],[285, 1197],[117, 1197]]]},"properties":{"objectType":"annotation","name":"date","classification":{"name":"date","color":[0, 255, 0]}}}]}