{"type":"FeatureCollection","features":[{"type":"Feature","id":"1a783a87-9bcb-4339-9974-06332786b4cc","geometry":{"type":"Polygon","coordinates":[[[1405, 886],[1405, 1028],[3008, 1028],[3008, 886],[1405, 886]]]},"properties":{"objectType":"annotation","name":"company","classification":{"name":"company","color":[255, 0, 0]}}},{"type":"Feature","id":"3e9cef68-ff00-43c1-b1f4-316919e5d32f","geometry":{"type":"Polygon","coordinates":[[[1584, 1103],[1584, 1330],[2810, 1330],[2810, 1103],[1584, 1103]]]},"properties":{"objectType":"annotation","name":"address","classification":{"name":"address","color":[0, 0, 255]}}},{"type":"Feature","id":"ccf1e134-45d9-481e-b0ba-62a83039a6a1","geometry":{"type":"Polygon","coordinates":[[[2565, 4490],[2565, 4631],[2886, 4631],[2886, 4490],[2565, 4490]]]},"properties":{"objectType":"annotation","name":"total","classification":{"name":"total","color":[255, 255, 0]}}},{"type":"Feature","id":"d7c68f57-c1eb-41c7-a73f-728ace543180","geometry":{"type":"Polygon","coordinates":[[[2593, 1801],[2593, 1896],[3037, 1896],[3037, 1801],[2593, 1801]]]},"properties":{"objectType":"annotation","name":"date","classification":{"name":"date","color":[0, 255, 0]}}}]}