{"type":"FeatureCollection","features":[{"type":"Feature","id":"e7fea596-a90d-4255-9e8a-39d4e0109eac","geometry":{"type":"Polygon","coordinates":[[[272, 225],[272, 260],[618, 260],[618, 225],[272, 225]]]},"properties":{"objectType":"annotation","name":"company","classification":{"name":"company","color":[255, 0, 0]}}},{"type":"Feature","id":"97b55105-b1b4-4625-bcb7-180147a7cf24","geometry":{"type":"Polygon","coordinates":[[[160, 332],[160, 410],[745, 410],[745, 332],[160, 332]]]},"properties":{"objectType":"annotation","name":"address","classification":{"name":"address","color":[0, 0, 255]}}},{"type":"Feature","id":"6ef11c91-f714-4985-8e67-db19bb70d7d5","geometry":{"type":"Polygon","coordinates":[[[290, 587],[290, 622],[500, 622],[500, 587],[290, 587]]]},"properties":{"objectType":"annotation","name":"date","classification":{"name":"date","color":[0, 255, 0]}}},{"type":"Feature","id":"36358839-bba0-4579-b55f-0af228c32f5d","geometry":{"type":"Polygon","coordinates":[[[728, 1371],[728, 1417],[883, 1417],[883, 1371],[728, 1371]]]},"properties":{"objectType":"annotation","name":"total","classification":{"name":"total","color":[255, 255, 0]}}}]}