{"type":"FeatureCollection","features":[{"type":"Feature","id":"1a211164-0ee5-43b0-9a46-36348be42a48","geometry":{"type":"Polygon","coordinates":[[[75, 316],[75, 423],[647, 423],[647, 316],[75, 316]]]},"properties":{"objectType":"annotation","name":"address","classification":{"name":"address","color":[0, 0, 255]}}},{"type":"Feature","id":"b6883e7b-ce53-4f3b-a125-b6551829a130","geometry":{"type":"Polygon","coordinates":[[[65, 1032],[65, 1079],[257, 1079],[257, 1032],[65, 1032]]]},"properties":{"objectType":"annotation","name":"date","classification":{"name":"date","color":[0, 255, 0]}}},{"type":"Feature","id":"a66a2b03-1008-46e8-ba50-39ec4b8b3e8c","geometry":{"type":"Polygon","coordinates":[[[653, 820],[653, 855],[730, 855],[730, 820],[653, 820]]]},"properties":{"objectType":"annotation","name":"total","classification":{"name":"total","color":[255, 255, 0]}}},{"type":"Feature","id":"e9dd69e9-9717-4d3a-b9a6-23118121b0b1","geometry":{"type":"Polygon","coordinates":[[[165, 236],[165, 292],[569, 292],[569, 236],[165, 236]]]},"properties":{"objectType":"annotation","name":"company","classification":{"name":"company","color":[255, 0, 0]}}}]}