{"type":"FeatureCollection","features":[{"type":"Feature","id":"d1475a3b-0711-45cc-80f3-d061fa548475","geometry":{"type":"Polygon","coordinates":[[[239, 326],[239, 370],[659, 370],[659, 326],[239, 326]]]},"properties":{"objectType":"annotation","name":"company","classification":{"name":"company","color":[255, 0, 0]}}},{"type":"Feature","id":"95cb9221-09e7-4780-8f1e-848d99de9356","geometry":{"type":"Polygon","coordinates":[[[126, 428],[126, 573],[750, 573],[750, 428],[126, 428]]]},"properties":{"objectType":"annotation","name":"address","classification":{"name":"address","color":[0, 0, 255]}}},{"type":"Feature","id":"434c0be0-0efe-4946-8bea-8d53aa81d801","geometry":{"type":"Polygon","coordinates":[[[70, 1488],[70, 1531],[240, 1531],[240, 1488],[70, 1488]]]},"properties":{"objectType":"annotation","name":"date","classification":{"name":"date","color":[0, 255, 0]}}},{"type":"Feature","id":"ef915649-6a6e-4bdd-ab48-93cc883ea9e7","geometry":{"type":"Polygon","coordinates":[[[715, 1235],[715, 1277],[837, 1277],[837, 1235],[715, 1235]]]},"properties":{"objectType":"annotation","name":"total","classification":{"name":"total","color":[255, 255, 0]}}}]}