{"type":"FeatureCollection","features":[{"type":"Feature","id":"6d029579-31ad-414a-9ca7-5c8d49a59159","geometry":{"type":"Polygon","coordinates":[[[121, 272],[121, 366],[667, 366],[667, 272],[121, 272]]]},"properties":{"objectType":"annotation","name":"address","classification":{"name":"address","color":[0, 0, 255]}}},{"type":"Feature","id":"52676deb-4299-4d09-858c-6ee858ee381a","geometry":{"type":"Polygon","coordinates":[[[205, 206],[205, 232],[601, 232],[601, 206],[205, 206]]]},"properties":{"objectType":"annotation","name":"company","classification":{"name":"company","color":[255, 0, 0]}}},{"type":"Feature","id":"e20fa070-2311-47bf-8bcc-932e73130018","geometry":{"type":"Polygon","coordinates":[[[74, 884],[74, 918],[234, 918],[234, 884],[74, 884]]]},"properties":{"objectType":"annotation","name":"date","classification":{"name":"date","color":[0, 255, 0]}}},{"type":"Feature","id":"14dfb064-2da5-4f3a-9ebe-1e55d7ab5c88","geometry":{"type":"Polygon","coordinates":[[[678, 704],[678, 735],[771, 735],[771, 704],[678, 704]]]},"properties":{"objectType":"annotation","name":"total","classification":{"name":"total","color":[255, 255, 0]}}}]}