{"type":"FeatureCollection","features":[{"type":"Feature","id":"5c967f69-425c-433f-bd30-45d47acaa502","geometry":{"type":"Polygon","coordinates":[[[232, 37],[232, 71],[641, 71],[641, 37],[232, 37]]]},"properties":{"objectType":"annotation","name":"company","classification":{"name":"company","color":[255, 0, 0]}}},{"type":"Feature","id":"2046099c-5976-44e2-9fcb-895d872b944d","geometry":{"type":"Polygon","coordinates":[[[40, 87],[40, 244],[813, 244],[813, 87],[40, 87]]]},"properties":{"objectType":"annotation","name":"address","classification":{"name":"address","color":[0, 0, 255]}}},{"type":"Feature","id":"764d096b-7ce0-47fa-bc7d-1cd9a356a7b0","geometry":{"type":"Polygon","coordinates":[[[716, 1024],[716, 1071],[835, 1071],[835, 1024],[716, 1024]]]},"properties":{"objectType":"annotation","name":"total","classification":{"name":"total","color":[255, 255, 0]}}},{"type":"Feature","id":"5f583258-1214-425f-8ddf-38bbce940d8a","geometry":{"type":"Polygon","coordinates":[[[379, 473],[379, 540],[599, 540],[599, 473],[379, 473]]]},"properties":{"objectType":"annotation","name":"date","classification":{"name":"date","color":[0, 255, 0]}}}]}