{"type":"FeatureCollection","features":[{"type":"Feature","id":"63619446-b36b-4d3a-9e83-ffb399ace1c8","geometry":{"type":"Polygon","coordinates":[[[102, 298],[102, 407],[599, 407],[599, 298],[102, 298]]]},"properties":{"objectType":"annotation","name":"address","classification":{"name":"address","color":[0, 0, 255]}}},{"type":"Feature","id":"d4852d34-59da-48b8-9014-0444f99ba53b","geometry":{"type":"Polygon","coordinates":[[[192, 224],[192, 267],[503, 267],[503, 224],[192, 224]]]},"properties":{"objectType":"annotation","name":"company","classification":{"name":"company","color":[255, 0, 0]}}},{"type":"Feature","id":"16aa1ced-8411-4bef-bea6-84fb0d3a3398","geometry":{"type":"Polygon","coordinates":[[[171, 592],[171, 628],[340, 628],[340, 592],[171, 592]]]},"properties":{"objectType":"annotation","name":"date","classification":{"name":"date","color":[0, 255, 0]}}},{"type":"Feature","id":"48c41f84-eefb-4ffa-87c1-05c5b1735969","geometry":{"type":"Polygon","coordinates":[[[512, 1062],[512, 1103],[650, 1103],[650, 1062],[512, 1062]]]},"properties":{"objectType":"annotation","name":"total","classification":{"name":"total","color":[255, 255, 0]}}}]}