{"type":"FeatureCollection","features":[{"type":"Feature","id":"77f283ff-dad5-45ce-9284-752eef8e8219","geometry":{"type":"Polygon","coordinates":[[[96, 280],[96, 389],[824, 389],[824, 280],[96, 280]]]},"properties":{"objectType":"annotation","name":"company","classification":{"name":"company","color":[255, 0, 0]}}},{"type":"Feature","id":"2ae4aa85-e49d-4eb5-8616-5f3b92e78d21","geometry":{"type":"Polygon","coordinates":[[[50, 474],[50, 589],[835, 589],[835, 474],[50, 474]]]},"properties":{"objectType":"annotation","name":"address","classification":{"name":"address","color":[0, 0, 255]}}},{"type":"Feature","id":"32013172-5e17-4101-8ee2-1c0d3c6c4a6b","geometry":{"type":"Polygon","coordinates":[[[32, 780],[32, 820],[250, 820],[250, 780],[32, 780]]]},"properties":{"objectType":"annotation","name":"date","classification":{"name":"date","color":[0, 255, 0]}}},{"type":"Feature","id":"0f3f26f1-1a90-4fc4-880d-00f0d910cb15","geometry":{"type":"Polygon","coordinates":[[[724, 1169],[724, 1230],[854, 1230],[854, 1169],[724, 1169]]]},"properties":{"objectType":"annotation","name":"total","classification":{"name":"total","color":[255, 255, 0]}}}]}