{"type":"FeatureCollection","features":[{"type":"Feature","id":"000b205d-7f7e-424e-8f64-9194fc592c5e","geometry":{"type":"Polygon","coordinates":[[[9, 291],[9, 388],[368, 388],[368, 291],[9, 291]]]},"properties":{"objectType":"annotation","name":"address","classification":{"name":"address","color":[0, 0, 255]}}},{"type":"Feature","id":"9c86dc34-1762-4d07-9484-a555201bc7ad","geometry":{"type":"Polygon","coordinates":[[[9, 260],[9, 288],[434, 288],[434, 260],[9, 260]]]},"properties":{"objectType":"annotation","name":"company","classification":{"name":"company","color":[255, 0, 0]}}},{"type":"Feature","id":"281fe73d-cc2a-48ed-bc12-8b0ce27a27de","geometry":{"type":"Polygon","coordinates":[[[389, 653],[389, 688],[497, 688],[497, 653],[389, 653]]]},"properties":{"objectType":"annotation","name":"total","classification":{"name":"total","color":[255, 255, 0]}}},{"type":"Feature","id":"852adc98-a182-4f9b-b936-5a3f63446d8f","geometry":{"type":"Polygon","coordinates":[[[251, 1261],[251, 1291],[388, 1291],[388, 1261],[251, 1261]]]},"properties":{"objectType":"annotation","name":"date","classification":{"name":"date","color":[0, 255, 0]}}}]}