{"type":"FeatureCollection","features":[{"type":"Feature","id":"8fc124db-a4ad-48ae-badb-ce86ac241d8f","geometry":{"type":"Polygon","coordinates":[[[61, 1239],[61, 1276],[205, 1276],[205, 1239],[61, 1239]]]},"properties":{"objectType":"annotation","name":"date","classification":{"name":"date","color":[0, 255, 0]}}},{"type":"Feature","id":"933e64a0-21c5-475d-ba04-c2f2b0cd0e90","geometry":{"type":"Polygon","coordinates":[[[619, 1032],[619, 1062],[732, 1062],[732, 1032],[619, 1032]]]},"properties":{"objectType":"annotation","name":"total","classification":{"name":"total","color":[255, 255, 0]}}},{"type":"Feature","id":"4056f374-f4d2-45f0-a237-bcc103d6fc3b","geometry":{"type":"Polygon","coordinates":[[[155, 158],[155, 204],[568, 204],[568, 158],[155, 158]]]},"properties":{"objectType":"annotation","name":"company","classification":{"name":"company","color":[255, 0, 0]}}},{"type":"Feature","id":"8be57920-3333-4468-8fa0-3d84319e81f3","geometry":{"type":"Polygon","coordinates":[[[70, 231],[70, 335],[640, 335],[640, 231],[70, 231]]]},"properties":{"objectType":"annotation","name":"address","classification":{"name":"address","color":[0, 0, 255]}}}]}