{"type":"FeatureCollection","features":[{"type":"Feature","id":"4f6e0c81-bca7-4db1-8165-51a5a2f20462","geometry":{"type":"Polygon","coordinates":[[[145, 256],[145, 306],[788, 306],[788, 256],[145, 256]]]},"properties":{"objectType":"annotation","name":"company","classification":{"name":"company","color":[255, 0, 0]}}},{"type":"Feature","id":"10a3de2a-6490-4508-bb49-62373f4fe8fa","geometry":{"type":"Polygon","coordinates":[[[228, 351],[228, 434],[697, 434],[697, 351],[228, 351]]]},"properties":{"objectType":"annotation","name":"address","classification":{"name":"address","color":[0, 0, 255]}}},{"type":"Feature","id":"81479948-f1d3-424a-9483-3ba4255e7828","geometry":{"type":"Polygon","coordinates":[[[654, 1642],[654, 1719],[815, 1719],[815, 1642],[654, 1642]]]},"properties":{"objectType":"annotation","name":"total","classification":{"name":"total","color":[255, 255, 0]}}},{"type":"Feature","id":"a3e37009-374c-485f-9920-ec38600b9a21","geometry":{"type":"Polygon","coordinates":[[[687, 898],[687, 949],[889, 949],[889, 898],[687, 898]]]},"properties":{"objectType":"annotation","name":"date","classification":{"name":"date","color":[0, 255, 0]}}}]}