{"type":"FeatureCollection","features":[{"type":"Feature","id":"d4cae7c1-0327-4fd4-9364-0b108e004289","geometry":{"type":"Polygon","coordinates":[[[204, 342],[204, 383],[695, 383],[695, 342],[204, 342]]]},"properties":{"objectType":"annotation","name":"company","classification":{"name":"company","color":[255, 0, 0]}}},{"type":"Feature","id":"a0e49364-e766-4bf4-8402-92fb3db3fa96","geometry":{"type":"Polygon","coordinates":[[[88, 419],[88, 559],[862, 559],[862, 419],[88, 419]]]},"properties":{"objectType":"annotation","name":"address","classification":{"name":"address","color":[0, 0, 255]}}},{"type":"Feature","id":"30151e85-6347-4ef1-9179-aa38e92cbae6","geometry":{"type":"Polygon","coordinates":[[[33, 1390],[33, 1438],[223, 1438],[223, 1390],[33, 1390]]]},"properties":{"objectType":"annotation","name":"date","classification":{"name":"date","color":[0, 255, 0]}}},{"type":"Feature","id":"5e760507-8cd5-4a00-b43b-047e9529b0d8","geometry":{"type":"Polygon","coordinates":[[[766, 1069],[766, 1112],[895, 1112],[895, 1069],[766, 1069]]]},"properties":{"objectType":"annotation","name":"total","classification":{"name":"total","color":[255, 255, 0]}}}]}