{"type":"FeatureCollection","features":[{"type":"Feature","id":"27a76632-2041-47e1-877d-2b1f8a34d92e","geometry":{"type":"Polygon","coordinates":[[[103, 299],[103, 405],[598, 405],[598, 299],[103, 299]]]},"properties":{"objectType":"annotation","name":"address","classification":{"name":"address","color":[0, 0, 255]}}},{"type":"Feature","id":"aaece49c-8442-4cd3-8f5b-8403c239a7ee","geometry":{"type":"Polygon","coordinates":[[[181, 215],[181, 258],[503, 258],[503, 215],[181, 215]]]},"properties":{"objectType":"annotation","name":"company","classification":{"name":"company","color":[255, 0, 0]}}},{"type":"Feature","id":"9ff60007-d322-47f6-b125-9a5d433b6197","geometry":{"type":"Polygon","coordinates":[[[170, 598],[170, 632],[343, 632],[343, 598],[170, 598]]]},"properties":{"objectType":"annotation","name":"date","classification":{"name":"date","color":[0, 255, 0]}}},{"type":"Feature","id":"c45d27e6-cb7b-4f1c-911a-777d5e2ef478","geometry":{"type":"Polygon","coordinates":[[[516, 1064],[516, 1108],[662, 1108],[662, 1064],[516, 1064]]]},"properties":{"objectType":"annotation","name":"total","classification":{"name":"total","color":[255, 255, 0]}}}]}