{"type":"FeatureCollection","features":[{"type":"Feature","id":"38c98c7e-27ba-43fd-8d70-02efc2adc0d4","geometry":{"type":"Polygon","coordinates":[[[161, 311],[161, 336],[423, 336],[423, 311],[161, 311]]]},"properties":{"objectType":"annotation","name":"company","classification":{"name":"company","color":[255, 0, 0]}}},{"type":"Feature","id":"af55b040-b659-4659-bbd8-b3e14a7cebe9","geometry":{"type":"Polygon","coordinates":[[[62, 371],[62, 512],[523, 512],[523, 371],[62, 371]]]},"properties":{"objectType":"annotation","name":"address","classification":{"name":"address","color":[0, 0, 255]}}},{"type":"Feature","id":"247e126c-b07d-42d7-ba60-de007d7389bc","geometry":{"type":"Polygon","coordinates":[[[173, 633],[173, 669],[309, 669],[309, 633],[173, 633]]]},"properties":{"objectType":"annotation","name":"date","classification":{"name":"date","color":[0, 255, 0]}}},{"type":"Feature","id":"93fcb8fd-7c82-4579-be83-98d337b2c2fa","geometry":{"type":"Polygon","coordinates":[[[424, 1102],[424, 1139],[529, 1139],[529, 1102],[424, 1102]]]},"properties":{"objectType":"annotation","name":"total","classification":{"name":"total","color":[255, 255, 0]}}}]}