{"type":"FeatureCollection","features":[{"type":"Feature","id":"efc75194-76f5-4c04-988e-9c9b1c2b7423","geometry":{"type":"Polygon","coordinates":[[[25, 70],[25, 94],[605, 94],[605, 70],[25, 70]]]},"properties":{"objectType":"annotation","name":"company","classification":{"name":"company","color":[255, 0, 0]}}},{"type":"Feature","id":"acc3ad1e-bc62-4cb6-b117-86046f0e0d2a","geometry":{"type":"Polygon","coordinates":[[[155, 93],[155, 146],[472, 146],[472, 93],[155, 93]]]},"properties":{"objectType":"annotation","name":"address","classification":{"name":"address","color":[0, 0, 255]}}},{"type":"Feature","id":"898bc9e9-438f-4b47-8538-b5434104c9c8","geometry":{"type":"Polygon","coordinates":[[[438, 907],[438, 957],[526, 957],[526, 907],[438, 907]]]},"properties":{"objectType":"annotation","name":"total","classification":{"name":"total","color":[255, 255, 0]}}},{"type":"Feature","id":"a082c578-f093-49ae-961c-dd6fcd05ad99","geometry":{"type":"Polygon","coordinates":[[[300, 458],[300, 493],[422, 493],[422, 458],[300, 458]]]},"properties":{"objectType":"annotation","name":"date","classification":{"name":"date","color":[0, 255, 0]}}}]}