{"type":"FeatureCollection","features":[{"type":"Feature","id":"74cddf4a-0961-414c-a841-82dead6646bd","geometry":{"type":"Polygon","coordinates":[[[70, 309],[70, 374],[715, 374],[715, 309],[70, 309]]]},"properties":{"objectType":"annotation","name":"company","classification":{"name":"company","color":[255, 0, 0]}}},{"type":"Feature","id":"041da10e-ed2a-4088-929f-8af826e1c1c5","geometry":{"type":"Polygon","coordinates":[[[70, 405],[70, 485],[712, 485],[712, 405],[70, 405]]]},"properties":{"objectType":"annotation","name":"address","classification":{"name":"address","color":[0, 0, 255]}}},{"type":"Feature","id":"e962c237-93fc-4668-8d00-5626339b5c3a","geometry":{"type":"Polygon","coordinates":[[[211, 626],[211, 677],[390, 677],[390, 626],[211, 626]]]},"properties":{"objectType":"annotation","name":"date","classification":{"name":"date","color":[0, 255, 0]}}},{"type":"Feature","id":"29b742d2-4150-43d3-9410-fb8538d2213f","geometry":{"type":"Polygon","coordinates":[[[483, 1454],[483, 1504],[699, 1504],[699, 1454],[483, 1454]]]},"properties":{"objectType":"annotation","name":"total","classification":{"name":"total","color":[255, 255, 0]}}}]}