{"type":"FeatureCollection","features":[{"type":"Feature","id":"ff3cc90b-fe0d-48b9-8cb4-160cdbb26ff0","geometry":{"type":"Polygon","coordinates":[[[107, 284],[107, 336],[796, 336],[796, 284],[107, 284]]]},"properties":{"objectType":"annotation","name":"company","classification":{"name":"company","color":[255, 0, 0]}}},{"type":"Feature","id":"fe50930d-e171-40c3-b754-fb11db4b43f8","geometry":{"type":"Polygon","coordinates":[[[116, 359],[116, 447],[790, 447],[790, 359],[116, 359]]]},"properties":{"objectType":"annotation","name":"address","classification":{"name":"address","color":[0, 0, 255]}}},{"type":"Feature","id":"f2cb7166-7996-4102-97d3-6073a6fe9d72","geometry":{"type":"Polygon","coordinates":[[[308, 824],[308, 867],[506, 867],[506, 824],[308, 824]]]},"properties":{"objectType":"annotation","name":"date","classification":{"name":"date","color":[0, 255, 0]}}},{"type":"Feature","id":"7faa0673-4495-4715-9117-54674496c016","geometry":{"type":"Polygon","coordinates":[[[549, 1244],[549, 1303],[701, 1303],[701, 1244],[549, 1244]]]},"properties":{"objectType":"annotation","name":"total","classification":{"name":"total","color":[255, 255, 0]}}}]}