{"type":"FeatureCollection","features":[{"type":"Feature","id":"8b072d14-40bf-4d5b-a222-de38206744a2","geometry":{"type":"Polygon","coordinates":[[[783, 863],[783, 890],[857, 890],[857, 863],[783, 863]]]},"properties":{"objectType":"annotation","name":"total","classification":{"name":"total","color":[255, 255, 0]}}},{"type":"Feature","id":"dd952056-58ef-4abd-910b-c30ed33a9fab","geometry":{"type":"Polygon","coordinates":[[[64, 133],[64, 170],[827, 170],[827, 133],[64, 133]]]},"properties":{"objectType":"annotation","name":"company","classification":{"name":"company","color":[255, 0, 0]}}},{"type":"Feature","id":"02bc6864-69b5-480b-a272-152c822e88e9","geometry":{"type":"Polygon","coordinates":[[[177, 249],[177, 356],[685, 356],[685, 249],[177, 249]]]},"properties":{"objectType":"annotation","name":"address","classification":{"name":"address","color":[0, 0, 255]}}},{"type":"Feature","id":"6e4198cb-2f89-41f1-8792-57b9d29b148b","geometry":{"type":"Polygon","coordinates":[[[485, 417],[485, 467],[646, 467],[646, 417],[485, 417]]]},"properties":{"objectType":"annotation","name":"date","classification":{"name":"date","color":[0, 255, 0]}}}]}