{"type":"FeatureCollection","features":[{"type":"Feature","id":"b18dd0bc-b5b5-4300-8ef8-bd795907eecc","geometry":{"type":"Polygon","coordinates":[[[37, 128],[37, 172],[534, 172],[534, 128],[37, 128]]]},"properties":{"objectType":"annotation","name":"company","classification":{"name":"company","color":[255, 0, 0]}}},{"type":"Feature","id":"3f96734b-eac6-4044-a9a6-e90cd0fdf6f5","geometry":{"type":"Polygon","coordinates":[[[31, 184],[31, 228],[523, 228],[523, 184],[31, 184]]]},"properties":{"objectType":"annotation","name":"address","classification":{"name":"address","color":[0, 0, 255]}}},{"type":"Feature","id":"fd3569b0-344e-4ee1-94a1-91fc4ea900e5","geometry":{"type":"Polygon","coordinates":[[[162, 999],[162, 1029],[309, 1029],[309, 999],[162, 999]]]},"properties":{"objectType":"annotation","name":"date","classification":{"name":"date","color":[0, 255, 0]}}},{"type":"Feature","id":"7a8746f0-8e8d-4ffa-aee1-124422e2d344","geometry":{"type":"Polygon","coordinates":[[[458, 722],[458, 761],[554, 761],[554, 722],[458, 722]]]},"properties":{"objectType":"annotation","name":"total","classification":{"name":"total","color":[255, 255, 0]}}}]}