{"type":"FeatureCollection","features":[{"type":"Feature","id":"fef68b2f-39fe-4404-8418-4671ca864e68","geometry":{"type":"Polygon","coordinates":[[[41, 133],[41, 172],[516, 172],[516, 133],[41, 133]]]},"properties":{"objectType":"annotation","name":"company","classification":{"name":"company","color":[255, 0, 0]}}},{"type":"Feature","id":"3860c702-44f3-4bd7-90dc-3773fbdd7e1b","geometry":{"type":"Polygon","coordinates":[[[29, 186],[29, 231],[519, 231],[519, 186],[29, 186]]]},"properties":{"objectType":"annotation","name":"address","classification":{"name":"address","color":[0, 0, 255]}}},{"type":"Feature","id":"b9df34f5-71e0-4d66-b8e3-c0fb0b1af970","geometry":{"type":"Polygon","coordinates":[[[472, 553],[472, 590],[535, 590],[535, 553],[472, 553]]]},"properties":{"objectType":"annotation","name":"total","classification":{"name":"total","color":[255, 255, 0]}}},{"type":"Feature","id":"5e7f1ddd-41cb-48da-9364-3b5c84c5610f","geometry":{"type":"Polygon","coordinates":[[[394, 947],[394, 981],[523, 981],[523, 947],[394, 947]]]},"properties":{"objectType":"annotation","name":"date","classification":{"name":"date","color":[0, 255, 0]}}}]}