{"type":"FeatureCollection","features":[{"type":"Feature","id":"8cc2e115-52f9-4b8e-817d-3b6344d63911","geometry":{"type":"Polygon","coordinates":[[[46, 132],[46, 172],[518, 172],[518, 132],[46, 132]]]},"properties":{"objectType":"annotation","name":"company","classification":{"name":"company","color":[255, 0, 0]}}},{"type":"Feature","id":"168c0440-2b86-4215-9408-36871c7521e4","geometry":{"type":"Polygon","coordinates":[[[49, 183],[49, 229],[507, 229],[507, 183],[49, 183]]]},"properties":{"objectType":"annotation","name":"address","classification":{"name":"address","color":[0, 0, 255]}}},{"type":"Feature","id":"9290d943-caf9-40f7-8587-d569859c2c66","geometry":{"type":"Polygon","coordinates":[[[468, 551],[468, 592],[541, 592],[541, 551],[468, 551]]]},"properties":{"objectType":"annotation","name":"total","classification":{"name":"total","color":[255, 255, 0]}}},{"type":"Feature","id":"4782fcbe-711d-406e-af55-ac6ee450e7a2","geometry":{"type":"Polygon","coordinates":[[[398, 942],[398, 973],[539, 973],[539, 942],[398, 942]]]},"properties":{"objectType":"annotation","name":"date","classification":{"name":"date","color":[0, 255, 0]}}}]}