{"type":"FeatureCollection","features":[{"type":"Feature","id":"63ae38ba-723e-4673-9bef-e1c9ecf5a482","geometry":{"type":"Polygon","coordinates":[[[16, 1409],[16, 1447],[166, 1447],[166, 1409],[16, 1409]]]},"properties":{"objectType":"annotation","name":"date","classification":{"name":"date","color":[0, 255, 0]}}},{"type":"Feature","id":"8a717935-3e86-4c0e-95b1-de95d61d34fd","geometry":{"type":"Polygon","coordinates":[[[589, 1173],[589, 1207],[696, 1207],[696, 1173],[589, 1173]]]},"properties":{"objectType":"annotation","name":"total","classification":{"name":"total","color":[255, 255, 0]}}},{"type":"Feature","id":"38ce18df-d191-4fe0-af88-a0a0affe82d3","geometry":{"type":"Polygon","coordinates":[[[59, 333],[59, 445],[625, 445],[625, 333],[59, 333]]]},"properties":{"objectType":"annotation","name":"address","classification":{"name":"address","color":[0, 0, 255]}}},{"type":"Feature","id":"e7f15c82-0a27-4e67-a458-23bc2a384670","geometry":{"type":"Polygon","coordinates":[[[146, 251],[146, 305],[561, 305],[561, 251],[146, 251]]]},"properties":{"objectType":"annotation","name":"company","classification":{"name":"company","color":[255, 0, 0]}}}]}