{"type":"FeatureCollection","features":[{"type":"Feature","id":"9628365f-91e3-4125-8296-26acd125d7bf","geometry":{"type":"Polygon","coordinates":[[[79, 332],[79, 384],[708, 384],[708, 332],[79, 332]]]},"properties":{"objectType":"annotation","name":"company","classification":{"name":"company","color":[255, 0, 0]}}},{"type":"Feature","id":"a082cdb8-9e44-4ca5-8689-02ea7f43c4cf","geometry":{"type":"Polygon","coordinates":[[[73, 409],[73, 497],[713, 497],[713, 409],[73, 409]]]},"properties":{"objectType":"annotation","name":"address","classification":{"name":"address","color":[0, 0, 255]}}},{"type":"Feature","id":"65dd5924-77ec-424a-b5bb-0a95e446cbde","geometry":{"type":"Polygon","coordinates":[[[218, 635],[218, 681],[392, 681],[392, 635],[218, 635]]]},"properties":{"objectType":"annotation","name":"date","classification":{"name":"date","color":[0, 255, 0]}}},{"type":"Feature","id":"cddafe6b-bcf5-4792-87ac-3978aebbb2af","geometry":{"type":"Polygon","coordinates":[[[524, 1168],[524, 1212],[695, 1212],[695, 1168],[524, 1168]]]},"properties":{"objectType":"annotation","name":"total","classification":{"name":"total","color":[255, 255, 0]}}}]}