{"type":"FeatureCollection","features":[{"type":"Feature","id":"8ca5c22e-89e1-4d39-b951-66339a1d99fa","geometry":{"type":"Polygon","coordinates":[[[27, 124],[27, 153],[597, 153],[597, 124],[27, 124]]]},"properties":{"objectType":"annotation","name":"company","classification":{"name":"company","color":[255, 0, 0]}}},{"type":"Feature","id":"f5980fbe-ff8c-4131-b310-0896f261da3e","geometry":{"type":"Polygon","coordinates":[[[440, 966],[440, 1007],[527, 1007],[527, 966],[440, 966]]]},"properties":{"objectType":"annotation","name":"total","classification":{"name":"total","color":[255, 255, 0]}}},{"type":"Feature","id":"0546e30d-e565-43ee-b00f-507a901d4465","geometry":{"type":"Polygon","coordinates":[[[147, 160],[147, 207],[467, 207],[467, 160],[147, 160]]]},"properties":{"objectType":"annotation","name":"address","classification":{"name":"address","color":[0, 0, 255]}}},{"type":"Feature","id":"316734c5-bc7f-47e9-9d24-20cf978e6176","geometry":{"type":"Polygon","coordinates":[[[297, 525],[297, 554],[421, 554],[421, 525],[297, 525]]]},"properties":{"objectType":"annotation","name":"date","classification":{"name":"date","color":[0, 255, 0]}}}]}