{"type":"FeatureCollection","features":[{"type":"Feature","id":"1b63cd7b-53bc-4521-8ff7-80770a85b15c","geometry":{"type":"Polygon","coordinates":[[[35, 137],[35, 170],[528, 170],[528, 137],[35, 137]]]},"properties":{"objectType":"annotation","name":"company","classification":{"name":"company","color":[255, 0, 0]}}},{"type":"Feature","id":"689dd413-5afd-4ac2-a08c-5af0d2237d01","geometry":{"type":"Polygon","coordinates":[[[36, 182],[36, 228],[521, 228],[521, 182],[36, 182]]]},"properties":{"objectType":"annotation","name":"address","classification":{"name":"address","color":[0, 0, 255]}}},{"type":"Feature","id":"cdfaa039-8460-4240-8b91-01cea8ee59b7","geometry":{"type":"Polygon","coordinates":[[[477, 527],[477, 561],[537, 561],[537, 527],[477, 527]]]},"properties":{"objectType":"annotation","name":"total","classification":{"name":"total","color":[255, 255, 0]}}},{"type":"Feature","id":"a50c8dcd-c93a-41e5-9903-fac63b2553b1","geometry":{"type":"Polygon","coordinates":[[[396, 918],[396, 945],[538, 945],[538, 918],[396, 918]]]},"properties":{"objectType":"annotation","name":"date","classification":{"name":"date","color":[0, 255, 0]}}}]}