{"type":"FeatureCollection","features":[{"type":"Feature","id":"2a3ad7ce-50e7-4602-9a0f-7dde8f547174","geometry":{"type":"Polygon","coordinates":[[[119, 362],[119, 481],[776, 481],[776, 362],[119, 362]]]},"properties":{"objectType":"annotation","name":"address","classification":{"name":"address","color":[0, 0, 255]}}},{"type":"Feature","id":"26c9d6a8-055b-4ca2-919e-0395f865e8ab","geometry":{"type":"Polygon","coordinates":[[[243, 700],[243, 764],[444, 764],[444, 700],[243, 700]]]},"properties":{"objectType":"annotation","name":"date","classification":{"name":"date","color":[0, 255, 0]}}},{"type":"Feature","id":"db82c19c-cea9-442b-ade4-37c41fa3dc12","geometry":{"type":"Polygon","coordinates":[[[215, 266],[215, 312],[729, 312],[729, 266],[215, 266]]]},"properties":{"objectType":"annotation","name":"company","classification":{"name":"company","color":[255, 0, 0]}}},{"type":"Feature","id":"fad5d549-4c62-4990-9e52-b38a9c0f0ab3","geometry":{"type":"Polygon","coordinates":[[[768, 1321],[768, 1379],[856, 1379],[856, 1321],[768, 1321]]]},"properties":{"objectType":"annotation","name":"total","classification":{"name":"total","color":[255, 255, 0]}}}]}