{"type":"FeatureCollection","features":[{"type":"Feature","id":"f481f080-4387-406f-b7fe-0e05ea93753b","geometry":{"type":"Polygon","coordinates":[[[211, 384],[211, 580],[645, 580],[645, 384],[211, 384]]]},"properties":{"objectType":"annotation","name":"address","classification":{"name":"address","color":[0, 0, 255]}}},{"type":"Feature","id":"63748d0a-f76d-49bc-b918-c3395d027212","geometry":{"type":"Polygon","coordinates":[[[155, 326],[155, 385],[699, 385],[699, 326],[155, 326]]]},"properties":{"objectType":"annotation","name":"company","classification":{"name":"company","color":[255, 0, 0]}}},{"type":"Feature","id":"a69fcb19-0d70-4b08-ae0d-1319cde42ac2","geometry":{"type":"Polygon","coordinates":[[[647, 789],[647, 840],[820, 840],[820, 789],[647, 789]]]},"properties":{"objectType":"annotation","name":"date","classification":{"name":"date","color":[0, 255, 0]}}},{"type":"Feature","id":"d8360c35-9194-4108-a47b-92169c7bc661","geometry":{"type":"Polygon","coordinates":[[[669, 1087],[669, 1146],[785, 1146],[785, 1087],[669, 1087]]]},"properties":{"objectType":"annotation","name":"total","classification":{"name":"total","color":[255, 255, 0]}}}]}