{"type":"FeatureCollection","features":[{"type":"Feature","id":"cde16627-7c3c-48e4-8fb5-fa0e489e66ad","geometry":{"type":"Polygon","coordinates":[[[95, 425],[95, 550],[776, 550],[776, 425],[95, 425]]]},"properties":{"objectType":"annotation","name":"address","classification":{"name":"address","color":[0, 0, 255]}}},{"type":"Feature","id":"5c4aa6f4-80bc-4bfe-b3a4-761e537923a9","geometry":{"type":"Polygon","coordinates":[[[151, 339],[151, 382],[725, 382],[725, 339],[151, 339]]]},"properties":{"objectType":"annotation","name":"company","classification":{"name":"company","color":[255, 0, 0]}}},{"type":"Feature","id":"d08bea7c-df5a-4cd4-8fe6-47b375a23ff3","geometry":{"type":"Polygon","coordinates":[[[30, 1305],[30, 1342],[210, 1342],[210, 1305],[30, 1305]]]},"properties":{"objectType":"annotation","name":"date","classification":{"name":"date","color":[0, 255, 0]}}},{"type":"Feature","id":"9816dc74-e22e-4f91-839f-902aa5680cf7","geometry":{"type":"Polygon","coordinates":[[[750, 967],[750, 1014],[873, 1014],[873, 967],[750, 967]]]},"properties":{"objectType":"annotation","name":"total","classification":{"name":"total","color":[255, 255, 0]}}}]}