{"type":"FeatureCollection","features":[{"type":"Feature","id":"61820316-ba60-4601-bfa5-78dc5d3da1b1","geometry":{"type":"Polygon","coordinates":[[[73, 194],[73, 274],[503, 274],[503, 194],[73, 194]]]},"properties":{"objectType":"annotation","name":"company","classification":{"name":"company","color":[255, 0, 0]}}},{"type":"Feature","id":"fbd8e02c-797d-4f5d-a251-a8fac59f779b","geometry":{"type":"Polygon","coordinates":[[[106, 297],[106, 376],[470, 376],[470, 297],[106, 297]]]},"properties":{"objectType":"annotation","name":"address","classification":{"name":"address","color":[0, 0, 255]}}},{"type":"Feature","id":"2fcde0a4-9bde-4660-be75-8bfa5eede7e5","geometry":{"type":"Polygon","coordinates":[[[411, 945],[411, 978],[543, 978],[543, 945],[411, 945]]]},"properties":{"objectType":"annotation","name":"total","classification":{"name":"total","color":[255, 255, 0]}}},{"type":"Feature","id":"d5aebc24-d2cf-4a2e-9a49-4ba569a8c58d","geometry":{"type":"Polygon","coordinates":[[[373, 583],[373, 633],[523, 633],[523, 583],[373, 583]]]},"properties":{"objectType":"annotation","name":"date","classification":{"name":"date","color":[0, 255, 0]}}}]}