{"type":"FeatureCollection","features":[{"type":"Feature","id":"0c296bf5-4df7-4def-bf07-b78eedd0311a","geometry":{"type":"Polygon","coordinates":[[[112, 374],[112, 519],[758, 519],[758, 374],[112, 374]]]},"properties":{"objectType":"annotation","name":"address","classification":{"name":"address","color":[0, 0, 255]}}},{"type":"Feature","id":"e1d43b4b-3ce6-43a5-8d0a-b432448d2fba","geometry":{"type":"Polygon","coordinates":[[[233, 276],[233, 314],[624, 314],[624, 276],[233, 276]]]},"properties":{"objectType":"annotation","name":"company","classification":{"name":"company","color":[255, 0, 0]}}},{"type":"Feature","id":"8a1766f9-6451-46b3-a738-e6c89019453c","geometry":{"type":"Polygon","coordinates":[[[204, 776],[204, 816],[429, 816],[429, 776],[204, 776]]]},"properties":{"objectType":"annotation","name":"date","classification":{"name":"date","color":[0, 255, 0]}}},{"type":"Feature","id":"d8271bf8-fc50-421e-8a5e-ce2f15d26f7f","geometry":{"type":"Polygon","coordinates":[[[671, 1465],[671, 1531],[835, 1531],[835, 1465],[671, 1465]]]},"properties":{"objectType":"annotation","name":"total","classification":{"name":"total","color":[255, 255, 0]}}}]}