{"type":"FeatureCollection","features":[{"type":"Feature","id":"abee55a3-465d-4d93-af21-8b0679298eae","geometry":{"type":"Polygon","coordinates":[[[144, 265],[144, 322],[779, 322],[779, 265],[144, 265]]]},"properties":{"objectType":"annotation","name":"company","classification":{"name":"company","color":[255, 0, 0]}}},{"type":"Feature","id":"a8447336-f6fb-4fc8-a559-71f842030f47","geometry":{"type":"Polygon","coordinates":[[[208, 363],[208, 477],[726, 477],[726, 363],[208, 363]]]},"properties":{"objectType":"annotation","name":"address","classification":{"name":"address","color":[0, 0, 255]}}},{"type":"Feature","id":"97385328-a4ef-415f-aa95-6270df494ec2","geometry":{"type":"Polygon","coordinates":[[[682, 931],[682, 973],[893, 973],[893, 931],[682, 931]]]},"properties":{"objectType":"annotation","name":"date","classification":{"name":"date","color":[0, 255, 0]}}},{"type":"Feature","id":"b4fedb25-e02f-4e3b-b787-e52de55d92e6","geometry":{"type":"Polygon","coordinates":[[[669, 1775],[669, 1835],[808, 1835],[808, 1775],[669, 1775]]]},"properties":{"objectType":"annotation","name":"total","classification":{"name":"total","color":[255, 255, 0]}}}]}