{"type":"FeatureCollection","features":[{"type":"Feature","id":"48696cef-4ef0-4c0f-9286-02409fb8d350","geometry":{"type":"Polygon","coordinates":[[[172, 342],[172, 386],[680, 386],[680, 342],[172, 342]]]},"properties":{"objectType":"annotation","name":"company","classification":{"name":"company","color":[255, 0, 0]}}},{"type":"Feature","id":"94e3dd54-c743-4d71-894b-e92a435a0575","geometry":{"type":"Polygon","coordinates":[[[653, 791],[653, 839],[813, 839],[813, 791],[653, 791]]]},"properties":{"objectType":"annotation","name":"date","classification":{"name":"date","color":[0, 255, 0]}}},{"type":"Feature","id":"de648ab6-d88a-423b-b4c8-92a93342d5e2","geometry":{"type":"Polygon","coordinates":[[[191, 389],[191, 583],[667, 583],[667, 389],[191, 389]]]},"properties":{"objectType":"annotation","name":"address","classification":{"name":"address","color":[0, 0, 255]}}},{"type":"Feature","id":"4ed4b869-12e3-462f-9d8f-91351197c2e9","geometry":{"type":"Polygon","coordinates":[[[670, 1037],[670, 1095],[779, 1095],[779, 1037],[670, 1037]]]},"properties":{"objectType":"annotation","name":"total","classification":{"name":"total","color":[255, 255, 0]}}}]}