{"type":"FeatureCollection","features":[{"type":"Feature","id":"5df93c1f-2387-4691-aec8-ae78dff1190d","geometry":{"type":"Polygon","coordinates":[[[37, 67],[37, 93],[595, 93],[595, 67],[37, 67]]]},"properties":{"objectType":"annotation","name":"company","classification":{"name":"company","color":[255, 0, 0]}}},{"type":"Feature","id":"8bb6e08d-a4bb-411f-8b55-04fb54d33881","geometry":{"type":"Polygon","coordinates":[[[148, 88],[148, 144],[467, 144],[467, 88],[148, 88]]]},"properties":{"objectType":"annotation","name":"address","classification":{"name":"address","color":[0, 0, 255]}}},{"type":"Feature","id":"2ec42db4-5b86-4aba-bcac-2bb80d7c9411","geometry":{"type":"Polygon","coordinates":[[[296, 455],[296, 490],[423, 490],[423, 455],[296, 455]]]},"properties":{"objectType":"annotation","name":"date","classification":{"name":"date","color":[0, 255, 0]}}},{"type":"Feature","id":"982ebe68-6b8c-45e6-8e63-1bd3bbaf0780","geometry":{"type":"Polygon","coordinates":[[[438, 923],[438, 974],[520, 974],[520, 923],[438, 923]]]},"properties":{"objectType":"annotation","name":"total","classification":{"name":"total","color":[255, 255, 0]}}}]}