{"type":"FeatureCollection","features":[{"type":"Feature","id":"d29e2da5-97fb-478b-a160-e4460a80c32f","geometry":{"type":"Polygon","coordinates":[[[41, 211],[41, 312],[341, 312],[341, 211],[41, 211]]]},"properties":{"objectType":"annotation","name":"address","classification":{"name":"address","color":[0, 0, 255]}}},{"type":"Feature","id":"3eaa0ab0-dd69-48c3-887b-b672aef96da4","geometry":{"type":"Polygon","coordinates":[[[36, 141],[36, 170],[455, 170],[455, 141],[36, 141]]]},"properties":{"objectType":"annotation","name":"company","classification":{"name":"company","color":[255, 0, 0]}}},{"type":"Feature","id":"d9a2cae5-14bb-4b1e-8313-6cb8dda80c71","geometry":{"type":"Polygon","coordinates":[[[212, 527],[212, 556],[308, 556],[308, 527],[212, 527]]]},"properties":{"objectType":"annotation","name":"date","classification":{"name":"date","color":[0, 255, 0]}}},{"type":"Feature","id":"707b5cde-7442-4873-ad31-3e897abf6fba","geometry":{"type":"Polygon","coordinates":[[[344, 766],[344, 807],[408, 807],[408, 766],[344, 766]]]},"properties":{"objectType":"annotation","name":"total","classification":{"name":"total","color":[255, 255, 0]}}}]}