{"type":"FeatureCollection","features":[{"type":"Feature","id":"0e65ad6e-9c0c-4e63-abce-2f3390fb4f71","geometry":{"type":"Polygon","coordinates":[[[24, 70],[24, 97],[592, 97],[592, 70],[24, 70]]]},"properties":{"objectType":"annotation","name":"company","classification":{"name":"company","color":[255, 0, 0]}}},{"type":"Feature","id":"7684eef6-d43f-4be4-adb7-214905995b52","geometry":{"type":"Polygon","coordinates":[[[155, 99],[155, 145],[466, 145],[466, 99],[155, 99]]]},"properties":{"objectType":"annotation","name":"address","classification":{"name":"address","color":[0, 0, 255]}}},{"type":"Feature","id":"10ee6891-e4f5-4e62-8094-d9cee2c342fd","geometry":{"type":"Polygon","coordinates":[[[435, 861],[435, 908],[523, 908],[523, 861],[435, 861]]]},"properties":{"objectType":"annotation","name":"total","classification":{"name":"total","color":[255, 255, 0]}}},{"type":"Feature","id":"bf1c80fa-8516-4fb6-93d4-14b2806fddeb","geometry":{"type":"Polygon","coordinates":[[[297, 453],[297, 495],[424, 495],[424, 453],[297, 453]]]},"properties":{"objectType":"annotation","name":"date","classification":{"name":"date","color":[0, 255, 0]}}}]}