{"type":"FeatureCollection","features":[{"type":"Feature","id":"33a60d32-af0e-4da0-8e48-34ef7c200bb6","geometry":{"type":"Polygon","coordinates":[[[71, 194],[71, 390],[790, 390],[790, 194],[71, 194]]]},"properties":{"objectType":"annotation","name":"address","classification":{"name":"address","color":[0, 0, 255]}}},{"type":"Feature","id":"09b8f916-dfa2-4382-bbdf-2e7f8c5f1c2d","geometry":{"type":"Polygon","coordinates":[[[190, 144],[190, 187],[736, 187],[736, 144],[190, 144]]]},"properties":{"objectType":"annotation","name":"company","classification":{"name":"company","color":[255, 0, 0]}}},{"type":"Feature","id":"bd3fabdb-95c5-44bc-a7d9-f90a12594afc","geometry":{"type":"Polygon","coordinates":[[[229, 731],[229, 783],[431, 783],[431, 731],[229, 731]]]},"properties":{"objectType":"annotation","name":"date","classification":{"name":"date","color":[0, 255, 0]}}},{"type":"Feature","id":"56228215-88a1-4eee-8c1c-b32b143a2556","geometry":{"type":"Polygon","coordinates":[[[624, 1308],[624, 1362],[805, 1362],[805, 1308],[624, 1308]]]},"properties":{"objectType":"annotation","name":"total","classification":{"name":"total","color":[255, 255, 0]}}}]}