{"type":"FeatureCollection","features":[{"type":"Feature","id":"9a3ea783-4616-44a6-b229-50839ddada07","geometry":{"type":"Polygon","coordinates":[[[124, 352],[124, 479],[711, 479],[711, 352],[124, 352]]]},"properties":{"objectType":"annotation","name":"address","classification":{"name":"address","color":[0, 0, 255]}}},{"type":"Feature","id":"7df56863-8389-46a6-9394-3a8c2256640c","geometry":{"type":"Polygon","coordinates":[[[236, 266],[236, 305],[586, 305],[586, 266],[236, 266]]]},"properties":{"objectType":"annotation","name":"company","classification":{"name":"company","color":[255, 0, 0]}}},{"type":"Feature","id":"39d2cd34-df92-4113-97a4-46161f25de4f","geometry":{"type":"Polygon","coordinates":[[[608, 1200],[608, 1258],[765, 1258],[765, 1200],[608, 1200]]]},"properties":{"objectType":"annotation","name":"total","classification":{"name":"total","color":[255, 255, 0]}}},{"type":"Feature","id":"0cf5335e-9cc2-4c30-87e2-d005dfb1f19c","geometry":{"type":"Polygon","coordinates":[[[202, 702],[202, 733],[405, 733],[405, 702],[202, 702]]]},"properties":{"objectType":"annotation","name":"date","classification":{"name":"date","color":[0, 255, 0]}}}]}