{"type":"FeatureCollection","features":[{"type":"Feature","id":"bcd697b6-d4b1-481d-96c0-b7dd3552b8b1","geometry":{"type":"Polygon","coordinates":[[[37, 133],[37, 174],[537, 174],[537, 133],[37, 133]]]},"properties":{"objectType":"annotation","name":"company","classification":{"name":"company","color":[255, 0, 0]}}},{"type":"Feature","id":"3664190e-6cd2-41a4-8b6d-c90c6c0b300a","geometry":{"type":"Polygon","coordinates":[[[31, 184],[31, 266],[524, 266],[524, 184],[31, 184]]]},"properties":{"objectType":"annotation","name":"address","classification":{"name":"address","color":[0, 0, 255]}}},{"type":"Feature","id":"9bb25410-c911-4434-80fc-d447ea8cd677","geometry":{"type":"Polygon","coordinates":[[[167, 967],[167, 1003],[307, 1003],[307, 967],[167, 967]]]},"properties":{"objectType":"annotation","name":"date","classification":{"name":"date","color":[0, 255, 0]}}},{"type":"Feature","id":"5b2436eb-7b88-485b-be01-0f267dbb9734","geometry":{"type":"Polygon","coordinates":[[[463, 558],[463, 593],[553, 593],[553, 558],[463, 558]]]},"properties":{"objectType":"annotation","name":"total","classification":{"name":"total","color":[255, 255, 0]}}}]}