{"type":"FeatureCollection","features":[{"type":"Feature","id":"7eddfb6b-f43a-4950-9d53-33d40ddc0008","geometry":{"type":"Polygon","coordinates":[[[1678, 1133],[1678, 1428],[2706, 1428],[2706, 1133],[1678, 1133]]]},"properties":{"objectType":"annotation","name":"address","classification":{"name":"address","color":[0, 0, 255]}}},{"type":"Feature","id":"6404b76a-547b-4272-97b8-712e232d2483","geometry":{"type":"Polygon","coordinates":[[[1612, 1047],[1612, 1137],[2791, 1137],[2791, 1047],[1612, 1047]]]},"properties":{"objectType":"annotation","name":"company","classification":{"name":"company","color":[255, 0, 0]}}},{"type":"Feature","id":"a7fbc4ed-d037-4796-b197-d77c8ba17dba","geometry":{"type":"Polygon","coordinates":[[[2461, 3801],[2461, 3952],[2772, 3952],[2772, 3801],[2461, 3801]]]},"properties":{"objectType":"annotation","name":"total","classification":{"name":"total","color":[255, 255, 0]}}},{"type":"Feature","id":"7024e5b4-d9d6-4a9c-89cb-a5c7c99380a6","geometry":{"type":"Polygon","coordinates":[[[1244, 4696],[1244, 4797],[1697, 4797],[1697, 4696],[1244, 4696]]]},"properties":{"objectType":"annotation","name":"date","classification":{"name":"date","color":[0, 255, 0]}}}]}