{"type":"FeatureCollection","features":[{"type":"Feature","id":"1675f1cf-ed4e-4c0e-a6f2-8763ac0e5446","geometry":{"type":"Polygon","coordinates":[[[199, 335],[199, 395],[678, 395],[678, 335],[199, 335]]]},"properties":{"objectType":"annotation","name":"company","classification":{"name":"company","color":[255, 0, 0]}}},{"type":"Feature","id":"886d3ab9-9950-47f4-8be6-8250241c5db2","geometry":{"type":"Polygon","coordinates":[[[73, 446],[73, 588],[755, 588],[755, 446],[73, 446]]]},"properties":{"objectType":"annotation","name":"address","classification":{"name":"address","color":[0, 0, 255]}}},{"type":"Feature","id":"f1fbd950-7976-4718-8e2e-a3f7fe54e1c7","geometry":{"type":"Polygon","coordinates":[[[699, 1853],[699, 1907],[821, 1907],[821, 1853],[699, 1853]]]},"properties":{"objectType":"annotation","name":"total","classification":{"name":"total","color":[255, 255, 0]}}},{"type":"Feature","id":"53adecf9-73a8-4878-8131-90b99f1dea46","geometry":{"type":"Polygon","coordinates":[[[65, 2162],[65, 2200],[234, 2200],[234, 2162],[65, 2162]]]},"properties":{"objectType":"annotation","name":"date","classification":{"name":"date","color":[0, 255, 0]}}}]}