{"type":"FeatureCollection","features":[{"type":"Feature","id":"83b73109-ad7a-451c-a21d-8cf19f44b360","geometry":{"type":"Polygon","coordinates":[[[38, 120],[38, 173],[539, 173],[539, 120],[38, 120]]]},"properties":{"objectType":"annotation","name":"company","classification":{"name":"company","color":[255, 0, 0]}}},{"type":"Feature","id":"0369c31c-78a5-475d-bd64-1b0f9d087fb9","geometry":{"type":"Polygon","coordinates":[[[42, 169],[42, 236],[537, 236],[537, 169],[42, 169]]]},"properties":{"objectType":"annotation","name":"address","classification":{"name":"address","color":[0, 0, 255]}}},{"type":"Feature","id":"3b248b04-098f-406b-bff0-aa01bbb22d23","geometry":{"type":"Polygon","coordinates":[[[477, 635],[477, 670],[576, 670],[576, 635],[477, 635]]]},"properties":{"objectType":"annotation","name":"total","classification":{"name":"total","color":[255, 255, 0]}}},{"type":"Feature","id":"a76616e4-8a5a-4730-9412-457da87b8020","geometry":{"type":"Polygon","coordinates":[[[429, 1020],[429, 1051],[559, 1051],[559, 1020],[429, 1020]]]},"properties":{"objectType":"annotation","name":"date","classification":{"name":"date","color":[0, 255, 0]}}}]}