{"type":"FeatureCollection","features":[{"type":"Feature","id":"469f80be-0c78-44cb-b1cb-c6a3ec73ce05","geometry":{"type":"Polygon","coordinates":[[[23, 72],[23, 98],[590, 98],[590, 72],[23, 72]]]},"properties":{"objectType":"annotation","name":"company","classification":{"name":"company","color":[255, 0, 0]}}},{"type":"Feature","id":"ed906089-3cb8-4075-8950-9bfa3e368bbf","geometry":{"type":"Polygon","coordinates":[[[149, 101],[149, 146],[463, 146],[463, 101],[149, 101]]]},"properties":{"objectType":"annotation","name":"address","classification":{"name":"address","color":[0, 0, 255]}}},{"type":"Feature","id":"d6c8dd41-4f51-4f0e-a843-a53812d9cf48","geometry":{"type":"Polygon","coordinates":[[[428, 885],[428, 932],[525, 932],[525, 885],[428, 885]]]},"properties":{"objectType":"annotation","name":"total","classification":{"name":"total","color":[255, 255, 0]}}},{"type":"Feature","id":"09eff1f2-1db5-4c44-827c-38d477fc02a8","geometry":{"type":"Polygon","coordinates":[[[295, 457],[295, 495],[414, 495],[414, 457],[295, 457]]]},"properties":{"objectType":"annotation","name":"date","classification":{"name":"date","color":[0, 255, 0]}}}]}