{"type":"FeatureCollection","features":[{"type":"Feature","id":"2c9a25c2-c10a-4dd9-b9a3-49f1ee2d8fe5","geometry":{"type":"Polygon","coordinates":[[[124, 238],[124, 276],[453, 276],[453, 238],[124, 238]]]},"properties":{"objectType":"annotation","name":"company","classification":{"name":"company","color":[255, 0, 0]}}},{"type":"Feature","id":"a574874d-ce8c-43ed-b3ee-f8fd5fd52bc8","geometry":{"type":"Polygon","coordinates":[[[55, 300],[55, 388],[514, 388],[514, 300],[55, 300]]]},"properties":{"objectType":"annotation","name":"address","classification":{"name":"address","color":[0, 0, 255]}}},{"type":"Feature","id":"75ad5300-aab0-46a7-9e12-ac33f774b392","geometry":{"type":"Polygon","coordinates":[[[17, 1092],[17, 1120],[129, 1120],[129, 1092],[17, 1092]]]},"properties":{"objectType":"annotation","name":"date","classification":{"name":"date","color":[0, 255, 0]}}},{"type":"Feature","id":"317e4d46-4d27-4b99-88ba-63e5c5b547cc","geometry":{"type":"Polygon","coordinates":[[[503, 868],[503, 892],[571, 892],[571, 868],[503, 868]]]},"properties":{"objectType":"annotation","name":"total","classification":{"name":"total","color":[255, 255, 0]}}}]}