{"type":"FeatureCollection","features":[{"type":"Feature","id":"87303455-198e-4559-a10f-9a37691eeb8d","geometry":{"type":"Polygon","coordinates":[[[34, 124],[34, 166],[527, 166],[527, 124],[34, 124]]]},"properties":{"objectType":"annotation","name":"company","classification":{"name":"company","color":[255, 0, 0]}}},{"type":"Feature","id":"2f437a64-ec51-41b2-aa44-372b01568c6b","geometry":{"type":"Polygon","coordinates":[[[34, 180],[34, 229],[517, 229],[517, 180],[34, 180]]]},"properties":{"objectType":"annotation","name":"address","classification":{"name":"address","color":[0, 0, 255]}}},{"type":"Feature","id":"b769691f-93e1-49e8-bf04-324e55ec10a0","geometry":{"type":"Polygon","coordinates":[[[475, 543],[475, 591],[540, 591],[540, 543],[475, 543]]]},"properties":{"objectType":"annotation","name":"total","classification":{"name":"total","color":[255, 255, 0]}}},{"type":"Feature","id":"09d637fe-1b4f-4f3e-be3f-6f7ed494ce1d","geometry":{"type":"Polygon","coordinates":[[[398, 939],[398, 975],[536, 975],[536, 939],[398, 939]]]},"properties":{"objectType":"annotation","name":"date","classification":{"name":"date","color":[0, 255, 0]}}}]}