{"type":"FeatureCollection","features":[{"type":"Feature","id":"892e6c14-3f9d-4149-8649-2c93786c4ca3","geometry":{"type":"Polygon","coordinates":[[[163, 282],[163, 340],[558, 340],[558, 282],[163, 282]]]},"properties":{"objectType":"annotation","name":"company","classification":{"name":"company","color":[255, 0, 0]}}},{"type":"Feature","id":"d9edc37b-2f85-413a-a638-55448270527a","geometry":{"type":"Polygon","coordinates":[[[54, 365],[54, 465],[645, 465],[645, 365],[54, 365]]]},"properties":{"objectType":"annotation","name":"address","classification":{"name":"address","color":[0, 0, 255]}}},{"type":"Feature","id":"95a8bf80-3acd-4789-bb77-279d501df1a1","geometry":{"type":"Polygon","coordinates":[[[609, 962],[609, 1000],[716, 1000],[716, 962],[609, 962]]]},"properties":{"objectType":"annotation","name":"total","classification":{"name":"total","color":[255, 255, 0]}}},{"type":"Feature","id":"5dc8e6de-7a50-4519-a737-0c50c7a86d6c","geometry":{"type":"Polygon","coordinates":[[[18, 1165],[18, 1198],[175, 1198],[175, 1165],[18, 1165]]]},"properties":{"objectType":"annotation","name":"date","classification":{"name":"date","color":[0, 255, 0]}}}]}