{"type":"FeatureCollection","features":[{"type":"Feature","id":"7f8ed60d-9431-4cf6-a672-528d7b7dd03a","geometry":{"type":"Polygon","coordinates":[[[105, 419],[105, 548],[788, 548],[788, 419],[105, 419]]]},"properties":{"objectType":"annotation","name":"address","classification":{"name":"address","color":[0, 0, 255]}}},{"type":"Feature","id":"1007d7f3-cece-4baf-99b1-b146462cfa61","geometry":{"type":"Polygon","coordinates":[[[155, 336],[155, 388],[750, 388],[750, 336],[155, 336]]]},"properties":{"objectType":"annotation","name":"company","classification":{"name":"company","color":[255, 0, 0]}}},{"type":"Feature","id":"d77c16f7-959e-4af4-b77c-4a20b94bc99d","geometry":{"type":"Polygon","coordinates":[[[767, 1311],[767, 1357],[882, 1357],[882, 1311],[767, 1311]]]},"properties":{"objectType":"annotation","name":"total","classification":{"name":"total","color":[255, 255, 0]}}},{"type":"Feature","id":"b90085f4-729a-4215-bd80-6d8688786295","geometry":{"type":"Polygon","coordinates":[[[42, 1643],[42, 1680],[225, 1680],[225, 1643],[42, 1643]]]},"properties":{"objectType":"annotation","name":"date","classification":{"name":"date","color":[0, 255, 0]}}}]}