{"type":"FeatureCollection","features":[{"type":"Feature","id":"9fdb4a0e-6d95-4f27-9280-84c776432c48","geometry":{"type":"Polygon","coordinates":[[[1575, 447],[1575, 557],[3042, 557],[3042, 447],[1575, 447]]]},"properties":{"objectType":"annotation","name":"company","classification":{"name":"company","color":[255, 0, 0]}}},{"type":"Feature","id":"78eabe8a-d920-4fc7-8fc4-fce4c42581c5","geometry":{"type":"Polygon","coordinates":[[[1584, 584],[1584, 830],[3037, 830],[3037, 584],[1584, 584]]]},"properties":{"objectType":"annotation","name":"address","classification":{"name":"address","color":[0, 0, 255]}}},{"type":"Feature","id":"33370c13-7bab-4c67-a375-04ad73bd4d87","geometry":{"type":"Polygon","coordinates":[[[2763, 2867],[2763, 3065],[3093, 3065],[3093, 2867],[2763, 2867]]]},"properties":{"objectType":"annotation","name":"total","classification":{"name":"total","color":[255, 255, 0]}}},{"type":"Feature","id":"a1a2446c-6811-42ae-a9d8-1764c4902375","geometry":{"type":"Polygon","coordinates":[[[2584, 1103],[2584, 1226],[3093, 1226],[3093, 1103],[2584, 1103]]]},"properties":{"objectType":"annotation","name":"date","classification":{"name":"date","color":[0, 255, 0]}}}]}