{"type":"FeatureCollection","features":[{"type":"Feature","id":"d385a0a1-b9b1-4a8c-b263-405fe78c760d","geometry":{"type":"Polygon","coordinates":[[[26, 88],[26, 116],[599, 116],[599, 88],[26, 88]]]},"properties":{"objectType":"annotation","name":"company","classification":{"name":"company","color":[255, 0, 0]}}},{"type":"Feature","id":"628eeb0b-2df2-451e-8190-c855c75b9775","geometry":{"type":"Polygon","coordinates":[[[152, 113],[152, 162],[476, 162],[476, 113],[152, 113]]]},"properties":{"objectType":"annotation","name":"address","classification":{"name":"address","color":[0, 0, 255]}}},{"type":"Feature","id":"e4b6f085-4b5e-4eef-bf2f-3a5340eb0178","geometry":{"type":"Polygon","coordinates":[[[303, 482],[303, 518],[424, 518],[424, 482],[303, 482]]]},"properties":{"objectType":"annotation","name":"date","classification":{"name":"date","color":[0, 255, 0]}}},{"type":"Feature","id":"29e82859-01c4-4ae9-9fe0-a3358410bd0f","geometry":{"type":"Polygon","coordinates":[[[436, 1003],[436, 1048],[527, 1048],[527, 1003],[436, 1003]]]},"properties":{"objectType":"annotation","name":"total","classification":{"name":"total","color":[255, 255, 0]}}}]}