{"type":"FeatureCollection","features":[{"type":"Feature","id":"f0682e61-de5b-4d96-9de3-232c04a51cab","geometry":{"type":"Polygon","coordinates":[[[20, 97],[20, 121],[596, 121],[596, 97],[20, 97]]]},"properties":{"objectType":"annotation","name":"company","classification":{"name":"company","color":[255, 0, 0]}}},{"type":"Feature","id":"ce8760bd-6d04-4bca-9a4c-10404ae5752c","geometry":{"type":"Polygon","coordinates":[[[445, 903],[445, 950],[519, 950],[519, 903],[445, 903]]]},"properties":{"objectType":"annotation","name":"total","classification":{"name":"total","color":[255, 255, 0]}}},{"type":"Feature","id":"f991f07f-2bfa-40d5-854e-c4a8ad391b36","geometry":{"type":"Polygon","coordinates":[[[148, 126],[148, 169],[463, 169],[463, 126],[148, 126]]]},"properties":{"objectType":"annotation","name":"address","classification":{"name":"address","color":[0, 0, 255]}}},{"type":"Feature","id":"269f2d43-f21c-4211-8dd2-e2c55a468c7b","geometry":{"type":"Polygon","coordinates":[[[293, 491],[293, 513],[421, 513],[421, 491],[293, 491]]]},"properties":{"objectType":"annotation","name":"date","classification":{"name":"date","color":[0, 255, 0]}}}]}