{"type":"FeatureCollection","features":[{"type":"Feature","id":"6dd83fd7-eb20-4d75-8626-b66be7db0781","geometry":{"type":"Polygon","coordinates":[[[217, 219],[217, 263],[789, 263],[789, 219],[217, 219]]]},"properties":{"objectType":"annotation","name":"company","classification":{"name":"company","color":[255, 0, 0]}}},{"type":"Feature","id":"32ac10e9-8ce7-470d-b27b-942edf6c92c1","geometry":{"type":"Polygon","coordinates":[[[59, 368],[59, 462],[896, 462],[896, 368],[59, 368]]]},"properties":{"objectType":"annotation","name":"address","classification":{"name":"address","color":[0, 0, 255]}}},{"type":"Feature","id":"4ec40bee-f69e-44d7-bc7a-1a0d2e7c20d4","geometry":{"type":"Polygon","coordinates":[[[355, 771],[355, 816],[582, 816],[582, 771],[355, 771]]]},"properties":{"objectType":"annotation","name":"date","classification":{"name":"date","color":[0, 255, 0]}}},{"type":"Feature","id":"aec06c5e-df60-4f66-8f6a-e567720fa00f","geometry":{"type":"Polygon","coordinates":[[[606, 1696],[606, 1741],[825, 1741],[825, 1696],[606, 1696]]]},"properties":{"objectType":"annotation","name":"total","classification":{"name":"total","color":[255, 255, 0]}}}]}