{"type":"FeatureCollection","features":[{"type":"Feature","id":"0eb61af7-1f4e-49f1-b8c6-403a1fd75f59","geometry":{"type":"Polygon","coordinates":[[[72, 318],[72, 392],[716, 392],[716, 318],[72, 318]]]},"properties":{"objectType":"annotation","name":"company","classification":{"name":"company","color":[255, 0, 0]}}},{"type":"Feature","id":"ce475eaa-50e7-4e75-aaec-65dcf3709399","geometry":{"type":"Polygon","coordinates":[[[82, 419],[82, 504],[711, 504],[711, 419],[82, 419]]]},"properties":{"objectType":"annotation","name":"address","classification":{"name":"address","color":[0, 0, 255]}}},{"type":"Feature","id":"24505cde-5ea7-4495-a6b8-58e03da72177","geometry":{"type":"Polygon","coordinates":[[[216, 641],[216, 693],[395, 693],[395, 641],[216, 641]]]},"properties":{"objectType":"annotation","name":"date","classification":{"name":"date","color":[0, 255, 0]}}},{"type":"Feature","id":"05399756-e22e-4d0b-a18a-fbcb61301e94","geometry":{"type":"Polygon","coordinates":[[[524, 1376],[524, 1426],[713, 1426],[713, 1376],[524, 1376]]]},"properties":{"objectType":"annotation","name":"total","classification":{"name":"total","color":[255, 255, 0]}}}]}