{"type":"FeatureCollection","features":[{"type":"Feature","id":"2e1fd06f-9a42-42fd-872d-b690d40e7bda","geometry":{"type":"Polygon","coordinates":[[[66, 316],[66, 378],[714, 378],[714, 316],[66, 316]]]},"properties":{"objectType":"annotation","name":"company","classification":{"name":"company","color":[255, 0, 0]}}},{"type":"Feature","id":"af17b865-621a-4750-85fd-d72334f0a922","geometry":{"type":"Polygon","coordinates":[[[68, 405],[68, 494],[718, 494],[718, 405],[68, 405]]]},"properties":{"objectType":"annotation","name":"address","classification":{"name":"address","color":[0, 0, 255]}}},{"type":"Feature","id":"f9b1f444-025f-45aa-912f-7cec8e45c6aa","geometry":{"type":"Polygon","coordinates":[[[210, 633],[210, 681],[395, 681],[395, 633],[210, 633]]]},"properties":{"objectType":"annotation","name":"date","classification":{"name":"date","color":[0, 255, 0]}}},{"type":"Feature","id":"3e9b9dc3-b53f-429e-a106-da64b14db264","geometry":{"type":"Polygon","coordinates":[[[527, 1319],[527, 1364],[700, 1364],[700, 1319],[527, 1319]]]},"properties":{"objectType":"annotation","name":"total","classification":{"name":"total","color":[255, 255, 0]}}}]}