{"type":"FeatureCollection","features":[{"type":"Feature","id":"91bc80ae-9000-407d-b457-cd3af08b895b","geometry":{"type":"Polygon","coordinates":[[[113, 308],[113, 418],[689, 418],[689, 308],[113, 308]]]},"properties":{"objectType":"annotation","name":"address","classification":{"name":"address","color":[0, 0, 255]}}},{"type":"Feature","id":"46ca7fd8-9c78-46f3-a46d-26c36b7b3932","geometry":{"type":"Polygon","coordinates":[[[214, 238],[214, 277],[612, 277],[612, 238],[214, 238]]]},"properties":{"objectType":"annotation","name":"company","classification":{"name":"company","color":[255, 0, 0]}}},{"type":"Feature","id":"25d1f8a9-a19a-4691-a0c2-a363dfd01085","geometry":{"type":"Polygon","coordinates":[[[671, 855],[671, 903],[761, 903],[761, 855],[671, 855]]]},"properties":{"objectType":"annotation","name":"total","classification":{"name":"total","color":[255, 255, 0]}}},{"type":"Feature","id":"0d1bab2d-decc-4b47-9940-14b782711072","geometry":{"type":"Polygon","coordinates":[[[74, 1045],[74, 1080],[222, 1080],[222, 1045],[74, 1045]]]},"properties":{"objectType":"annotation","name":"date","classification":{"name":"date","color":[0, 255, 0]}}}]}