{"type":"FeatureCollection","features":[{"type":"Feature","id":"3c59981b-e3a4-48ad-8ae7-5f02140d62c9","geometry":{"type":"Polygon","coordinates":[[[64, 83],[64, 159],[538, 159],[538, 83],[64, 83]]]},"properties":{"objectType":"annotation","name":"company","classification":{"name":"company","color":[255, 0, 0]}}},{"type":"Feature","id":"11a312e6-e6ae-490f-abcd-58dc51ff3df2","geometry":{"type":"Polygon","coordinates":[[[98, 181],[98, 259],[486, 259],[486, 181],[98, 181]]]},"properties":{"objectType":"annotation","name":"address","classification":{"name":"address","color":[0, 0, 255]}}},{"type":"Feature","id":"51b0672d-2593-4134-879e-7a78d4ee91d3","geometry":{"type":"Polygon","coordinates":[[[381, 478],[381, 508],[526, 508],[526, 478],[381, 478]]]},"properties":{"objectType":"annotation","name":"date","classification":{"name":"date","color":[0, 255, 0]}}},{"type":"Feature","id":"1655f8d7-0194-440c-8a2b-26360661a5e7","geometry":{"type":"Polygon","coordinates":[[[398, 827],[398, 857],[559, 857],[559, 827],[398, 827]]]},"properties":{"objectType":"annotation","name":"total","classification":{"name":"total","color":[255, 255, 0]}}}]}