{"type":"FeatureCollection","features":[{"type":"Feature","id":"1164f8d2-d004-421b-9b79-2899e222fcba","geometry":{"type":"Polygon","coordinates":[[[118, 370],[118, 513],[766, 513],[766, 370],[118, 370]]]},"properties":{"objectType":"annotation","name":"address","classification":{"name":"address","color":[0, 0, 255]}}},{"type":"Feature","id":"71b64e66-e432-43aa-9c89-1da180352442","geometry":{"type":"Polygon","coordinates":[[[240, 272],[240, 313],[635, 313],[635, 272],[240, 272]]]},"properties":{"objectType":"annotation","name":"company","classification":{"name":"company","color":[255, 0, 0]}}},{"type":"Feature","id":"486e4f38-71e7-4a1c-a31b-d3d5cbfeb4c0","geometry":{"type":"Polygon","coordinates":[[[200, 772],[200, 811],[434, 811],[434, 772],[200, 772]]]},"properties":{"objectType":"annotation","name":"date","classification":{"name":"date","color":[0, 255, 0]}}},{"type":"Feature","id":"e72e411a-7b5e-4e76-9eeb-b5608ab3aad8","geometry":{"type":"Polygon","coordinates":[[[667, 1446],[667, 1531],[856, 1531],[856, 1446],[667, 1446]]]},"properties":{"objectType":"annotation","name":"total","classification":{"name":"total","color":[255, 255, 0]}}}]}