{"type":"FeatureCollection","features":[{"type":"Feature","id":"31887b73-89ac-4a18-a517-200e979aa491","geometry":{"type":"Polygon","coordinates":[[[189, 898],[189, 932],[329, 932],[329, 898],[189, 898]]]},"properties":{"objectType":"annotation","name":"date","classification":{"name":"date","color":[0, 255, 0]}}},{"type":"Feature","id":"8f9e4c81-0014-4289-a8a5-467074111fd2","geometry":{"type":"Polygon","coordinates":[[[128, 450],[128, 492],[692, 492],[692, 450],[128, 450]]]},"properties":{"objectType":"annotation","name":"company","classification":{"name":"company","color":[255, 0, 0]}}},{"type":"Feature","id":"63adbe91-d202-4e1c-914d-4a0d749f1f77","geometry":{"type":"Polygon","coordinates":[[[117, 498],[117, 642],[652, 642],[652, 498],[117, 498]]]},"properties":{"objectType":"annotation","name":"address","classification":{"name":"address","color":[0, 0, 255]}}},{"type":"Feature","id":"e1cfb8c2-c205-41d5-a0da-fe558521e285","geometry":{"type":"Polygon","coordinates":[[[585, 1428],[585, 1487],[718, 1487],[718, 1428],[585, 1428]]]},"properties":{"objectType":"annotation","name":"total","classification":{"name":"total","color":[255, 255, 0]}}}]}