{"type":"FeatureCollection","features":[{"type":"Feature","id":"ab1b3e80-1eb6-4c58-af19-edae91a5529f","geometry":{"type":"Polygon","coordinates":[[[564, 1842],[564, 1909],[742, 1909],[742, 1842],[564, 1842]]]},"properties":{"objectType":"annotation","name":"total","classification":{"name":"total","color":[255, 255, 0]}}},{"type":"Feature","id":"f20ddfff-f6d4-418d-a716-06b937919ea9","geometry":{"type":"Polygon","coordinates":[[[103, 274],[103, 318],[686, 318],[686, 274],[103, 274]]]},"properties":{"objectType":"annotation","name":"company","classification":{"name":"company","color":[255, 0, 0]}}},{"type":"Feature","id":"247479e3-7a34-44bd-84c7-790ee141eeca","geometry":{"type":"Polygon","coordinates":[[[163, 832],[163, 868],[385, 868],[385, 832],[163, 832]]]},"properties":{"objectType":"annotation","name":"date","classification":{"name":"date","color":[0, 255, 0]}}},{"type":"Feature","id":"c94db93a-6498-413e-a675-6bbf22e2b749","geometry":{"type":"Polygon","coordinates":[[[162, 354],[162, 479],[586, 479],[586, 354],[162, 354]]]},"properties":{"objectType":"annotation","name":"address","classification":{"name":"address","color":[0, 0, 255]}}}]}