{"type":"FeatureCollection","features":[{"type":"Feature","id":"8345e860-fb12-449c-b0cc-ac7f54eee26a","geometry":{"type":"Polygon","coordinates":[[[43, 185],[43, 232],[508, 232],[508, 185],[43, 185]]]},"properties":{"objectType":"annotation","name":"address","classification":{"name":"address","color":[0, 0, 255]}}},{"type":"Feature","id":"30a7db3a-bd4c-4d2a-90e0-dc8402223cac","geometry":{"type":"Polygon","coordinates":[[[29, 137],[29, 180],[529, 180],[529, 137],[29, 137]]]},"properties":{"objectType":"annotation","name":"company","classification":{"name":"company","color":[255, 0, 0]}}},{"type":"Feature","id":"6766dae6-8c2e-4448-bb3b-25f2d874d2e2","geometry":{"type":"Polygon","coordinates":[[[394, 950],[394, 977],[535, 977],[535, 950],[394, 950]]]},"properties":{"objectType":"annotation","name":"date","classification":{"name":"date","color":[0, 255, 0]}}},{"type":"Feature","id":"a1b9ca09-fba8-4278-8509-1e2f2f9270e8","geometry":{"type":"Polygon","coordinates":[[[462, 700],[462, 747],[559, 747],[559, 700],[462, 700]]]},"properties":{"objectType":"annotation","name":"total","classification":{"name":"total","color":[255, 255, 0]}}}]}