{"type":"FeatureCollection","features":[{"type":"Feature","id":"2ed2067a-d75c-43d4-acee-556bb57607b1","geometry":{"type":"Polygon","coordinates":[[[63, 351],[63, 373],[180, 373],[180, 351],[63, 351]]]},"properties":{"objectType":"annotation","name":"date","classification":{"name":"date","color":[0, 255, 0]}}},{"type":"Feature","id":"2c565ffe-99b0-4407-a126-eb7405058166","geometry":{"type":"Polygon","coordinates":[[[72, 125],[72, 151],[524, 151],[524, 125],[72, 125]]]},"properties":{"objectType":"annotation","name":"company","classification":{"name":"company","color":[255, 0, 0]}}},{"type":"Feature","id":"9fd4d294-b947-4c1f-9389-3613e7ffcd91","geometry":{"type":"Polygon","coordinates":[[[114, 214],[114, 301],[493, 301],[493, 214],[114, 214]]]},"properties":{"objectType":"annotation","name":"address","classification":{"name":"address","color":[0, 0, 255]}}},{"type":"Feature","id":"88b01017-ab34-42c3-a7ea-966fae65859e","geometry":{"type":"Polygon","coordinates":[[[468, 946],[468, 986],[545, 986],[545, 946],[468, 946]]]},"properties":{"objectType":"annotation","name":"total","classification":{"name":"total","color":[255, 255, 0]}}}]}