{"type":"FeatureCollection","features":[{"type":"Feature","id":"78678d8f-4fa4-4bf2-8290-4fa6421dcbd0","geometry":{"type":"Polygon","coordinates":[[[221, 263],[221, 313],[581, 313],[581, 263],[221, 263]]]},"properties":{"objectType":"annotation","name":"company","classification":{"name":"company","color":[255, 0, 0]}}},{"type":"Feature","id":"a3a3300f-3739-465f-9a04-d595072cdcea","geometry":{"type":"Polygon","coordinates":[[[92, 347],[92, 476],[719, 476],[719, 347],[92, 347]]]},"properties":{"objectType":"annotation","name":"address","classification":{"name":"address","color":[0, 0, 255]}}},{"type":"Feature","id":"28d56ac4-ac26-4262-b041-52442889048a","geometry":{"type":"Polygon","coordinates":[[[194, 692],[194, 729],[397, 729],[397, 692],[194, 692]]]},"properties":{"objectType":"annotation","name":"date","classification":{"name":"date","color":[0, 255, 0]}}},{"type":"Feature","id":"1f80e2fd-2fb5-4c6e-8bfc-f55b4b911b0e","geometry":{"type":"Polygon","coordinates":[[[601, 1198],[601, 1256],[775, 1256],[775, 1198],[601, 1198]]]},"properties":{"objectType":"annotation","name":"total","classification":{"name":"total","color":[255, 255, 0]}}}]}