{"type":"FeatureCollection","features":[{"type":"Feature","id":"9799b553-d13e-4457-a891-29d93948d8b8","geometry":{"type":"Polygon","coordinates":[[[43, 136],[43, 174],[532, 174],[532, 136],[43, 136]]]},"properties":{"objectType":"annotation","name":"company","classification":{"name":"company","color":[255, 0, 0]}}},{"type":"Feature","id":"5a3dca0d-cb25-411a-900c-c8dab0eb2f95","geometry":{"type":"Polygon","coordinates":[[[22, 181],[22, 228],[540, 228],[540, 181],[22, 181]]]},"properties":{"objectType":"annotation","name":"address","classification":{"name":"address","color":[0, 0, 255]}}},{"type":"Feature","id":"09eb4253-3215-47de-83ed-82d4f64848ea","geometry":{"type":"Polygon","coordinates":[[[402, 913],[402, 941],[542, 941],[542, 913],[402, 913]]]},"properties":{"objectType":"annotation","name":"date","classification":{"name":"date","color":[0, 255, 0]}}},{"type":"Feature","id":"f590e809-461f-4f8d-b56c-8ffade35c258","geometry":{"type":"Polygon","coordinates":[[[470, 525],[470, 559],[551, 559],[551, 525],[470, 525]]]},"properties":{"objectType":"annotation","name":"total","classification":{"name":"total","color":[255, 255, 0]}}}]}