{"type":"FeatureCollection","features":[{"type":"Feature","id":"a31e7714-e00e-4fb8-8def-3e0c5c65b1d1","geometry":{"type":"Polygon","coordinates":[[[93, 366],[93, 442],[839, 442],[839, 366],[93, 366]]]},"properties":{"objectType":"annotation","name":"company","classification":{"name":"company","color":[255, 0, 0]}}},{"type":"Feature","id":"8b5b7f1f-7f87-446b-b88f-aaa1ba5f91dd","geometry":{"type":"Polygon","coordinates":[[[84, 468],[84, 567],[832, 567],[832, 468],[84, 468]]]},"properties":{"objectType":"annotation","name":"address","classification":{"name":"address","color":[0, 0, 255]}}},{"type":"Feature","id":"58119cbf-c6a8-43f8-ae75-80189e22e02d","geometry":{"type":"Polygon","coordinates":[[[250, 733],[250, 795],[463, 795],[463, 733],[250, 733]]]},"properties":{"objectType":"annotation","name":"date","classification":{"name":"date","color":[0, 255, 0]}}},{"type":"Feature","id":"73113490-808f-4f3b-931f-d624fb1c4d89","geometry":{"type":"Polygon","coordinates":[[[617, 1607],[617, 1677],[832, 1677],[832, 1607],[617, 1607]]]},"properties":{"objectType":"annotation","name":"total","classification":{"name":"total","color":[255, 255, 0]}}}]}