{"type":"FeatureCollection","features":[{"type":"Feature","id":"b94b919a-2528-43f2-89e7-8b41f9fd9254","geometry":{"type":"Polygon","coordinates":[[[43, 138],[43, 180],[516, 180],[516, 138],[43, 138]]]},"properties":{"objectType":"annotation","name":"company","classification":{"name":"company","color":[255, 0, 0]}}},{"type":"Feature","id":"770a8da5-b42c-4cb5-8586-acbf689bfc5b","geometry":{"type":"Polygon","coordinates":[[[36, 190],[36, 234],[514, 234],[514, 190],[36, 190]]]},"properties":{"objectType":"annotation","name":"address","classification":{"name":"address","color":[0, 0, 255]}}},{"type":"Feature","id":"91c8017a-fe9d-4f6f-9a43-4b1bd5a236de","geometry":{"type":"Polygon","coordinates":[[[467, 560],[467, 596],[540, 596],[540, 560],[467, 560]]]},"properties":{"objectType":"annotation","name":"total","classification":{"name":"total","color":[255, 255, 0]}}},{"type":"Feature","id":"d5201197-0f7d-44ca-b177-e19fe44d61e3","geometry":{"type":"Polygon","coordinates":[[[405, 949],[405, 979],[536, 979],[536, 949],[405, 949]]]},"properties":{"objectType":"annotation","name":"date","classification":{"name":"date","color":[0, 255, 0]}}}]}