{"type":"FeatureCollection","features":[{"type":"Feature","id":"72b45d9f-5f4f-41b8-b1c1-4e8d9b8acebf","geometry":{"type":"Polygon","coordinates":[[[78, 255],[78, 354],[535, 354],[535, 255],[78, 255]]]},"properties":{"objectType":"annotation","name":"address","classification":{"name":"address","color":[0, 0, 255]}}},{"type":"Feature","id":"74a9894f-7876-4d19-8083-0e8db6f1919b","geometry":{"type":"Polygon","coordinates":[[[39, 201],[39, 239],[568, 239],[568, 201],[39, 201]]]},"properties":{"objectType":"annotation","name":"company","classification":{"name":"company","color":[255, 0, 0]}}},{"type":"Feature","id":"06d8110c-79d2-42ca-8df2-4ccb455250ee","geometry":{"type":"Polygon","coordinates":[[[384, 495],[384, 538],[539, 538],[539, 495],[384, 495]]]},"properties":{"objectType":"annotation","name":"date","classification":{"name":"date","color":[0, 255, 0]}}},{"type":"Feature","id":"8afddb7c-3fab-4a88-bc97-c86cb99240a8","geometry":{"type":"Polygon","coordinates":[[[413, 1023],[413, 1064],[561, 1064],[561, 1023],[413, 1023]]]},"properties":{"objectType":"annotation","name":"total","classification":{"name":"total","color":[255, 255, 0]}}}]}