{"type":"FeatureCollection","features":[{"type":"Feature","id":"55bc5bff-e06c-4ea8-94ba-a162b48b7dad","geometry":{"type":"Polygon","coordinates":[[[79, 369],[79, 431],[834, 431],[834, 369],[79, 369]]]},"properties":{"objectType":"annotation","name":"company","classification":{"name":"company","color":[255, 0, 0]}}},{"type":"Feature","id":"bfb9aa22-2abf-40df-908e-0f1c4c2b118e","geometry":{"type":"Polygon","coordinates":[[[90, 471],[90, 570],[826, 570],[826, 471],[90, 471]]]},"properties":{"objectType":"annotation","name":"address","classification":{"name":"address","color":[0, 0, 255]}}},{"type":"Feature","id":"6915d03a-a1f6-4c77-9526-8130cc6d3f38","geometry":{"type":"Polygon","coordinates":[[[256, 728],[256, 790],[462, 790],[462, 728],[256, 728]]]},"properties":{"objectType":"annotation","name":"date","classification":{"name":"date","color":[0, 255, 0]}}},{"type":"Feature","id":"daa8fd5d-0319-4011-8896-7cece32383e7","geometry":{"type":"Polygon","coordinates":[[[617, 1430],[617, 1489],[829, 1489],[829, 1430],[617, 1430]]]},"properties":{"objectType":"annotation","name":"total","classification":{"name":"total","color":[255, 255, 0]}}}]}