{"type":"FeatureCollection","features":[{"type":"Feature","id":"adc9fe4a-e5b0-4c54-8c17-644cf60b4759","geometry":{"type":"Polygon","coordinates":[[[21, 98],[21, 125],[599, 125],[599, 98],[21, 98]]]},"properties":{"objectType":"annotation","name":"company","classification":{"name":"company","color":[255, 0, 0]}}},{"type":"Feature","id":"fee1417b-4050-4388-98b2-987e4109abd3","geometry":{"type":"Polygon","coordinates":[[[432, 913],[432, 959],[523, 959],[523, 913],[432, 913]]]},"properties":{"objectType":"annotation","name":"total","classification":{"name":"total","color":[255, 255, 0]}}},{"type":"Feature","id":"93117545-1d0f-4f65-9c79-0e71449a5a9d","geometry":{"type":"Polygon","coordinates":[[[142, 129],[142, 171],[463, 171],[463, 129],[142, 129]]]},"properties":{"objectType":"annotation","name":"address","classification":{"name":"address","color":[0, 0, 255]}}},{"type":"Feature","id":"c1d83893-fe81-4c59-93b2-633b4694bd1d","geometry":{"type":"Polygon","coordinates":[[[293, 485],[293, 518],[422, 518],[422, 485],[293, 485]]]},"properties":{"objectType":"annotation","name":"date","classification":{"name":"date","color":[0, 255, 0]}}}]}