{"type":"FeatureCollection","features":[{"type":"Feature","id":"eff67bc3-d569-4550-a682-e097122490b0","geometry":{"type":"Polygon","coordinates":[[[44, 138],[44, 178],[519, 178],[519, 138],[44, 138]]]},"properties":{"objectType":"annotation","name":"company","classification":{"name":"company","color":[255, 0, 0]}}},{"type":"Feature","id":"d0b75f1a-2c35-4207-96ce-f64fdeafc56c","geometry":{"type":"Polygon","coordinates":[[[49, 189],[49, 231],[511, 231],[511, 189],[49, 189]]]},"properties":{"objectType":"annotation","name":"address","classification":{"name":"address","color":[0, 0, 255]}}},{"type":"Feature","id":"ce0198a2-74c4-4884-a00e-10e562c29cfb","geometry":{"type":"Polygon","coordinates":[[[457, 696],[457, 741],[549, 741],[549, 696],[457, 696]]]},"properties":{"objectType":"annotation","name":"total","classification":{"name":"total","color":[255, 255, 0]}}},{"type":"Feature","id":"272cd80e-afa6-4256-a3ec-992b6efe305a","geometry":{"type":"Polygon","coordinates":[[[181, 969],[181, 1003],[303, 1003],[303, 969],[181, 969]]]},"properties":{"objectType":"annotation","name":"date","classification":{"name":"date","color":[0, 255, 0]}}}]}