{"type":"FeatureCollection","features":[{"type":"Feature","id":"c82dd168-d18b-407e-b361-9fdd462d2421","geometry":{"type":"Polygon","coordinates":[[[1646, 666],[1646, 882],[3073, 882],[3073, 666],[1646, 666]]]},"properties":{"objectType":"annotation","name":"company","classification":{"name":"company","color":[255, 0, 0]}}},{"type":"Feature","id":"bda5966a-dbde-46b9-aa12-c91a108ef175","geometry":{"type":"Polygon","coordinates":[[[1618, 994],[1618, 1295],[3035, 1295],[3035, 994],[1618, 994]]]},"properties":{"objectType":"annotation","name":"address","classification":{"name":"address","color":[0, 0, 255]}}},{"type":"Feature","id":"48ebf84e-3636-4265-8b84-f847c4208609","geometry":{"type":"Polygon","coordinates":[[[2718, 4495],[2718, 4710],[3082, 4710],[3082, 4495],[2718, 4495]]]},"properties":{"objectType":"annotation","name":"total","classification":{"name":"total","color":[255, 255, 0]}}},{"type":"Feature","id":"a7c157e7-27aa-49ec-8717-eaeeb74d17ba","geometry":{"type":"Polygon","coordinates":[[[1749, 2027],[1749, 2177],[2171, 2177],[2171, 2027],[1749, 2027]]]},"properties":{"objectType":"annotation","name":"date","classification":{"name":"date","color":[0, 255, 0]}}}]}