{"type":"FeatureCollection","features":[{"type":"Feature","id":"b36ce1ff-50da-4910-b1e5-f129c283dd88","geometry":{"type":"Polygon","coordinates":[[[207, 525],[207, 715],[645, 715],[645, 525],[207, 525]]]},"properties":{"objectType":"annotation","name":"address","classification":{"name":"address","color":[0, 0, 255]}}},{"type":"Feature","id":"2a93fd43-2e91-4277-800a-330fd1253bfd","geometry":{"type":"Polygon","coordinates":[[[128, 475],[128, 516],[695, 516],[695, 475],[128, 475]]]},"properties":{"objectType":"annotation","name":"company","classification":{"name":"company","color":[255, 0, 0]}}},{"type":"Feature","id":"5b41ec53-2bca-49ef-8316-3e8acf8a098f","geometry":{"type":"Polygon","coordinates":[[[618, 915],[618, 979],[825, 979],[825, 915],[618, 915]]]},"properties":{"objectType":"annotation","name":"date","classification":{"name":"date","color":[0, 255, 0]}}},{"type":"Feature","id":"7409dc4b-d606-4c3d-bc0d-084dad57c71c","geometry":{"type":"Polygon","coordinates":[[[642, 2074],[642, 2138],[780, 2138],[780, 2074],[642, 2074]]]},"properties":{"objectType":"annotation","name":"total","classification":{"name":"total","color":[255, 255, 0]}}}]}