{"type":"FeatureCollection","features":[{"type":"Feature","id":"1274401d-4c07-4a44-876c-52a4bdaa10d3","geometry":{"type":"Polygon","coordinates":[[[1701, 1488],[1701, 1667],[3010, 1667],[3010, 1488],[1701, 1488]]]},"properties":{"objectType":"annotation","name":"address","classification":{"name":"address","color":[0, 0, 255]}}},{"type":"Feature","id":"319d9ad7-b61c-465a-a04f-7d94fd7c401c","geometry":{"type":"Polygon","coordinates":[[[2782, 2405],[2782, 2518],[3225, 2518],[3225, 2405],[2782, 2405]]]},"properties":{"objectType":"annotation","name":"date","classification":{"name":"date","color":[0, 255, 0]}}},{"type":"Feature","id":"1c1115d9-5d78-4d5f-aa5c-8b3bf66b9e35","geometry":{"type":"Polygon","coordinates":[[[2867, 3518],[2867, 3612],[3103, 3612],[3103, 3518],[2867, 3518]]]},"properties":{"objectType":"annotation","name":"total","classification":{"name":"total","color":[255, 255, 0]}}},{"type":"Feature","id":"d99cc69c-320f-42c5-b69e-88bee8b0ae40","geometry":{"type":"Polygon","coordinates":[[[1725, 1122],[1725, 1377],[2989, 1377],[2989, 1122],[1725, 1122]]]},"properties":{"objectType":"annotation","name":"company","classification":{"name":"company","color":[255, 0, 0]}}}]}