{"type":"FeatureCollection","features":[{"type":"Feature","id":"3a8bb2e0-73f7-4ea7-b621-0ed6f23bc09a","geometry":{"type":"Polygon","coordinates":[[[87, 124],[87, 194],[527, 194],[527, 124],[87, 124]]]},"properties":{"objectType":"annotation","name":"company","classification":{"name":"company","color":[255, 0, 0]}}},{"type":"Feature","id":"ed8f12e1-1e2f-43c3-befe-677cfe8c08a3","geometry":{"type":"Polygon","coordinates":[[[80, 217],[80, 285],[525, 285],[525, 217],[80, 217]]]},"properties":{"objectType":"annotation","name":"address","classification":{"name":"address","color":[0, 0, 255]}}},{"type":"Feature","id":"511e4413-5444-4b76-8d32-f9e97bb961cf","geometry":{"type":"Polygon","coordinates":[[[180, 452],[180, 492],[323, 492],[323, 452],[180, 452]]]},"properties":{"objectType":"annotation","name":"date","classification":{"name":"date","color":[0, 255, 0]}}},{"type":"Feature","id":"c00cd9ba-5d23-42f8-afea-d920ec801fc4","geometry":{"type":"Polygon","coordinates":[[[414, 846],[414, 887],[563, 887],[563, 846],[414, 846]]]},"properties":{"objectType":"annotation","name":"total","classification":{"name":"total","color":[255, 255, 0]}}}]}