{"type":"FeatureCollection","features":[{"type":"Feature","id":"26201651-00b6-440a-87db-e03b462ca296","geometry":{"type":"Polygon","coordinates":[[[106, 240],[106, 278],[379, 278],[379, 240],[106, 240]]]},"properties":{"objectType":"annotation","name":"company","classification":{"name":"company","color":[255, 0, 0]}}},{"type":"Feature","id":"9e269cc3-d4ea-4207-a026-d456c8164763","geometry":{"type":"Polygon","coordinates":[[[106, 310],[106, 429],[560, 429],[560, 310],[106, 310]]]},"properties":{"objectType":"annotation","name":"address","classification":{"name":"address","color":[0, 0, 255]}}},{"type":"Feature","id":"9986bcda-84f5-4ab1-a390-3d383369d265","geometry":{"type":"Polygon","coordinates":[[[716, 970],[716, 1016],[883, 1016],[883, 970],[716, 970]]]},"properties":{"objectType":"annotation","name":"total","classification":{"name":"total","color":[255, 255, 0]}}},{"type":"Feature","id":"c4769358-9768-42a2-8e39-e447c23ff274","geometry":{"type":"Polygon","coordinates":[[[114, 1461],[114, 1499],[282, 1499],[282, 1461],[114, 1461]]]},"properties":{"objectType":"annotation","name":"date","classification":{"name":"date","color":[0, 255, 0]}}}]}