{"type":"FeatureCollection","features":[{"type":"Feature","id":"46208c6e-6163-453d-9a04-fd4d94312e55","geometry":{"type":"Polygon","coordinates":[[[549, 615],[549, 650],[671, 650],[671, 615],[549, 615]]]},"properties":{"objectType":"annotation","name":"date","classification":{"name":"date","color":[0, 255, 0]}}},{"type":"Feature","id":"fcec6f6d-5fa2-4a03-9b19-1a6b23414087","geometry":{"type":"Polygon","coordinates":[[[552, 869],[552, 901],[640, 901],[640, 869],[552, 869]]]},"properties":{"objectType":"annotation","name":"total","classification":{"name":"total","color":[255, 255, 0]}}},{"type":"Feature","id":"2c6fba40-73b3-4d0d-abc3-9a4e9fc1191d","geometry":{"type":"Polygon","coordinates":[[[133, 282],[133, 317],[569, 317],[569, 282],[133, 282]]]},"properties":{"objectType":"annotation","name":"company","classification":{"name":"company","color":[255, 0, 0]}}},{"type":"Feature","id":"6e608db6-8351-4560-9578-7f319de43531","geometry":{"type":"Polygon","coordinates":[[[146, 326],[146, 484],[569, 484],[569, 326],[146, 326]]]},"properties":{"objectType":"annotation","name":"address","classification":{"name":"address","color":[0, 0, 255]}}}]}