{"type":"FeatureCollection","features":[{"type":"Feature","id":"9d2416e8-dee9-4095-a4e9-9af6bbed61bf","geometry":{"type":"Polygon","coordinates":[[[136, 252],[136, 298],[790, 298],[790, 252],[136, 252]]]},"properties":{"objectType":"annotation","name":"company","classification":{"name":"company","color":[255, 0, 0]}}},{"type":"Feature","id":"fd9991b4-1389-49f0-b07f-b9fce5925a73","geometry":{"type":"Polygon","coordinates":[[[207, 335],[207, 451],[721, 451],[721, 335],[207, 335]]]},"properties":{"objectType":"annotation","name":"address","classification":{"name":"address","color":[0, 0, 255]}}},{"type":"Feature","id":"02f1d7ec-855d-423f-ac50-2052c404f5f2","geometry":{"type":"Polygon","coordinates":[[[694, 891],[694, 945],[891, 945],[891, 891],[694, 891]]]},"properties":{"objectType":"annotation","name":"date","classification":{"name":"date","color":[0, 255, 0]}}},{"type":"Feature","id":"42bf4682-e23f-4a46-9079-a31b11a04da3","geometry":{"type":"Polygon","coordinates":[[[668, 1643],[668, 1703],[804, 1703],[804, 1643],[668, 1643]]]},"properties":{"objectType":"annotation","name":"total","classification":{"name":"total","color":[255, 255, 0]}}}]}