{"type":"FeatureCollection","features":[{"type":"Feature","id":"ced9f376-e3f3-4d20-953e-db754e286349","geometry":{"type":"Polygon","coordinates":[[[145, 100],[145, 147],[466, 147],[466, 100],[145, 100]]]},"properties":{"objectType":"annotation","name":"address","classification":{"name":"address","color":[0, 0, 255]}}},{"type":"Feature","id":"4d4c5c8e-c48d-4513-9859-ca49c2e29c08","geometry":{"type":"Polygon","coordinates":[[[33, 65],[33, 95],[603, 95],[603, 65],[33, 65]]]},"properties":{"objectType":"annotation","name":"company","classification":{"name":"company","color":[255, 0, 0]}}},{"type":"Feature","id":"6d2b8b17-0b7c-47e1-9dfe-76ad2a7fe5c8","geometry":{"type":"Polygon","coordinates":[[[417, 888],[417, 929],[524, 929],[524, 888],[417, 888]]]},"properties":{"objectType":"annotation","name":"total","classification":{"name":"total","color":[255, 255, 0]}}},{"type":"Feature","id":"73049132-dd72-4f5c-8140-3e5d1985b0dc","geometry":{"type":"Polygon","coordinates":[[[292, 457],[292, 494],[420, 494],[420, 457],[292, 457]]]},"properties":{"objectType":"annotation","name":"date","classification":{"name":"date","color":[0, 255, 0]}}}]}