{"type":"FeatureCollection","features":[{"type":"Feature","id":"ac778ad4-1b0f-459f-be6c-15d26c6cdd08","geometry":{"type":"Polygon","coordinates":[[[26, 61],[26, 88],[600, 88],[600, 61],[26, 61]]]},"properties":{"objectType":"annotation","name":"company","classification":{"name":"company","color":[255, 0, 0]}}},{"type":"Feature","id":"205700fe-3683-4522-9d81-4b3d3710e302","geometry":{"type":"Polygon","coordinates":[[[151, 91],[151, 132],[463, 132],[463, 91],[151, 91]]]},"properties":{"objectType":"annotation","name":"address","classification":{"name":"address","color":[0, 0, 255]}}},{"type":"Feature","id":"02830431-4e11-400d-bbd0-cb142b3eb162","geometry":{"type":"Polygon","coordinates":[[[438, 877],[438, 921],[525, 921],[525, 877],[438, 877]]]},"properties":{"objectType":"annotation","name":"total","classification":{"name":"total","color":[255, 255, 0]}}},{"type":"Feature","id":"24646956-18e4-4fbf-9d85-4c8f254ea4fe","geometry":{"type":"Polygon","coordinates":[[[295, 452],[295, 485],[425, 485],[425, 452],[295, 452]]]},"properties":{"objectType":"annotation","name":"date","classification":{"name":"date","color":[0, 255, 0]}}}]}