{"type":"FeatureCollection","features":[{"type":"Feature","id":"31e3027d-c60a-46c4-8b6e-157d38e7f957","geometry":{"type":"Polygon","coordinates":[[[125, 421],[125, 561],[748, 561],[748, 421],[125, 421]]]},"properties":{"objectType":"annotation","name":"address","classification":{"name":"address","color":[0, 0, 255]}}},{"type":"Feature","id":"36b053fa-3cc0-4f02-a5ab-1c9e1e287c03","geometry":{"type":"Polygon","coordinates":[[[166, 318],[166, 372],[721, 372],[721, 318],[166, 318]]]},"properties":{"objectType":"annotation","name":"company","classification":{"name":"company","color":[255, 0, 0]}}},{"type":"Feature","id":"34e301db-0cf3-443e-898a-1ddb346c1ed4","geometry":{"type":"Polygon","coordinates":[[[66, 1373],[66, 1423],[239, 1423],[239, 1373],[66, 1373]]]},"properties":{"objectType":"annotation","name":"date","classification":{"name":"date","color":[0, 255, 0]}}},{"type":"Feature","id":"8f31a633-7c2b-4060-9a62-d387fcafd599","geometry":{"type":"Polygon","coordinates":[[[724, 1057],[724, 1130],[851, 1130],[851, 1057],[724, 1057]]]},"properties":{"objectType":"annotation","name":"total","classification":{"name":"total","color":[255, 255, 0]}}}]}