{"type":"FeatureCollection","features":[{"type":"Feature","id":"3a79fb9a-9dfa-4125-9566-a333aa5837e5","geometry":{"type":"Polygon","coordinates":[[[31, 125],[31, 176],[532, 176],[532, 125],[31, 125]]]},"properties":{"objectType":"annotation","name":"company","classification":{"name":"company","color":[255, 0, 0]}}},{"type":"Feature","id":"6cd98cb5-0082-45d3-9410-ddcaad6c7766","geometry":{"type":"Polygon","coordinates":[[[27, 186],[27, 240],[526, 240],[526, 186],[27, 186]]]},"properties":{"objectType":"annotation","name":"address","classification":{"name":"address","color":[0, 0, 255]}}},{"type":"Feature","id":"d85a9c56-036b-4c13-ada2-d5a09bef6bce","geometry":{"type":"Polygon","coordinates":[[[381, 940],[381, 990],[530, 990],[530, 940],[381, 940]]]},"properties":{"objectType":"annotation","name":"date","classification":{"name":"date","color":[0, 255, 0]}}},{"type":"Feature","id":"2b146d9f-6493-45a9-8a3e-ee6d199f9309","geometry":{"type":"Polygon","coordinates":[[[464, 701],[464, 743],[544, 743],[544, 701],[464, 701]]]},"properties":{"objectType":"annotation","name":"total","classification":{"name":"total","color":[255, 255, 0]}}}]}