{"type":"FeatureCollection","features":[{"type":"Feature","id":"ebfb2766-ba12-4e8f-81ec-0459ce9189d8","geometry":{"type":"Polygon","coordinates":[[[63, 294],[63, 334],[570, 334],[570, 294],[63, 294]]]},"properties":{"objectType":"annotation","name":"company","classification":{"name":"company","color":[255, 0, 0]}}},{"type":"Feature","id":"a7564b8d-fe86-459c-9f9c-eeb64ad2ad91","geometry":{"type":"Polygon","coordinates":[[[21, 406],[21, 521],[651, 521],[651, 406],[21, 406]]]},"properties":{"objectType":"annotation","name":"address","classification":{"name":"address","color":[0, 0, 255]}}},{"type":"Feature","id":"61182ba9-8b5a-4690-9a9d-e4ba7b737604","geometry":{"type":"Polygon","coordinates":[[[291, 821],[291, 864],[465, 864],[465, 821],[291, 821]]]},"properties":{"objectType":"annotation","name":"date","classification":{"name":"date","color":[0, 255, 0]}}},{"type":"Feature","id":"c1d99814-81d7-47a2-a7e0-e0653d30119b","geometry":{"type":"Polygon","coordinates":[[[538, 1162],[538, 1202],[629, 1202],[629, 1162],[538, 1162]]]},"properties":{"objectType":"annotation","name":"total","classification":{"name":"total","color":[255, 255, 0]}}}]}