{"type":"FeatureCollection","features":[{"type":"Feature","id":"f9149cdb-32ea-41db-a071-ea739cf80907","geometry":{"type":"Polygon","coordinates":[[[643, 1195],[643, 1230],[732, 1230],[732, 1195],[643, 1195]]]},"properties":{"objectType":"annotation","name":"total","classification":{"name":"total","color":[255, 255, 0]}}},{"type":"Feature","id":"39c8de00-ffbe-4d0b-8237-f613bb12f074","geometry":{"type":"Polygon","coordinates":[[[132, 326],[132, 389],[674, 389],[674, 326],[132, 326]]]},"properties":{"objectType":"annotation","name":"company","classification":{"name":"company","color":[255, 0, 0]}}},{"type":"Feature","id":"a00871e3-20bf-4803-85a5-77f1c986f56a","geometry":{"type":"Polygon","coordinates":[[[157, 389],[157, 583],[667, 583],[667, 389],[157, 389]]]},"properties":{"objectType":"annotation","name":"address","classification":{"name":"address","color":[0, 0, 255]}}},{"type":"Feature","id":"2e9de725-e75c-4f3e-9ed4-0ae592084ce2","geometry":{"type":"Polygon","coordinates":[[[625, 797],[625, 848],[785, 848],[785, 797],[625, 797]]]},"properties":{"objectType":"annotation","name":"date","classification":{"name":"date","color":[0, 255, 0]}}}]}