{"type":"FeatureCollection","features":[{"type":"Feature","id":"0cfc5813-4640-460c-86ed-67ffa9b246de","geometry":{"type":"Polygon","coordinates":[[[42, 180],[42, 229],[503, 229],[503, 180],[42, 180]]]},"properties":{"objectType":"annotation","name":"address","classification":{"name":"address","color":[0, 0, 255]}}},{"type":"Feature","id":"826417b5-6f72-4726-acd6-fd7f94902ad5","geometry":{"type":"Polygon","coordinates":[[[388, 913],[388, 951],[525, 951],[525, 913],[388, 913]]]},"properties":{"objectType":"annotation","name":"date","classification":{"name":"date","color":[0, 255, 0]}}},{"type":"Feature","id":"e32f7d55-501c-45ca-90b2-d442780d02e8","geometry":{"type":"Polygon","coordinates":[[[453, 673],[453, 715],[540, 715],[540, 673],[453, 673]]]},"properties":{"objectType":"annotation","name":"total","classification":{"name":"total","color":[255, 255, 0]}}},{"type":"Feature","id":"cfc16288-4c85-4e5c-9019-0919639f60ef","geometry":{"type":"Polygon","coordinates":[[[29, 133],[29, 168],[528, 168],[528, 133],[29, 133]]]},"properties":{"objectType":"annotation","name":"company","classification":{"name":"company","color":[255, 0, 0]}}}]}