{"type":"FeatureCollection","features":[{"type":"Feature","id":"a5f29987-f9b6-474e-8a8c-221f5b09a383","geometry":{"type":"Polygon","coordinates":[[[10, 140],[10, 231],[590, 231],[590, 140],[10, 140]]]},"properties":{"objectType":"annotation","name":"address","classification":{"name":"address","color":[0, 0, 255]}}},{"type":"Feature","id":"f25f2062-fef1-451c-b290-9d17da804e3a","geometry":{"type":"Polygon","coordinates":[[[13, 293],[13, 324],[519, 324],[519, 293],[13, 293]]]},"properties":{"objectType":"annotation","name":"company","classification":{"name":"company","color":[255, 0, 0]}}},{"type":"Feature","id":"f8f76c50-4c67-4571-b283-9abb79c1fbac","geometry":{"type":"Polygon","coordinates":[[[463, 523],[463, 563],[525, 563],[525, 523],[463, 523]]]},"properties":{"objectType":"annotation","name":"total","classification":{"name":"total","color":[255, 255, 0]}}},{"type":"Feature","id":"47c8ec13-22bb-45d8-b621-f0b00bb32c36","geometry":{"type":"Polygon","coordinates":[[[14, 825],[14, 854],[137, 854],[137, 825],[14, 825]]]},"properties":{"objectType":"annotation","name":"date","classification":{"name":"date","color":[0, 255, 0]}}}]}