{"type":"FeatureCollection","features":[{"type":"Feature","id":"5b4547bc-13d0-4317-b168-c5106a94e27e","geometry":{"type":"Polygon","coordinates":[[[75, 202],[75, 280],[503, 280],[503, 202],[75, 202]]]},"properties":{"objectType":"annotation","name":"company","classification":{"name":"company","color":[255, 0, 0]}}},{"type":"Feature","id":"a6fefd33-a804-4908-8353-a623a1e7b495","geometry":{"type":"Polygon","coordinates":[[[104, 301],[104, 378],[471, 378],[471, 301],[104, 301]]]},"properties":{"objectType":"annotation","name":"address","classification":{"name":"address","color":[0, 0, 255]}}},{"type":"Feature","id":"89a7e9ed-816c-49bf-a0c2-135615f71abd","geometry":{"type":"Polygon","coordinates":[[[381, 949],[381, 975],[546, 975],[546, 949],[381, 949]]]},"properties":{"objectType":"annotation","name":"total","classification":{"name":"total","color":[255, 255, 0]}}},{"type":"Feature","id":"c09be196-f134-41d9-941c-de9eceb37ad9","geometry":{"type":"Polygon","coordinates":[[[372, 590],[372, 631],[515, 631],[515, 590],[372, 590]]]},"properties":{"objectType":"annotation","name":"date","classification":{"name":"date","color":[0, 255, 0]}}}]}