{"type":"FeatureCollection","features":[{"type":"Feature","id":"03f424ed-8a8d-4128-b20a-0bd16a3568db","geometry":{"type":"Polygon","coordinates":[[[21, 67],[21, 91],[597, 91],[597, 67],[21, 67]]]},"properties":{"objectType":"annotation","name":"company","classification":{"name":"company","color":[255, 0, 0]}}},{"type":"Feature","id":"624ed7b3-5dd3-488e-a959-f60739372b3e","geometry":{"type":"Polygon","coordinates":[[[145, 90],[145, 141],[469, 141],[469, 90],[145, 90]]]},"properties":{"objectType":"annotation","name":"address","classification":{"name":"address","color":[0, 0, 255]}}},{"type":"Feature","id":"d944deaa-9bd8-4b07-b57b-f2aef037b345","geometry":{"type":"Polygon","coordinates":[[[416, 923],[416, 967],[520, 967],[520, 923],[416, 923]]]},"properties":{"objectType":"annotation","name":"total","classification":{"name":"total","color":[255, 255, 0]}}},{"type":"Feature","id":"be7cd770-32f7-4380-b55e-560870924455","geometry":{"type":"Polygon","coordinates":[[[296, 455],[296, 492],[421, 492],[421, 455],[296, 455]]]},"properties":{"objectType":"annotation","name":"date","classification":{"name":"date","color":[0, 255, 0]}}}]}