{"type":"FeatureCollection","features":[{"type":"Feature","id":"adfa3f0a-4872-4d94-aa21-52c2c60f491b","geometry":{"type":"Polygon","coordinates":[[[33, 131],[33, 174],[528, 174],[528, 131],[33, 131]]]},"properties":{"objectType":"annotation","name":"company","classification":{"name":"company","color":[255, 0, 0]}}},{"type":"Feature","id":"2997d206-7e9b-4826-9917-eb8a25696f3d","geometry":{"type":"Polygon","coordinates":[[[33, 185],[33, 230],[524, 230],[524, 185],[33, 185]]]},"properties":{"objectType":"annotation","name":"address","classification":{"name":"address","color":[0, 0, 255]}}},{"type":"Feature","id":"bfd4a179-1c21-43c7-8fb1-267b3ef7f59d","geometry":{"type":"Polygon","coordinates":[[[462, 692],[462, 737],[548, 737],[548, 692],[462, 692]]]},"properties":{"objectType":"annotation","name":"total","classification":{"name":"total","color":[255, 255, 0]}}},{"type":"Feature","id":"7de675cd-72ae-4953-a896-d43e57f1eff0","geometry":{"type":"Polygon","coordinates":[[[395, 942],[395, 990],[542, 990],[542, 942],[395, 942]]]},"properties":{"objectType":"annotation","name":"date","classification":{"name":"date","color":[0, 255, 0]}}}]}