{"type":"FeatureCollection","features":[{"type":"Feature","id":"a8a9c55b-437b-4b60-8353-d126623aea27","geometry":{"type":"Polygon","coordinates":[[[33, 72],[33, 93],[606, 93],[606, 72],[33, 72]]]},"properties":{"objectType":"annotation","name":"company","classification":{"name":"company","color":[255, 0, 0]}}},{"type":"Feature","id":"58ae6755-e3ab-45e1-99b3-fb3b12b38350","geometry":{"type":"Polygon","coordinates":[[[165, 100],[165, 144],[475, 144],[475, 100],[165, 100]]]},"properties":{"objectType":"annotation","name":"address","classification":{"name":"address","color":[0, 0, 255]}}},{"type":"Feature","id":"1e28a071-86cc-4a2c-aa4b-68fab8f9b26a","geometry":{"type":"Polygon","coordinates":[[[437, 886],[437, 929],[532, 929],[532, 886],[437, 886]]]},"properties":{"objectType":"annotation","name":"total","classification":{"name":"total","color":[255, 255, 0]}}},{"type":"Feature","id":"005e542d-bc88-4578-9223-f522efbfb209","geometry":{"type":"Polygon","coordinates":[[[300, 458],[300, 495],[426, 495],[426, 458],[300, 458]]]},"properties":{"objectType":"annotation","name":"date","classification":{"name":"date","color":[0, 255, 0]}}}]}