{"type":"FeatureCollection","features":[{"type":"Feature","id":"242651fd-c275-4046-8fa4-febb1d98b3f4","geometry":{"type":"Polygon","coordinates":[[[27, 182],[27, 230],[525, 230],[525, 182],[27, 182]]]},"properties":{"objectType":"annotation","name":"address","classification":{"name":"address","color":[0, 0, 255]}}},{"type":"Feature","id":"24e8ac08-c121-43ea-a135-e1e94bb0741b","geometry":{"type":"Polygon","coordinates":[[[39, 126],[39, 174],[527, 174],[527, 126],[39, 126]]]},"properties":{"objectType":"annotation","name":"company","classification":{"name":"company","color":[255, 0, 0]}}},{"type":"Feature","id":"8b44d05f-476f-4865-8dde-a65d8f9d35f0","geometry":{"type":"Polygon","coordinates":[[[474, 692],[474, 741],[545, 741],[545, 692],[474, 692]]]},"properties":{"objectType":"annotation","name":"total","classification":{"name":"total","color":[255, 255, 0]}}},{"type":"Feature","id":"b04e9c11-38e1-418b-9fc6-6bcd5ab38b65","geometry":{"type":"Polygon","coordinates":[[[396, 938],[396, 977],[535, 977],[535, 938],[396, 938]]]},"properties":{"objectType":"annotation","name":"date","classification":{"name":"date","color":[0, 255, 0]}}}]}