{"type":"FeatureCollection","features":[{"type":"Feature","id":"0db9242c-2a72-4507-8b82-4e3f63afb85b","geometry":{"type":"Polygon","coordinates":[[[84, 272],[84, 352],[514, 352],[514, 272],[84, 272]]]},"properties":{"objectType":"annotation","name":"address","classification":{"name":"address","color":[0, 0, 255]}}},{"type":"Feature","id":"24a96278-766e-4386-a099-6c331c8015e6","geometry":{"type":"Polygon","coordinates":[[[142, 538],[142, 579],[272, 579],[272, 538],[142, 538]]]},"properties":{"objectType":"annotation","name":"date","classification":{"name":"date","color":[0, 255, 0]}}},{"type":"Feature","id":"7c10b7b1-fe42-4ac9-965c-d0f4e7e209bb","geometry":{"type":"Polygon","coordinates":[[[171, 212],[171, 233],[432, 233],[432, 212],[171, 212]]]},"properties":{"objectType":"annotation","name":"company","classification":{"name":"company","color":[255, 0, 0]}}},{"type":"Feature","id":"41a0b284-7c5f-412b-8056-8c0ccc8935a8","geometry":{"type":"Polygon","coordinates":[[[462, 1292],[462, 1339],[538, 1339],[538, 1292],[462, 1292]]]},"properties":{"objectType":"annotation","name":"total","classification":{"name":"total","color":[255, 255, 0]}}}]}