{"type":"FeatureCollection","features":[{"type":"Feature","id":"295e8aa1-1ef7-4f2f-84e6-f8aa517a5b6b","geometry":{"type":"Polygon","coordinates":[[[198, 393],[198, 581],[672, 581],[672, 393],[198, 393]]]},"properties":{"objectType":"annotation","name":"address","classification":{"name":"address","color":[0, 0, 255]}}},{"type":"Feature","id":"b0c4234c-d0ed-46e2-91da-ee6ab1fea14c","geometry":{"type":"Polygon","coordinates":[[[158, 347],[158, 388],[695, 388],[695, 347],[158, 347]]]},"properties":{"objectType":"annotation","name":"company","classification":{"name":"company","color":[255, 0, 0]}}},{"type":"Feature","id":"ea580f1a-be23-4b11-84ca-5d89711eeb21","geometry":{"type":"Polygon","coordinates":[[[679, 1083],[679, 1127],[783, 1127],[783, 1083],[679, 1083]]]},"properties":{"objectType":"annotation","name":"total","classification":{"name":"total","color":[255, 255, 0]}}},{"type":"Feature","id":"b1d91df5-245e-432f-a45d-bf28da919f4c","geometry":{"type":"Polygon","coordinates":[[[645, 782],[645, 845],[826, 845],[826, 782],[645, 782]]]},"properties":{"objectType":"annotation","name":"date","classification":{"name":"date","color":[0, 255, 0]}}}]}