{"type":"FeatureCollection","features":[{"type":"Feature","id":"203c5e61-b4a4-4df8-9d07-98aa00f1dfd1","geometry":{"type":"Polygon","coordinates":[[[160, 194],[160, 248],[557, 248],[557, 194],[160, 194]]]},"properties":{"objectType":"annotation","name":"company","classification":{"name":"company","color":[255, 0, 0]}}},{"type":"Feature","id":"1466a898-5937-4a3f-b1e9-8e766b1dcd63","geometry":{"type":"Polygon","coordinates":[[[65, 270],[65, 373],[629, 373],[629, 270],[65, 270]]]},"properties":{"objectType":"annotation","name":"address","classification":{"name":"address","color":[0, 0, 255]}}},{"type":"Feature","id":"cadea36b-1c41-4984-aa5c-f8f3eea7de8e","geometry":{"type":"Polygon","coordinates":[[[590, 979],[590, 1021],[679, 1021],[679, 979],[590, 979]]]},"properties":{"objectType":"annotation","name":"total","classification":{"name":"total","color":[255, 255, 0]}}},{"type":"Feature","id":"636c8dfb-1a47-448e-a641-85816877a64a","geometry":{"type":"Polygon","coordinates":[[[3, 1138],[3, 1177],[151, 1177],[151, 1138],[3, 1138]]]},"properties":{"objectType":"annotation","name":"date","classification":{"name":"date","color":[0, 255, 0]}}}]}