{"type":"FeatureCollection","features":[{"type":"Feature","id":"690c3e31-ab90-4605-a683-15a4d69f5d0a","geometry":{"type":"Polygon","coordinates":[[[209, 354],[209, 482],[727, 482],[727, 354],[209, 354]]]},"properties":{"objectType":"annotation","name":"address","classification":{"name":"address","color":[0, 0, 255]}}},{"type":"Feature","id":"bb7d6ae3-d83f-40e5-acb8-0056cc7497b1","geometry":{"type":"Polygon","coordinates":[[[149, 310],[149, 351],[775, 351],[775, 310],[149, 310]]]},"properties":{"objectType":"annotation","name":"company","classification":{"name":"company","color":[255, 0, 0]}}},{"type":"Feature","id":"eb96acc8-49ac-4ff1-9d45-ed92ca8f97d9","geometry":{"type":"Polygon","coordinates":[[[569, 1095],[569, 1189],[761, 1189],[761, 1095],[569, 1095]]]},"properties":{"objectType":"annotation","name":"total","classification":{"name":"total","color":[255, 255, 0]}}},{"type":"Feature","id":"a8e09260-11a7-47a6-a767-fc33c85a466b","geometry":{"type":"Polygon","coordinates":[[[591, 619],[591, 672],[783, 672],[783, 619],[591, 619]]]},"properties":{"objectType":"annotation","name":"date","classification":{"name":"date","color":[0, 255, 0]}}}]}