{"type":"FeatureCollection","features":[{"type":"Feature","id":"48617f9b-4b45-440b-b597-02ec06b0c543","geometry":{"type":"Polygon","coordinates":[[[22, 69],[22, 97],[588, 97],[588, 69],[22, 69]]]},"properties":{"objectType":"annotation","name":"company","classification":{"name":"company","color":[255, 0, 0]}}},{"type":"Feature","id":"b0a0cbf2-fe2c-4486-862f-28e55ff84da1","geometry":{"type":"Polygon","coordinates":[[[148, 93],[148, 144],[459, 144],[459, 93],[148, 93]]]},"properties":{"objectType":"annotation","name":"address","classification":{"name":"address","color":[0, 0, 255]}}},{"type":"Feature","id":"e043dac1-aba6-41f5-a7ea-86b8a1aefcf6","geometry":{"type":"Polygon","coordinates":[[[380, 297],[380, 335],[521, 335],[521, 297],[380, 297]]]},"properties":{"objectType":"annotation","name":"date","classification":{"name":"date","color":[0, 255, 0]}}},{"type":"Feature","id":"cdd073c4-7152-453c-8bf7-42dac0e98dca","geometry":{"type":"Polygon","coordinates":[[[428, 904],[428, 946],[521, 946],[521, 904],[428, 904]]]},"properties":{"objectType":"annotation","name":"total","classification":{"name":"total","color":[255, 255, 0]}}}]}