{"type":"FeatureCollection","features":[{"type":"Feature","id":"8264aa5b-55ae-46d3-ab19-b406faeece42","geometry":{"type":"Polygon","coordinates":[[[53, 88],[53, 127],[415, 127],[415, 88],[53, 88]]]},"properties":{"objectType":"annotation","name":"company","classification":{"name":"company","color":[255, 0, 0]}}},{"type":"Feature","id":"3b13db77-3b6b-43d9-8afc-9fc5cbd0a003","geometry":{"type":"Polygon","coordinates":[[[77, 150],[77, 191],[392, 191],[392, 150],[77, 150]]]},"properties":{"objectType":"annotation","name":"address","classification":{"name":"address","color":[0, 0, 255]}}},{"type":"Feature","id":"1e67a4e7-bc53-4e81-9735-3b98876f514e","geometry":{"type":"Polygon","coordinates":[[[17, 539],[17, 557],[107, 557],[107, 539],[17, 539]]]},"properties":{"objectType":"annotation","name":"date","classification":{"name":"date","color":[0, 255, 0]}}},{"type":"Feature","id":"7ed26be6-7e9a-4312-bea3-990c91c83e13","geometry":{"type":"Polygon","coordinates":[[[396, 454],[396, 472],[441, 472],[441, 454],[396, 454]]]},"properties":{"objectType":"annotation","name":"total","classification":{"name":"total","color":[255, 255, 0]}}}]}