{"type":"FeatureCollection","features":[{"type":"Feature","id":"a4b133b1-bc8c-4bf3-a2ba-1956d1ae1568","geometry":{"type":"Polygon","coordinates":[[[110, 144],[110, 233],[383, 233],[383, 144],[110, 144]]]},"properties":{"objectType":"annotation","name":"address","classification":{"name":"address","color":[0, 0, 255]}}},{"type":"Feature","id":"ca355294-b029-4037-9f3f-9fddab66e4bc","geometry":{"type":"Polygon","coordinates":[[[70, 94],[70, 112],[421, 112],[421, 94],[70, 94]]]},"properties":{"objectType":"annotation","name":"company","classification":{"name":"company","color":[255, 0, 0]}}},{"type":"Feature","id":"9ee01582-dc7e-4ff5-8252-ecbfd7f33e24","geometry":{"type":"Polygon","coordinates":[[[165, 372],[165, 389],[252, 389],[252, 372],[165, 372]]]},"properties":{"objectType":"annotation","name":"date","classification":{"name":"date","color":[0, 255, 0]}}},{"type":"Feature","id":"8f87e1b3-3ca2-4257-9956-821e0a852498","geometry":{"type":"Polygon","coordinates":[[[400, 703],[400, 723],[445, 723],[445, 703],[400, 703]]]},"properties":{"objectType":"annotation","name":"total","classification":{"name":"total","color":[255, 255, 0]}}}]}