{"type":"FeatureCollection","features":[{"type":"Feature","id":"2aafaf7d-5471-486c-bde3-38a3f834e791","geometry":{"type":"Polygon","coordinates":[[[129, 86],[129, 111],[309, 111],[309, 86],[129, 86]]]},"properties":{"objectType":"annotation","name":"company","classification":{"name":"company","color":[255, 0, 0]}}},{"type":"Feature","id":"4c40ff31-8fb0-4b67-967f-ef32617d1f48","geometry":{"type":"Polygon","coordinates":[[[104, 112],[104, 177],[330, 177],[330, 112],[104, 112]]]},"properties":{"objectType":"annotation","name":"address","classification":{"name":"address","color":[0, 0, 255]}}},{"type":"Feature","id":"a165f80f-cce7-49b5-bf47-079c367e3d91","geometry":{"type":"Polygon","coordinates":[[[350, 419],[350, 439],[410, 439],[410, 419],[350, 419]]]},"properties":{"objectType":"annotation","name":"total","classification":{"name":"total","color":[255, 255, 0]}}},{"type":"Feature","id":"5ca42463-4253-4470-b8e7-376f20301630","geometry":{"type":"Polygon","coordinates":[[[121, 268],[121, 285],[210, 285],[210, 268],[121, 268]]]},"properties":{"objectType":"annotation","name":"date","classification":{"name":"date","color":[0, 255, 0]}}}]}