{"type":"FeatureCollection","features":[{"type":"Feature","id":"efa7de6b-b49d-4020-b161-1c1ad6d02d9b","geometry":{"type":"Polygon","coordinates":[[[23, 103],[23, 130],[431, 130],[431, 103],[23, 103]]]},"properties":{"objectType":"annotation","name":"company","classification":{"name":"company","color":[255, 0, 0]}}},{"type":"Feature","id":"8b4e0e11-5691-4a91-81eb-ddb8b5d118c9","geometry":{"type":"Polygon","coordinates":[[[342, 1063],[342, 1078],[395, 1078],[395, 1063],[342, 1063]]]},"properties":{"objectType":"annotation","name":"total","classification":{"name":"total","color":[255, 255, 0]}}},{"type":"Feature","id":"feb37452-4db8-4d79-94c1-e3434a16621c","geometry":{"type":"Polygon","coordinates":[[[130, 158],[130, 222],[318, 222],[318, 158],[130, 158]]]},"properties":{"objectType":"annotation","name":"address","classification":{"name":"address","color":[0, 0, 255]}}},{"type":"Feature","id":"64a415f7-e820-4bd5-b78d-faca6243eb76","geometry":{"type":"Polygon","coordinates":[[[349, 359],[349, 375],[434, 375],[434, 359],[349, 359]]]},"properties":{"objectType":"annotation","name":"date","classification":{"name":"date","color":[0, 255, 0]}}}]}