{"type":"FeatureCollection","features":[{"type":"Feature","id":"94e74121-bfe8-4211-bc23-f072fe7c6e9f","geometry":{"type":"Polygon","coordinates":[[[347, 688],[347, 712],[431, 712],[431, 688],[347, 688]]]},"properties":{"objectType":"annotation","name":"total","classification":{"name":"total","color":[255, 255, 0]}}},{"type":"Feature","id":"9ad058c6-a6b7-4f99-9582-f05ab0785ec9","geometry":{"type":"Polygon","coordinates":[[[50, 204],[50, 290],[391, 290],[391, 204],[50, 204]]]},"properties":{"objectType":"annotation","name":"address","classification":{"name":"address","color":[0, 0, 255]}}},{"type":"Feature","id":"55023768-2dfd-4be5-b7a7-011b4c53376a","geometry":{"type":"Polygon","coordinates":[[[21, 773],[21, 792],[104, 792],[104, 773],[21, 773]]]},"properties":{"objectType":"annotation","name":"date","classification":{"name":"date","color":[0, 255, 0]}}},{"type":"Feature","id":"242bf97b-5f67-4c1e-84f1-295be4734e5d","geometry":{"type":"Polygon","coordinates":[[[93, 162],[93, 183],[353, 183],[353, 162],[93, 162]]]},"properties":{"objectType":"annotation","name":"company","classification":{"name":"company","color":[255, 0, 0]}}}]}