{"type":"FeatureCollection","features":[{"type":"Feature","id":"5a196523-86c5-4c4c-a3d5-0e29ea0ba6b6","geometry":{"type":"Polygon","coordinates":[[[64, 174],[64, 199],[371, 199],[371, 174],[64, 174]]]},"properties":{"objectType":"annotation","name":"company","classification":{"name":"company","color":[255, 0, 0]}}},{"type":"Feature","id":"6e297f04-16bd-4645-b308-4e90913954b2","geometry":{"type":"Polygon","coordinates":[[[418, 817],[418, 860],[491, 860],[491, 817],[418, 817]]]},"properties":{"objectType":"annotation","name":"total","classification":{"name":"total","color":[255, 255, 0]}}},{"type":"Feature","id":"468735fa-68aa-40d8-ab90-8996765581f0","geometry":{"type":"Polygon","coordinates":[[[159, 202],[159, 284],[337, 284],[337, 202],[159, 202]]]},"properties":{"objectType":"annotation","name":"address","classification":{"name":"address","color":[0, 0, 255]}}},{"type":"Feature","id":"1712a7e5-c238-4169-be82-3eaabe586321","geometry":{"type":"Polygon","coordinates":[[[125, 483],[125, 507],[244, 507],[244, 483],[125, 483]]]},"properties":{"objectType":"annotation","name":"date","classification":{"name":"date","color":[0, 255, 0]}}}]}