{"type":"FeatureCollection","features":[{"type":"Feature","id":"16427ce1-e2fc-4f77-8520-6c4bf7c063f8","geometry":{"type":"Polygon","coordinates":[[[130, 68],[130, 105],[676, 105],[676, 68],[130, 68]]]},"properties":{"objectType":"annotation","name":"company","classification":{"name":"company","color":[255, 0, 0]}}},{"type":"Feature","id":"4daa6518-7b79-4712-a078-5a91ab0b78ec","geometry":{"type":"Polygon","coordinates":[[[158, 150],[158, 223],[641, 223],[641, 150],[158, 150]]]},"properties":{"objectType":"annotation","name":"address","classification":{"name":"address","color":[0, 0, 255]}}},{"type":"Feature","id":"5fcc0853-e624-4bbb-9e3a-563ff86fc672","geometry":{"type":"Polygon","coordinates":[[[203, 1294],[203, 1324],[355, 1324],[355, 1294],[203, 1294]]]},"properties":{"objectType":"annotation","name":"date","classification":{"name":"date","color":[0, 255, 0]}}},{"type":"Feature","id":"cb8f05e8-e447-47df-9f0d-6b14c0b59696","geometry":{"type":"Polygon","coordinates":[[[541, 985],[541, 1025],[691, 1025],[691, 985],[541, 985]]]},"properties":{"objectType":"annotation","name":"total","classification":{"name":"total","color":[255, 255, 0]}}}]}