{"type":"FeatureCollection","features":[{"type":"Feature","id":"9e1dbea2-91b4-4ae5-8936-aaac26253f03","geometry":{"type":"Polygon","coordinates":[[[912, 372],[912, 400],[1216, 400],[1216, 372],[912, 372]]]},"properties":{"objectType":"annotation","name":"company","classification":{"name":"company","color":[255, 0, 0]}}},{"type":"Feature","id":"a23c3d2f-163d-4c56-abc5-93aede6d3180","geometry":{"type":"Polygon","coordinates":[[[830, 427],[830, 511],[1283, 511],[1283, 427],[830, 427]]]},"properties":{"objectType":"annotation","name":"address","classification":{"name":"address","color":[0, 0, 255]}}},{"type":"Feature","id":"72b8d46a-da09-47ca-9580-1db062a1bd2f","geometry":{"type":"Polygon","coordinates":[[[801, 1185],[801, 1208],[910, 1208],[910, 1185],[801, 1185]]]},"properties":{"objectType":"annotation","name":"date","classification":{"name":"date","color":[0, 255, 0]}}},{"type":"Feature","id":"9b0cf5ee-1be3-4dcf-a973-1673ea76263f","geometry":{"type":"Polygon","coordinates":[[[1277, 957],[1277, 980],[1346, 980],[1346, 957],[1277, 957]]]},"properties":{"objectType":"annotation","name":"total","classification":{"name":"total","color":[255, 255, 0]}}}]}