{"type":"FeatureCollection","features":[{"type":"Feature","id":"a88cbd6d-2660-41ab-9842-a2b1a032d9a0","geometry":{"type":"Polygon","coordinates":[[[1763, 980],[1763, 1041],[2763, 1041],[2763, 980],[1763, 980]]]},"properties":{"objectType":"annotation","name":"company","classification":{"name":"company","color":[255, 0, 0]}}},{"type":"Feature","id":"a2ea516c-da8c-4510-958e-7d48b08922f9","geometry":{"type":"Polygon","coordinates":[[[1554, 1137],[1554, 1215],[3248, 1215],[3248, 1137],[1554, 1137]]]},"properties":{"objectType":"annotation","name":"address","classification":{"name":"address","color":[0, 0, 255]}}},{"type":"Feature","id":"f6b91db2-dd30-435e-be54-337e160a4b33","geometry":{"type":"Polygon","coordinates":[[[2826, 3482],[2826, 3619],[3165, 3619],[3165, 3482],[2826, 3482]]]},"properties":{"objectType":"annotation","name":"total","classification":{"name":"total","color":[255, 255, 0]}}},{"type":"Feature","id":"a30f1a81-0db8-4439-8aad-9f8b5e91d268","geometry":{"type":"Polygon","coordinates":[[[1977, 1837],[1977, 1907],[2329, 1907],[2329, 1837],[1977, 1837]]]},"properties":{"objectType":"annotation","name":"date","classification":{"name":"date","color":[0, 255, 0]}}}]}