{"type":"FeatureCollection","features":[{"type":"Feature","id":"67a256a4-9f9b-465a-8fac-fccaabdbb71b","geometry":{"type":"Polygon","coordinates":[[[1572, 1390],[1572, 1485],[2906, 1485],[2906, 1390],[1572, 1390]]]},"properties":{"objectType":"annotation","name":"company","classification":{"name":"company","color":[255, 0, 0]}}},{"type":"Feature","id":"415d0c6f-2859-427c-850c-0e4bde17eb6d","geometry":{"type":"Polygon","coordinates":[[[1666, 1639],[1666, 1799],[2807, 1799],[2807, 1639],[1666, 1639]]]},"properties":{"objectType":"annotation","name":"address","classification":{"name":"address","color":[0, 0, 255]}}},{"type":"Feature","id":"af2adf14-142f-480f-b164-d59059844043","geometry":{"type":"Polygon","coordinates":[[[2828, 2575],[2828, 2621],[2934, 2621],[2934, 2575],[2828, 2575]]]},"properties":{"objectType":"annotation","name":"total","classification":{"name":"total","color":[255, 255, 0]}}},{"type":"Feature","id":"b45603d8-68ec-41ff-899c-5b021caafc22","geometry":{"type":"Polygon","coordinates":[[[1994, 1491],[1994, 1552],[2323, 1552],[2323, 1491],[1994, 1491]]]},"properties":{"objectType":"annotation","name":"date","classification":{"name":"date","color":[0, 255, 0]}}}]}