{"type":"FeatureCollection","features":[{"type":"Feature","id":"54695b4b-6ef5-4fa8-9922-b8572bca3439","geometry":{"type":"Polygon","coordinates":[[[398, 295],[398, 316],[641, 316],[641, 295],[398, 295]]]},"properties":{"objectType":"annotation","name":"company","classification":{"name":"company","color":[255, 0, 0]}}},{"type":"Feature","id":"596292d1-b3a1-4608-a7f5-d9f1e57aea5a","geometry":{"type":"Polygon","coordinates":[[[657, 812],[657, 829],[694, 829],[694, 812],[657, 812]]]},"properties":{"objectType":"annotation","name":"total","classification":{"name":"total","color":[255, 255, 0]}}},{"type":"Feature","id":"f72f6c58-d292-4a83-add7-4bdd42c1040d","geometry":{"type":"Polygon","coordinates":[[[619, 537],[619, 551],[692, 551],[692, 537],[619, 537]]]},"properties":{"objectType":"annotation","name":"date","classification":{"name":"date","color":[0, 255, 0]}}},{"type":"Feature","id":"17c92250-38ca-4c23-8ba6-da34bb6cb6e3","geometry":{"type":"Polygon","coordinates":[[[413, 341],[413, 395],[626, 395],[626, 341],[413, 341]]]},"properties":{"objectType":"annotation","name":"address","classification":{"name":"address","color":[0, 0, 255]}}}]}