{"type":"FeatureCollection","features":[{"type":"Feature","id":"4b486d22-bc4e-4caf-8f28-9d57a6c41f48","geometry":{"type":"Polygon","coordinates":[[[1483, 1121],[1483, 1217],[2947, 1217],[2947, 1121],[1483, 1121]]]},"properties":{"objectType":"annotation","name":"company","classification":{"name":"company","color":[255, 0, 0]}}},{"type":"Feature","id":"0eb5b0a8-534f-4b20-aba7-fa6379588317","geometry":{"type":"Polygon","coordinates":[[[2712, 3794],[2712, 3869],[2941, 3869],[2941, 3794],[2712, 3794]]]},"properties":{"objectType":"annotation","name":"total","classification":{"name":"total","color":[255, 255, 0]}}},{"type":"Feature","id":"0b39651e-9a64-4876-87d4-27c17be4545c","geometry":{"type":"Polygon","coordinates":[[[1564, 1233],[1564, 1470],[2866, 1470],[2866, 1233],[1564, 1233]]]},"properties":{"objectType":"annotation","name":"address","classification":{"name":"address","color":[0, 0, 255]}}},{"type":"Feature","id":"aa28de2c-6a06-4511-8eb5-016b04216fbc","geometry":{"type":"Polygon","coordinates":[[[2509, 1783],[2509, 1861],[2925, 1861],[2925, 1783],[2509, 1783]]]},"properties":{"objectType":"annotation","name":"date","classification":{"name":"date","color":[0, 255, 0]}}}]}