{"type":"FeatureCollection","features":[{"type":"Feature","id":"145cc80c-5b74-4864-b06c-19e5e33dba67","geometry":{"type":"Polygon","coordinates":[[[1514, 1347],[1514, 1425],[2852, 1425],[2852, 1347],[1514, 1347]]]},"properties":{"objectType":"annotation","name":"company","classification":{"name":"company","color":[255, 0, 0]}}},{"type":"Feature","id":"8f70526c-03b8-4b6b-a173-17b240603d2c","geometry":{"type":"Polygon","coordinates":[[[1605, 1588],[1605, 1752],[2757, 1752],[2757, 1588],[1605, 1588]]]},"properties":{"objectType":"annotation","name":"address","classification":{"name":"address","color":[0, 0, 255]}}},{"type":"Feature","id":"61eec1ba-d5e0-4333-8f53-2e67875d7efe","geometry":{"type":"Polygon","coordinates":[[[2795, 2505],[2795, 2551],[2901, 2551],[2901, 2505],[2795, 2505]]]},"properties":{"objectType":"annotation","name":"total","classification":{"name":"total","color":[255, 255, 0]}}},{"type":"Feature","id":"21a8e6e6-1b43-49d7-b5ef-af70a0a66d52","geometry":{"type":"Polygon","coordinates":[[[1938, 1436],[1938, 1501],[2265, 1501],[2265, 1436],[1938, 1436]]]},"properties":{"objectType":"annotation","name":"date","classification":{"name":"date","color":[0, 255, 0]}}}]}