{"type":"FeatureCollection","features":[{"type":"Feature","id":"de11cbcb-8df0-4606-9e58-bf45a9284692","geometry":{"type":"Polygon","coordinates":[[[1554, 1629],[1554, 1701],[2892, 1701],[2892, 1629],[1554, 1629]]]},"properties":{"objectType":"annotation","name":"company","classification":{"name":"company","color":[255, 0, 0]}}},{"type":"Feature","id":"1f7b41fd-5b9c-4e12-b60e-c06b17553f74","geometry":{"type":"Polygon","coordinates":[[[1659, 1871],[1659, 2028],[2802, 2028],[2802, 1871],[1659, 1871]]]},"properties":{"objectType":"annotation","name":"address","classification":{"name":"address","color":[0, 0, 255]}}},{"type":"Feature","id":"9d3fc307-160f-49c5-a0ed-f5b065debd95","geometry":{"type":"Polygon","coordinates":[[[2841, 2783],[2841, 2837],[2956, 2837],[2956, 2783],[2841, 2783]]]},"properties":{"objectType":"annotation","name":"total","classification":{"name":"total","color":[255, 255, 0]}}},{"type":"Feature","id":"4effae48-c20d-42d4-9697-ed699e74025f","geometry":{"type":"Polygon","coordinates":[[[1991, 1712],[1991, 1771],[2306, 1771],[2306, 1712],[1991, 1712]]]},"properties":{"objectType":"annotation","name":"date","classification":{"name":"date","color":[0, 255, 0]}}}]}