{"type":"FeatureCollection","features":[{"type":"Feature","id":"fe25decf-0c8a-4ea3-852e-87f947cf6a9b","geometry":{"type":"Polygon","coordinates":[[[350, 414],[350, 433],[642, 433],[642, 414],[350, 414]]]},"properties":{"objectType":"annotation","name":"company","classification":{"name":"company","color":[255, 0, 0]}}},{"type":"Feature","id":"81fc577a-3b7c-477f-915d-7f9e0e85a2aa","geometry":{"type":"Polygon","coordinates":[[[634, 713],[634, 724],[660, 724],[660, 713],[634, 713]]]},"properties":{"objectType":"annotation","name":"total","classification":{"name":"total","color":[255, 255, 0]}}},{"type":"Feature","id":"ddcd20ef-54d7-42fe-a6ed-637b2520f6c2","geometry":{"type":"Polygon","coordinates":[[[443, 433],[443, 448],[515, 448],[515, 433],[443, 433]]]},"properties":{"objectType":"annotation","name":"date","classification":{"name":"date","color":[0, 255, 0]}}},{"type":"Feature","id":"4d8ddbbd-8a1d-4802-98be-56ddd5c3da9f","geometry":{"type":"Polygon","coordinates":[[[373, 469],[373, 504],[621, 504],[621, 469],[373, 469]]]},"properties":{"objectType":"annotation","name":"address","classification":{"name":"address","color":[0, 0, 255]}}}]}