{"type":"FeatureCollection","features":[{"type":"Feature","id":"596a5b14-96b2-4ac6-8697-5821985472e2","geometry":{"type":"Polygon","coordinates":[[[1863, 1676],[1863, 1755],[3074, 1755],[3074, 1676],[1863, 1676]]]},"properties":{"objectType":"annotation","name":"company","classification":{"name":"company","color":[255, 0, 0]}}},{"type":"Feature","id":"947cf3f2-1658-427c-a5e3-f935ffd2a4ef","geometry":{"type":"Polygon","coordinates":[[[1870, 1911],[1870, 2042],[3069, 2042],[3069, 1911],[1870, 1911]]]},"properties":{"objectType":"annotation","name":"address","classification":{"name":"address","color":[0, 0, 255]}}},{"type":"Feature","id":"6e5d71b4-2718-435b-84be-578edd7e85ed","geometry":{"type":"Polygon","coordinates":[[[2557, 2189],[2557, 2258],[2848, 2258],[2848, 2189],[2557, 2189]]]},"properties":{"objectType":"annotation","name":"date","classification":{"name":"date","color":[0, 255, 0]}}},{"type":"Feature","id":"da286aa4-ff1e-40ac-bf79-a9f4a31b6aa5","geometry":{"type":"Polygon","coordinates":[[[3119, 3582],[3119, 3644],[3297, 3644],[3297, 3582],[3119, 3582]]]},"properties":{"objectType":"annotation","name":"total","classification":{"name":"total","color":[255, 255, 0]}}}]}