{"type":"FeatureCollection","features":[{"type":"Feature","id":"9a0cccb4-ee83-450f-ac2d-32f4b45ad346","geometry":{"type":"Polygon","coordinates":[[[378, 287],[378, 319],[694, 319],[694, 287],[378, 287]]]},"properties":{"objectType":"annotation","name":"company","classification":{"name":"company","color":[255, 0, 0]}}},{"type":"Feature","id":"f3bc626c-74ac-4904-8976-5646f5712598","geometry":{"type":"Polygon","coordinates":[[[432, 334],[432, 415],[642, 415],[642, 334],[432, 334]]]},"properties":{"objectType":"annotation","name":"address","classification":{"name":"address","color":[0, 0, 255]}}},{"type":"Feature","id":"8003bf84-bb4b-4ce9-a06c-470a9a07a324","geometry":{"type":"Polygon","coordinates":[[[649, 840],[649, 854],[694, 854],[694, 840],[649, 840]]]},"properties":{"objectType":"annotation","name":"total","classification":{"name":"total","color":[255, 255, 0]}}},{"type":"Feature","id":"c9759233-04da-454b-b950-b4a18a622737","geometry":{"type":"Polygon","coordinates":[[[648, 507],[648, 524],[722, 524],[722, 507],[648, 507]]]},"properties":{"objectType":"annotation","name":"date","classification":{"name":"date","color":[0, 255, 0]}}}]}