{"type":"FeatureCollection","features":[{"type":"Feature","id":"e98bb285-b2b0-4868-b70a-573926df70f4","geometry":{"type":"Polygon","coordinates":[[[319, 78],[319, 118],[526, 118],[526, 78],[319, 78]]]},"properties":{"objectType":"annotation","name":"company","classification":{"name":"company","color":[255, 0, 0]}}},{"type":"Feature","id":"4a589127-d815-4bc8-bd2e-9057e71ce43d","geometry":{"type":"Polygon","coordinates":[[[141, 137],[141, 225],[688, 225],[688, 137],[141, 137]]]},"properties":{"objectType":"annotation","name":"address","classification":{"name":"address","color":[0, 0, 255]}}},{"type":"Feature","id":"db9e6d3f-19e9-4246-b3e7-8d5c29a24f8f","geometry":{"type":"Polygon","coordinates":[[[579, 1479],[579, 1511],[648, 1511],[648, 1479],[579, 1479]]]},"properties":{"objectType":"annotation","name":"total","classification":{"name":"total","color":[255, 255, 0]}}},{"type":"Feature","id":"bd347245-77ed-4ca9-a925-3b3e2cbf183a","geometry":{"type":"Polygon","coordinates":[[[607, 317],[607, 361],[737, 361],[737, 317],[607, 317]]]},"properties":{"objectType":"annotation","name":"date","classification":{"name":"date","color":[0, 255, 0]}}}]}