{"type":"FeatureCollection","features":[{"type":"Feature","id":"92873abf-1b5d-4503-a338-f7121f3eac42","geometry":{"type":"Polygon","coordinates":[[[64, 172],[64, 197],[370, 197],[370, 172],[64, 172]]]},"properties":{"objectType":"annotation","name":"company","classification":{"name":"company","color":[255, 0, 0]}}},{"type":"Feature","id":"c7e38376-c0ba-4f09-a63b-0686de2e52af","geometry":{"type":"Polygon","coordinates":[[[160, 201],[160, 280],[338, 280],[338, 201],[160, 201]]]},"properties":{"objectType":"annotation","name":"address","classification":{"name":"address","color":[0, 0, 255]}}},{"type":"Feature","id":"2da1677f-ca36-4f16-ab23-b8de0eec1239","geometry":{"type":"Polygon","coordinates":[[[112, 510],[112, 533],[231, 533],[231, 510],[112, 510]]]},"properties":{"objectType":"annotation","name":"date","classification":{"name":"date","color":[0, 255, 0]}}},{"type":"Feature","id":"7e5a4fcc-ec71-4728-95dc-55cc448c7289","geometry":{"type":"Polygon","coordinates":[[[421, 791],[421, 833],[490, 833],[490, 791],[421, 791]]]},"properties":{"objectType":"annotation","name":"total","classification":{"name":"total","color":[255, 255, 0]}}}]}