{"type":"FeatureCollection","features":[{"type":"Feature","id":"d91375c1-a996-471b-9343-ccca7d0add0c","geometry":{"type":"Polygon","coordinates":[[[338, 337],[338, 354],[628, 354],[628, 337],[338, 337]]]},"properties":{"objectType":"annotation","name":"company","classification":{"name":"company","color":[255, 0, 0]}}},{"type":"Feature","id":"3ed9dd63-e1b8-4d86-85c3-4016fc5c978b","geometry":{"type":"Polygon","coordinates":[[[358, 389],[358, 425],[607, 425],[607, 389],[358, 389]]]},"properties":{"objectType":"annotation","name":"address","classification":{"name":"address","color":[0, 0, 255]}}},{"type":"Feature","id":"8174f36d-e135-451f-a564-cebea56ce95a","geometry":{"type":"Polygon","coordinates":[[[430, 354],[430, 367],[500, 367],[500, 354],[430, 354]]]},"properties":{"objectType":"annotation","name":"date","classification":{"name":"date","color":[0, 255, 0]}}},{"type":"Feature","id":"c6d196fe-3cc6-451f-9549-d696ea643554","geometry":{"type":"Polygon","coordinates":[[[612, 590],[612, 604],[637, 604],[637, 590],[612, 590]]]},"properties":{"objectType":"annotation","name":"total","classification":{"name":"total","color":[255, 255, 0]}}}]}