{"type":"FeatureCollection","features":[{"type":"Feature","id":"51de962e-4228-47d0-bf30-6fdb97834f46","geometry":{"type":"Polygon","coordinates":[[[1498, 1604],[1498, 1688],[2873, 1688],[2873, 1604],[1498, 1604]]]},"properties":{"objectType":"annotation","name":"company","classification":{"name":"company","color":[255, 0, 0]}}},{"type":"Feature","id":"5f5fefea-295f-4f70-83ec-e122f4755a9d","geometry":{"type":"Polygon","coordinates":[[[2816, 2970],[2816, 3024],[2923, 3024],[2923, 2970],[2816, 2970]]]},"properties":{"objectType":"annotation","name":"total","classification":{"name":"total","color":[255, 255, 0]}}},{"type":"Feature","id":"68c9d059-3b68-49d3-9287-30e006785c02","geometry":{"type":"Polygon","coordinates":[[[1612, 1861],[1612, 2021],[2764, 2021],[2764, 1861],[1612, 1861]]]},"properties":{"objectType":"annotation","name":"address","classification":{"name":"address","color":[0, 0, 255]}}},{"type":"Feature","id":"dfc3764e-c7bb-4cbe-ad9f-c8ee86b56d9e","geometry":{"type":"Polygon","coordinates":[[[1937, 1698],[1937, 1762],[2271, 1762],[2271, 1698],[1937, 1698]]]},"properties":{"objectType":"annotation","name":"date","classification":{"name":"date","color":[0, 255, 0]}}}]}