{"type":"FeatureCollection","features":[{"type":"Feature","id":"dd10cfa3-a05c-4091-96fe-cc0d3eb360a1","geometry":{"type":"Polygon","coordinates":[[[1579, 2010],[1579, 2081],[2920, 2081],[2920, 2010],[1579, 2010]]]},"properties":{"objectType":"annotation","name":"company","classification":{"name":"company","color":[255, 0, 0]}}},{"type":"Feature","id":"e0faf9f3-fc47-43d2-bbee-2086205aaf88","geometry":{"type":"Polygon","coordinates":[[[1680, 2261],[1680, 2403],[2834, 2403],[2834, 2261],[1680, 2261]]]},"properties":{"objectType":"annotation","name":"address","classification":{"name":"address","color":[0, 0, 255]}}},{"type":"Feature","id":"bcb69d7b-0802-44ca-bfc5-bc90609f01cd","geometry":{"type":"Polygon","coordinates":[[[2869, 3170],[2869, 3217],[2976, 3217],[2976, 3170],[2869, 3170]]]},"properties":{"objectType":"annotation","name":"total","classification":{"name":"total","color":[255, 255, 0]}}},{"type":"Feature","id":"b8e20872-a964-489e-ba36-443ffce83c67","geometry":{"type":"Polygon","coordinates":[[[2016, 2099],[2016, 2149],[2332, 2149],[2332, 2099],[2016, 2099]]]},"properties":{"objectType":"annotation","name":"date","classification":{"name":"date","color":[0, 255, 0]}}}]}