{"type":"FeatureCollection","features":[{"type":"Feature","id":"526b6016-99fe-420f-b8bb-299cfecadb16","geometry":{"type":"Polygon","coordinates":[[[1397, 1729],[1397, 1826],[2752, 1826],[2752, 1729],[1397, 1729]]]},"properties":{"objectType":"annotation","name":"company","classification":{"name":"company","color":[255, 0, 0]}}},{"type":"Feature","id":"d77f4e50-c022-434e-90fb-8da246a728b4","geometry":{"type":"Polygon","coordinates":[[[1507, 1978],[1507, 2153],[2660, 2153],[2660, 1978],[1507, 1978]]]},"properties":{"objectType":"annotation","name":"address","classification":{"name":"address","color":[0, 0, 255]}}},{"type":"Feature","id":"5724555d-3252-4cc7-b1e8-5fbcbfaa40dc","geometry":{"type":"Polygon","coordinates":[[[2716, 2878],[2716, 2938],[2834, 2938],[2834, 2878],[2716, 2878]]]},"properties":{"objectType":"annotation","name":"total","classification":{"name":"total","color":[255, 255, 0]}}},{"type":"Feature","id":"83840fe7-46f2-4225-9399-c209a38b57c9","geometry":{"type":"Polygon","coordinates":[[[1840, 1828],[1840, 1888],[2156, 1888],[2156, 1828],[1840, 1828]]]},"properties":{"objectType":"annotation","name":"date","classification":{"name":"date","color":[0, 255, 0]}}}]}