{"type":"FeatureCollection","features":[{"type":"Feature","id":"798fcbd3-2c38-476c-9611-e09f8e25b3a3","geometry":{"type":"Polygon","coordinates":[[[1631, 1811],[1631, 1911],[3011, 1911],[3011, 1811],[1631, 1811]]]},"properties":{"objectType":"annotation","name":"company","classification":{"name":"company","color":[255, 0, 0]}}},{"type":"Feature","id":"3b3016df-59f0-417b-8b20-2f9d7fc97160","geometry":{"type":"Polygon","coordinates":[[[2064, 1904],[2064, 1978],[2560, 1978],[2560, 1904],[2064, 1904]]]},"properties":{"objectType":"annotation","name":"date","classification":{"name":"date","color":[0, 255, 0]}}},{"type":"Feature","id":"ab0c7d4a-3d98-44ec-9b91-d02f5ebfe95f","geometry":{"type":"Polygon","coordinates":[[[1736, 2066],[1736, 2238],[2884, 2238],[2884, 2066],[1736, 2066]]]},"properties":{"objectType":"annotation","name":"address","classification":{"name":"address","color":[0, 0, 255]}}},{"type":"Feature","id":"61a9914f-16b6-41ab-a40f-61ec8032ca3c","geometry":{"type":"Polygon","coordinates":[[[2908, 2794],[2908, 2841],[3015, 2841],[3015, 2794],[2908, 2794]]]},"properties":{"objectType":"annotation","name":"total","classification":{"name":"total","color":[255, 255, 0]}}}]}