{"type":"FeatureCollection","features":[{"type":"Feature","id":"efc46eec-e174-4303-97a0-d80b94160179","geometry":{"type":"Polygon","coordinates":[[[173, 86],[173, 144],[680, 144],[680, 86],[173, 86]]]},"properties":{"objectType":"annotation","name":"company","classification":{"name":"company","color":[255, 0, 0]}}},{"type":"Feature","id":"9e1b5012-3164-42a7-bbc3-6eb4e47d7378","geometry":{"type":"Polygon","coordinates":[[[192, 130],[192, 241],[657, 241],[657, 130],[192, 130]]]},"properties":{"objectType":"annotation","name":"address","classification":{"name":"address","color":[0, 0, 255]}}},{"type":"Feature","id":"124a1613-5f1a-4326-9743-7d3ed10e9c50","geometry":{"type":"Polygon","coordinates":[[[510, 1188],[510, 1222],[609, 1222],[609, 1188],[510, 1188]]]},"properties":{"objectType":"annotation","name":"total","classification":{"name":"total","color":[255, 255, 0]}}},{"type":"Feature","id":"7d9db6c6-d15e-41d0-acc0-949e75ae9e02","geometry":{"type":"Polygon","coordinates":[[[276, 480],[276, 513],[450, 513],[450, 480],[276, 480]]]},"properties":{"objectType":"annotation","name":"date","classification":{"name":"date","color":[0, 255, 0]}}}]}