{"type":"FeatureCollection","features":[{"type":"Feature","id":"3cc28264-b47e-4a6c-a48b-82d118cb02a8","geometry":{"type":"Polygon","coordinates":[[[378, 233],[378, 249],[663, 249],[663, 233],[378, 233]]]},"properties":{"objectType":"annotation","name":"company","classification":{"name":"company","color":[255, 0, 0]}}},{"type":"Feature","id":"7ab53e0c-aac8-4021-90df-027df701e550","geometry":{"type":"Polygon","coordinates":[[[392, 298],[392, 335],[646, 335],[646, 298],[392, 298]]]},"properties":{"objectType":"annotation","name":"address","classification":{"name":"address","color":[0, 0, 255]}}},{"type":"Feature","id":"03d9352d-6cf3-4572-94bf-1053a433aa8d","geometry":{"type":"Polygon","coordinates":[[[617, 922],[617, 942],[672, 942],[672, 922],[617, 922]]]},"properties":{"objectType":"annotation","name":"total","classification":{"name":"total","color":[255, 255, 0]}}},{"type":"Feature","id":"4d1dd929-25c0-4127-8528-6fdedf6772fa","geometry":{"type":"Polygon","coordinates":[[[400, 524],[400, 538],[473, 538],[473, 524],[400, 524]]]},"properties":{"objectType":"annotation","name":"date","classification":{"name":"date","color":[0, 255, 0]}}}]}