{"type":"FeatureCollection","features":[{"type":"Feature","id":"d0126ce8-49a0-45ba-8348-abd2c22477ea","geometry":{"type":"Polygon","coordinates":[[[1669, 1727],[1669, 1827],[3010, 1827],[3010, 1727],[1669, 1727]]]},"properties":{"objectType":"annotation","name":"company","classification":{"name":"company","color":[255, 0, 0]}}},{"type":"Feature","id":"23a85870-e59a-40f4-a4c1-a3e9a30ba26b","geometry":{"type":"Polygon","coordinates":[[[1769, 1981],[1769, 2148],[2920, 2148],[2920, 1981],[1769, 1981]]]},"properties":{"objectType":"annotation","name":"address","classification":{"name":"address","color":[0, 0, 255]}}},{"type":"Feature","id":"79a8e8f2-1192-42f9-b1a5-ff3e95714d1a","geometry":{"type":"Polygon","coordinates":[[[2974, 2885],[2974, 2935],[3084, 2935],[3084, 2885],[2974, 2885]]]},"properties":{"objectType":"annotation","name":"total","classification":{"name":"total","color":[255, 255, 0]}}},{"type":"Feature","id":"8b8277ff-a249-46be-9a0e-2dbc6fd243a5","geometry":{"type":"Polygon","coordinates":[[[2100, 1829],[2100, 1884],[2415, 1884],[2415, 1829],[2100, 1829]]]},"properties":{"objectType":"annotation","name":"date","classification":{"name":"date","color":[0, 255, 0]}}}]}