{"type":"FeatureCollection","features":[{"type":"Feature","id":"1bea7e8f-1110-4e38-89f7-fd094d5711be","geometry":{"type":"Polygon","coordinates":[[[351, 356],[351, 373],[643, 373],[643, 356],[351, 356]]]},"properties":{"objectType":"annotation","name":"company","classification":{"name":"company","color":[255, 0, 0]}}},{"type":"Feature","id":"f1d14551-0881-44e7-b18d-4faae5ae448d","geometry":{"type":"Polygon","coordinates":[[[372, 409],[372, 444],[622, 444],[622, 409],[372, 409]]]},"properties":{"objectType":"annotation","name":"address","classification":{"name":"address","color":[0, 0, 255]}}},{"type":"Feature","id":"16b225ba-d787-4ec4-a6aa-70827c55ed5b","geometry":{"type":"Polygon","coordinates":[[[627, 609],[627, 623],[652, 623],[652, 609],[627, 609]]]},"properties":{"objectType":"annotation","name":"total","classification":{"name":"total","color":[255, 255, 0]}}},{"type":"Feature","id":"bb60b1be-2660-44a4-9cc0-c35e3e95857a","geometry":{"type":"Polygon","coordinates":[[[443, 375],[443, 387],[515, 387],[515, 375],[443, 375]]]},"properties":{"objectType":"annotation","name":"date","classification":{"name":"date","color":[0, 255, 0]}}}]}