{"type":"FeatureCollection","features":[{"type":"Feature","id":"ec06cedb-0ad2-4473-8020-5c2b16bc80b8","geometry":{"type":"Polygon","coordinates":[[[1580, 1779],[1580, 1856],[2914, 1856],[2914, 1779],[1580, 1779]]]},"properties":{"objectType":"annotation","name":"company","classification":{"name":"company","color":[255, 0, 0]}}},{"type":"Feature","id":"1a189760-2b4e-4d01-9e30-8877ad3db39b","geometry":{"type":"Polygon","coordinates":[[[1672, 2023],[1672, 2172],[2820, 2172],[2820, 2023],[1672, 2023]]]},"properties":{"objectType":"annotation","name":"address","classification":{"name":"address","color":[0, 0, 255]}}},{"type":"Feature","id":"341ce46e-769e-49c6-8e12-d5f70162550b","geometry":{"type":"Polygon","coordinates":[[[2848, 2946],[2848, 2997],[2957, 2997],[2957, 2946],[2848, 2946]]]},"properties":{"objectType":"annotation","name":"total","classification":{"name":"total","color":[255, 255, 0]}}},{"type":"Feature","id":"f6627ce0-8228-496d-b1eb-d8061c5583db","geometry":{"type":"Polygon","coordinates":[[[2006, 1867],[2006, 1920],[2325, 1920],[2325, 1867],[2006, 1867]]]},"properties":{"objectType":"annotation","name":"date","classification":{"name":"date","color":[0, 255, 0]}}}]}