{"type":"FeatureCollection","features":[{"type":"Feature","id":"8df610da-264d-4135-9ba3-42a5678036d9","geometry":{"type":"Polygon","coordinates":[[[417, 173],[417, 196],[662, 196],[662, 173],[417, 173]]]},"properties":{"objectType":"annotation","name":"company","classification":{"name":"company","color":[255, 0, 0]}}},{"type":"Feature","id":"3e2c704e-5b7d-4a93-9465-856ace903310","geometry":{"type":"Polygon","coordinates":[[[434, 218],[434, 275],[647, 275],[647, 218],[434, 218]]]},"properties":{"objectType":"annotation","name":"address","classification":{"name":"address","color":[0, 0, 255]}}},{"type":"Feature","id":"72bec564-8d0a-440e-ba91-4e47aee5606d","geometry":{"type":"Polygon","coordinates":[[[641, 413],[641, 429],[717, 429],[717, 413],[641, 413]]]},"properties":{"objectType":"annotation","name":"date","classification":{"name":"date","color":[0, 255, 0]}}},{"type":"Feature","id":"01ab9e5e-1989-4eb8-8fe9-56995abbf61c","geometry":{"type":"Polygon","coordinates":[[[670, 1143],[670, 1162],[729, 1162],[729, 1143],[670, 1143]]]},"properties":{"objectType":"annotation","name":"total","classification":{"name":"total","color":[255, 255, 0]}}}]}