{"type":"FeatureCollection","features":[{"type":"Feature","id":"0d6cd2ae-169f-48f7-be30-bf10de9057a7","geometry":{"type":"Polygon","coordinates":[[[73, 291],[73, 328],[616, 328],[616, 291],[73, 291]]]},"properties":{"objectType":"annotation","name":"company","classification":{"name":"company","color":[255, 0, 0]}}},{"type":"Feature","id":"dc438ec0-d2c8-453d-ae0f-ab1de718402c","geometry":{"type":"Polygon","coordinates":[[[73, 333],[73, 410],[777, 410],[777, 333],[73, 333]]]},"properties":{"objectType":"annotation","name":"address","classification":{"name":"address","color":[0, 0, 255]}}},{"type":"Feature","id":"07f1e714-84c8-4763-9c63-26aaffacb396","geometry":{"type":"Polygon","coordinates":[[[708, 1641],[708, 1672],[790, 1672],[790, 1641],[708, 1641]]]},"properties":{"objectType":"annotation","name":"total","classification":{"name":"total","color":[255, 255, 0]}}},{"type":"Feature","id":"b2adaf07-cf3b-42b8-a493-3b08416bcfb1","geometry":{"type":"Polygon","coordinates":[[[532, 844],[532, 880],[703, 880],[703, 844],[532, 844]]]},"properties":{"objectType":"annotation","name":"date","classification":{"name":"date","color":[0, 255, 0]}}}]}