{"type":"FeatureCollection","features":[{"type":"Feature","id":"3941835e-2153-4eff-9662-44f2221b5d31","geometry":{"type":"Polygon","coordinates":[[[1638, 1462],[1638, 1549],[2974, 1549],[2974, 1462],[1638, 1462]]]},"properties":{"objectType":"annotation","name":"company","classification":{"name":"company","color":[255, 0, 0]}}},{"type":"Feature","id":"bd31092a-e914-4d08-bcce-055746c0db66","geometry":{"type":"Polygon","coordinates":[[[2938, 2839],[2938, 2886],[3043, 2886],[3043, 2839],[2938, 2839]]]},"properties":{"objectType":"annotation","name":"total","classification":{"name":"total","color":[255, 255, 0]}}},{"type":"Feature","id":"d75c6960-fab7-4c45-bca7-4b472fc6dfe9","geometry":{"type":"Polygon","coordinates":[[[1734, 1711],[1734, 1869],[2884, 1869],[2884, 1711],[1734, 1711]]]},"properties":{"objectType":"annotation","name":"address","classification":{"name":"address","color":[0, 0, 255]}}},{"type":"Feature","id":"52f263f8-ab1e-4fdf-9360-d2780785c7ff","geometry":{"type":"Polygon","coordinates":[[[2075, 1545],[2075, 1615],[2388, 1615],[2388, 1545],[2075, 1545]]]},"properties":{"objectType":"annotation","name":"date","classification":{"name":"date","color":[0, 255, 0]}}}]}