{"type":"FeatureCollection","features":[{"type":"Feature","id":"31f4111b-f72b-455c-bece-7d11f4508eba","geometry":{"type":"Polygon","coordinates":[[[1349, 1432],[1349, 1532],[2684, 1532],[2684, 1432],[1349, 1432]]]},"properties":{"objectType":"annotation","name":"company","classification":{"name":"company","color":[255, 0, 0]}}},{"type":"Feature","id":"bb6f2d35-6a35-4a0e-a464-725126fdd347","geometry":{"type":"Polygon","coordinates":[[[1456, 1683],[1456, 1850],[2605, 1850],[2605, 1683],[1456, 1683]]]},"properties":{"objectType":"annotation","name":"address","classification":{"name":"address","color":[0, 0, 255]}}},{"type":"Feature","id":"9fde11d8-64ad-498f-8ad2-321ae656e977","geometry":{"type":"Polygon","coordinates":[[[2666, 2589],[2666, 2640],[2772, 2640],[2772, 2589],[2666, 2589]]]},"properties":{"objectType":"annotation","name":"total","classification":{"name":"total","color":[255, 255, 0]}}},{"type":"Feature","id":"44fa0dfa-cdad-460f-a663-85458f921a18","geometry":{"type":"Polygon","coordinates":[[[1779, 1533],[1779, 1594],[2111, 1594],[2111, 1533],[1779, 1533]]]},"properties":{"objectType":"annotation","name":"date","classification":{"name":"date","color":[0, 255, 0]}}}]}