{"type":"FeatureCollection","features":[{"type":"Feature","id":"ced62151-025c-467f-bbc5-6f7c00a81486","geometry":{"type":"Polygon","coordinates":[[[37, 210],[37, 289],[527, 289],[527, 210],[37, 210]]]},"properties":{"objectType":"annotation","name":"address","classification":{"name":"address","color":[0, 0, 255]}}},{"type":"Feature","id":"3b088823-d168-4dd8-b0e6-9625d45077d2","geometry":{"type":"Polygon","coordinates":[[[447, 839],[447, 876],[572, 876],[572, 839],[447, 839]]]},"properties":{"objectType":"annotation","name":"total","classification":{"name":"total","color":[255, 255, 0]}}},{"type":"Feature","id":"e1d5e12f-58ab-4b5c-a726-482f2e6e1985","geometry":{"type":"Polygon","coordinates":[[[106, 503],[106, 524],[217, 524],[217, 503],[106, 503]]]},"properties":{"objectType":"annotation","name":"date","classification":{"name":"date","color":[0, 255, 0]}}},{"type":"Feature","id":"13655b02-e58e-4d13-b807-71803932f68e","geometry":{"type":"Polygon","coordinates":[[[77, 110],[77, 171],[514, 171],[514, 110],[77, 110]]]},"properties":{"objectType":"annotation","name":"company","classification":{"name":"company","color":[255, 0, 0]}}}]}