{"type":"FeatureCollection","features":[{"type":"Feature","id":"c9c4eda8-fe26-4dc5-9618-cef9b9686397","geometry":{"type":"Polygon","coordinates":[[[64, 172],[64, 201],[519, 201],[519, 172],[64, 172]]]},"properties":{"objectType":"annotation","name":"company","classification":{"name":"company","color":[255, 0, 0]}}},{"type":"Feature","id":"89265823-46ec-49eb-a5c9-3b4f0833abd5","geometry":{"type":"Polygon","coordinates":[[[156, 206],[156, 300],[418, 300],[418, 206],[156, 206]]]},"properties":{"objectType":"annotation","name":"address","classification":{"name":"address","color":[0, 0, 255]}}},{"type":"Feature","id":"a52d147d-6ddc-4daf-810a-a170c37a779d","geometry":{"type":"Polygon","coordinates":[[[148, 562],[148, 587],[278, 587],[278, 562],[148, 562]]]},"properties":{"objectType":"annotation","name":"date","classification":{"name":"date","color":[0, 255, 0]}}},{"type":"Feature","id":"768b6287-9b5a-4d5d-9038-a6c8220f09de","geometry":{"type":"Polygon","coordinates":[[[399, 952],[399, 1004],[559, 1004],[559, 952],[399, 952]]]},"properties":{"objectType":"annotation","name":"total","classification":{"name":"total","color":[255, 255, 0]}}}]}