{"type":"FeatureCollection","features":[{"type":"Feature","id":"12607575-cb6e-4579-b5fe-b53539d6a110","geometry":{"type":"Polygon","coordinates":[[[43, 87],[43, 111],[350, 111],[350, 87],[43, 87]]]},"properties":{"objectType":"annotation","name":"company","classification":{"name":"company","color":[255, 0, 0]}}},{"type":"Feature","id":"7843ea91-7ae0-43e4-bb93-8cdc97f5ffda","geometry":{"type":"Polygon","coordinates":[[[299, 403],[299, 425],[362, 425],[362, 403],[299, 403]]]},"properties":{"objectType":"annotation","name":"total","classification":{"name":"total","color":[255, 255, 0]}}},{"type":"Feature","id":"ec2bd9e0-56c0-41fd-8773-6a3bf3e2f2b0","geometry":{"type":"Polygon","coordinates":[[[41, 113],[41, 185],[375, 185],[375, 113],[41, 113]]]},"properties":{"objectType":"annotation","name":"address","classification":{"name":"address","color":[0, 0, 255]}}},{"type":"Feature","id":"2d3a6ebc-f22f-4fb9-abb1-a241829d6422","geometry":{"type":"Polygon","coordinates":[[[43, 685],[43, 706],[144, 706],[144, 685],[43, 685]]]},"properties":{"objectType":"annotation","name":"date","classification":{"name":"date","color":[0, 255, 0]}}}]}