{"type":"FeatureCollection","features":[{"type":"Feature","id":"5ec06ae3-be53-48b3-b61a-b7b809824230","geometry":{"type":"Polygon","coordinates":[[[146, 47],[146, 125],[565, 125],[565, 47],[146, 47]]]},"properties":{"objectType":"annotation","name":"company","classification":{"name":"company","color":[255, 0, 0]}}},{"type":"Feature","id":"0d7dfd8e-4a87-48ed-8ac2-d0418454364c","geometry":{"type":"Polygon","coordinates":[[[85, 120],[85, 269],[625, 269],[625, 120],[85, 120]]]},"properties":{"objectType":"annotation","name":"address","classification":{"name":"address","color":[0, 0, 255]}}},{"type":"Feature","id":"125173a1-8d10-4633-9a7f-bb6d24ab0210","geometry":{"type":"Polygon","coordinates":[[[247, 475],[247, 500],[378, 500],[378, 475],[247, 475]]]},"properties":{"objectType":"annotation","name":"date","classification":{"name":"date","color":[0, 255, 0]}}},{"type":"Feature","id":"bfd7df02-81c0-4dff-a5e7-b7c7a316e9bc","geometry":{"type":"Polygon","coordinates":[[[446, 838],[446, 863],[511, 863],[511, 838],[446, 838]]]},"properties":{"objectType":"annotation","name":"total","classification":{"name":"total","color":[255, 255, 0]}}}]}