{"type":"FeatureCollection","features":[{"type":"Feature","id":"e0667058-1fa5-47d4-b7be-2806b566b916","geometry":{"type":"Polygon","coordinates":[[[1664, 1590],[1664, 1669],[2958, 1669],[2958, 1590],[1664, 1590]]]},"properties":{"objectType":"annotation","name":"company","classification":{"name":"company","color":[255, 0, 0]}}},{"type":"Feature","id":"e79cd0ac-2ee8-477f-b998-7f64c6c7514f","geometry":{"type":"Polygon","coordinates":[[[1542, 1877],[1542, 2162],[3102, 2162],[3102, 1877],[1542, 1877]]]},"properties":{"objectType":"annotation","name":"address","classification":{"name":"address","color":[0, 0, 255]}}},{"type":"Feature","id":"00c41013-ae7c-47aa-8896-3f64d8c3a11b","geometry":{"type":"Polygon","coordinates":[[[2871, 3944],[2871, 4033],[3064, 4033],[3064, 3944],[2871, 3944]]]},"properties":{"objectType":"annotation","name":"total","classification":{"name":"total","color":[255, 255, 0]}}},{"type":"Feature","id":"6d62ae37-8dea-4f33-b02e-fcc6383768a7","geometry":{"type":"Polygon","coordinates":[[[2200, 2958],[2200, 3048],[2604, 3048],[2604, 2958],[2200, 2958]]]},"properties":{"objectType":"annotation","name":"date","classification":{"name":"date","color":[0, 255, 0]}}}]}