{"type":"FeatureCollection","features":[{"type":"Feature","id":"df4057c1-ce37-4b82-b4f3-21c47605024d","geometry":{"type":"Polygon","coordinates":[[[723, 557],[723, 618],[1451, 618],[1451, 557],[723, 557]]]},"properties":{"objectType":"annotation","name":"company","classification":{"name":"company","color":[255, 0, 0]}}},{"type":"Feature","id":"259a3fe8-13ad-464b-9a41-0fd94e48b919","geometry":{"type":"Polygon","coordinates":[[[789, 657],[789, 720],[1390, 720],[1390, 657],[789, 657]]]},"properties":{"objectType":"annotation","name":"address","classification":{"name":"address","color":[0, 0, 255]}}},{"type":"Feature","id":"6f63c5d5-2a1b-4a2d-baef-6ffbdcb0e09e","geometry":{"type":"Polygon","coordinates":[[[1321, 1046],[1321, 1081],[1513, 1081],[1513, 1046],[1321, 1046]]]},"properties":{"objectType":"annotation","name":"date","classification":{"name":"date","color":[0, 255, 0]}}},{"type":"Feature","id":"cb0ecd52-4e25-4e65-bd80-26d1e6abf656","geometry":{"type":"Polygon","coordinates":[[[1361, 1829],[1361, 1874],[1487, 1874],[1487, 1829],[1361, 1829]]]},"properties":{"objectType":"annotation","name":"total","classification":{"name":"total","color":[255, 255, 0]}}}]}