{"type":"FeatureCollection","features":[{"type":"Feature","id":"706dae62-ec4d-40ae-8733-04e7d705d453","geometry":{"type":"Polygon","coordinates":[[[1782, 1167],[1782, 1443],[3269, 1443],[3269, 1167],[1782, 1167]]]},"properties":{"objectType":"annotation","name":"company","classification":{"name":"company","color":[255, 0, 0]}}},{"type":"Feature","id":"f6447aca-a7c3-4781-9654-3390b83d1819","geometry":{"type":"Polygon","coordinates":[[[1821, 1680],[1821, 1865],[3229, 1865],[3229, 1680],[1821, 1680]]]},"properties":{"objectType":"annotation","name":"address","classification":{"name":"address","color":[0, 0, 255]}}},{"type":"Feature","id":"dd1525d0-3275-4b9b-9a14-74e273ff7c1d","geometry":{"type":"Polygon","coordinates":[[[2887, 3919],[2887, 4027],[3150, 4027],[3150, 3919],[2887, 3919]]]},"properties":{"objectType":"annotation","name":"total","classification":{"name":"total","color":[255, 255, 0]}}},{"type":"Feature","id":"83318ad0-dca8-452d-8132-42bd5baa53aa","geometry":{"type":"Polygon","coordinates":[[[2306, 2297],[2306, 2369],[2571, 2369],[2571, 2297],[2306, 2297]]]},"properties":{"objectType":"annotation","name":"date","classification":{"name":"date","color":[0, 255, 0]}}}]}