{"type":"FeatureCollection","features":[{"type":"Feature","id":"5f4e9d21-49d5-4b17-adbd-d0e2251a1278","geometry":{"type":"Polygon","coordinates":[[[1502, 1406],[1502, 1514],[2844, 1514],[2844, 1406],[1502, 1406]]]},"properties":{"objectType":"annotation","name":"company","classification":{"name":"company","color":[255, 0, 0]}}},{"type":"Feature","id":"1621dfda-b6fe-408b-9c5e-072c2b369cb9","geometry":{"type":"Polygon","coordinates":[[[2793, 2781],[2793, 2830],[2931, 2830],[2931, 2781],[2793, 2781]]]},"properties":{"objectType":"annotation","name":"total","classification":{"name":"total","color":[255, 255, 0]}}},{"type":"Feature","id":"aac4c2af-4012-4562-b5aa-13947f325ef4","geometry":{"type":"Polygon","coordinates":[[[1928, 1517],[1928, 1582],[2262, 1582],[2262, 1517],[1928, 1517]]]},"properties":{"objectType":"annotation","name":"date","classification":{"name":"date","color":[0, 255, 0]}}},{"type":"Feature","id":"9b0482f1-8f90-426b-96c3-cfdc56e0b0cf","geometry":{"type":"Polygon","coordinates":[[[1612, 1662],[1612, 1836],[2749, 1836],[2749, 1662],[1612, 1662]]]},"properties":{"objectType":"annotation","name":"address","classification":{"name":"address","color":[0, 0, 255]}}}]}