{"type":"FeatureCollection","features":[{"type":"Feature","id":"cd98b64c-ae21-41f4-adc9-da784c5e1514","geometry":{"type":"Polygon","coordinates":[[[1663, 1253],[1663, 1344],[2977, 1344],[2977, 1253],[1663, 1253]]]},"properties":{"objectType":"annotation","name":"company","classification":{"name":"company","color":[255, 0, 0]}}},{"type":"Feature","id":"4ea3f7db-ef6a-43e6-817f-ecc84460226d","geometry":{"type":"Polygon","coordinates":[[[1456, 1423],[1456, 1611],[3170, 1611],[3170, 1423],[1456, 1423]]]},"properties":{"objectType":"annotation","name":"address","classification":{"name":"address","color":[0, 0, 255]}}},{"type":"Feature","id":"1fbd26ab-49bb-4014-b190-f2ebd0752aea","geometry":{"type":"Polygon","coordinates":[[[2753, 3589],[2753, 3730],[3091, 3730],[3091, 3589],[2753, 3589]]]},"properties":{"objectType":"annotation","name":"total","classification":{"name":"total","color":[255, 255, 0]}}},{"type":"Feature","id":"0c5b69c0-3f14-47db-ba7b-57f8d2bf58cc","geometry":{"type":"Polygon","coordinates":[[[1885, 2132],[1885, 2209],[2244, 2209],[2244, 2132],[1885, 2132]]]},"properties":{"objectType":"annotation","name":"date","classification":{"name":"date","color":[0, 255, 0]}}}]}