{"type":"FeatureCollection","features":[{"type":"Feature","id":"3daf0a98-707f-4b06-b785-851794398cd8","geometry":{"type":"Polygon","coordinates":[[[1537, 1757],[1537, 1839],[2943, 1839],[2943, 1757],[1537, 1757]]]},"properties":{"objectType":"annotation","name":"company","classification":{"name":"company","color":[255, 0, 0]}}},{"type":"Feature","id":"d78aa30f-ce3d-43ba-a3ba-79ed64e3916f","geometry":{"type":"Polygon","coordinates":[[[1742, 1993],[1742, 2286],[2751, 2286],[2751, 1993],[1742, 1993]]]},"properties":{"objectType":"annotation","name":"address","classification":{"name":"address","color":[0, 0, 255]}}},{"type":"Feature","id":"738e53a0-fca1-418b-accc-4ad9a55b900c","geometry":{"type":"Polygon","coordinates":[[[2737, 3560],[2737, 3659],[2991, 3659],[2991, 3560],[2737, 3560]]]},"properties":{"objectType":"annotation","name":"total","classification":{"name":"total","color":[255, 255, 0]}}},{"type":"Feature","id":"b64864fb-1028-4eff-b7ae-fa702d190193","geometry":{"type":"Polygon","coordinates":[[[1882, 2642],[1882, 2707],[2153, 2707],[2153, 2642],[1882, 2642]]]},"properties":{"objectType":"annotation","name":"date","classification":{"name":"date","color":[0, 255, 0]}}}]}