{"type":"FeatureCollection","features":[{"type":"Feature","id":"177dd529-e00b-4b01-b0d9-c66e29c0bea5","geometry":{"type":"Polygon","coordinates":[[[348, 339],[348, 354],[638, 354],[638, 339],[348, 339]]]},"properties":{"objectType":"annotation","name":"company","classification":{"name":"company","color":[255, 0, 0]}}},{"type":"Feature","id":"e6ccfb6d-e726-409e-9181-abfcc30c325b","geometry":{"type":"Polygon","coordinates":[[[368, 392],[368, 426],[619, 426],[619, 392],[368, 392]]]},"properties":{"objectType":"annotation","name":"address","classification":{"name":"address","color":[0, 0, 255]}}},{"type":"Feature","id":"56801691-2539-476a-b934-4fcde7920956","geometry":{"type":"Polygon","coordinates":[[[626, 591],[626, 603],[650, 603],[650, 591],[626, 591]]]},"properties":{"objectType":"annotation","name":"total","classification":{"name":"total","color":[255, 255, 0]}}},{"type":"Feature","id":"5ce78df3-7f13-47d1-adcc-98f832ba1932","geometry":{"type":"Polygon","coordinates":[[[440, 356],[440, 369],[512, 369],[512, 356],[440, 356]]]},"properties":{"objectType":"annotation","name":"date","classification":{"name":"date","color":[0, 255, 0]}}}]}