{"type":"FeatureCollection","features":[{"type":"Feature","id":"d171c679-eb79-4ce0-81ba-5b3be1280684","geometry":{"type":"Polygon","coordinates":[[[2091, 1914],[2091, 2017],[2927, 2017],[2927, 1914],[2091, 1914]]]},"properties":{"objectType":"annotation","name":"company","classification":{"name":"company","color":[255, 0, 0]}}},{"type":"Feature","id":"c98e082b-390b-4652-9f29-07443a2ef951","geometry":{"type":"Polygon","coordinates":[[[2066, 1415],[2066, 1826],[2978, 1826],[2978, 1415],[2066, 1415]]]},"properties":{"objectType":"annotation","name":"address","classification":{"name":"address","color":[0, 0, 255]}}},{"type":"Feature","id":"ad0bb1f7-1653-4d5e-a1d2-5dc9cfecdbdc","geometry":{"type":"Polygon","coordinates":[[[1705, 2318],[1705, 2409],[2109, 2409],[2109, 2318],[1705, 2318]]]},"properties":{"objectType":"annotation","name":"date","classification":{"name":"date","color":[0, 255, 0]}}},{"type":"Feature","id":"540a2d37-7055-44f0-8ceb-1110a3253b0e","geometry":{"type":"Polygon","coordinates":[[[3083, 3431],[3083, 3518],[3291, 3518],[3291, 3431],[3083, 3431]]]},"properties":{"objectType":"annotation","name":"total","classification":{"name":"total","color":[255, 255, 0]}}}]}