{"type":"FeatureCollection","features":[{"type":"Feature","id":"20748523-0018-4831-aef6-f48bc184660c","geometry":{"type":"Polygon","coordinates":[[[141, 445],[141, 505],[861, 505],[861, 445],[141, 445]]]},"properties":{"objectType":"annotation","name":"company","classification":{"name":"company","color":[255, 0, 0]}}},{"type":"Feature","id":"6436f764-6a46-451f-8085-9c7ad5950408","geometry":{"type":"Polygon","coordinates":[[[759, 1720],[759, 1763],[885, 1763],[885, 1720],[759, 1720]]]},"properties":{"objectType":"annotation","name":"total","classification":{"name":"total","color":[255, 255, 0]}}},{"type":"Feature","id":"99856413-f819-42bb-8095-5627b9aec858","geometry":{"type":"Polygon","coordinates":[[[733, 935],[733, 968],[921, 968],[921, 935],[733, 935]]]},"properties":{"objectType":"annotation","name":"date","classification":{"name":"date","color":[0, 255, 0]}}},{"type":"Feature","id":"28f5e238-1d03-486f-ac05-b6eca407276d","geometry":{"type":"Polygon","coordinates":[[[204, 543],[204, 607],[797, 607],[797, 543],[204, 543]]]},"properties":{"objectType":"annotation","name":"address","classification":{"name":"address","color":[0, 0, 255]}}}]}