{"type":"FeatureCollection","features":[{"type":"Feature","id":"6647262a-b697-4115-b481-9b04a9749736","geometry":{"type":"Polygon","coordinates":[[[113, 203],[113, 229],[660, 229],[660, 203],[113, 203]]]},"properties":{"objectType":"annotation","name":"company","classification":{"name":"company","color":[255, 0, 0]}}},{"type":"Feature","id":"dc6fbc45-c9f6-4035-a624-a9e6c7531a06","geometry":{"type":"Polygon","coordinates":[[[109, 233],[109, 294],[666, 294],[666, 233],[109, 233]]]},"properties":{"objectType":"annotation","name":"address","classification":{"name":"address","color":[0, 0, 255]}}},{"type":"Feature","id":"353b9ef6-7bac-45a5-a5d9-532b5b1e83ac","geometry":{"type":"Polygon","coordinates":[[[247, 468],[247, 491],[360, 491],[360, 468],[247, 468]]]},"properties":{"objectType":"annotation","name":"date","classification":{"name":"date","color":[0, 255, 0]}}},{"type":"Feature","id":"32a2a035-4560-4cc7-8780-dc800ec01290","geometry":{"type":"Polygon","coordinates":[[[548, 931],[548, 957],[623, 957],[623, 931],[548, 931]]]},"properties":{"objectType":"annotation","name":"total","classification":{"name":"total","color":[255, 255, 0]}}}]}