{"type":"FeatureCollection","features":[{"type":"Feature","id":"3e4e48cb-c079-4247-a1bd-7af9052afbd4","geometry":{"type":"Polygon","coordinates":[[[1711, 1444],[1711, 1535],[2962, 1535],[2962, 1444],[1711, 1444]]]},"properties":{"objectType":"annotation","name":"company","classification":{"name":"company","color":[255, 0, 0]}}},{"type":"Feature","id":"a3424bd8-aaab-4e46-9a20-776aac344e66","geometry":{"type":"Polygon","coordinates":[[[2770, 4043],[2770, 4102],[2937, 4102],[2937, 4043],[2770, 4043]]]},"properties":{"objectType":"annotation","name":"total","classification":{"name":"total","color":[255, 255, 0]}}},{"type":"Feature","id":"6f412f6e-f89e-4dc7-92c4-964a14eefc3a","geometry":{"type":"Polygon","coordinates":[[[2815, 2270],[2815, 2356],[3152, 2356],[3152, 2270],[2815, 2270]]]},"properties":{"objectType":"annotation","name":"date","classification":{"name":"date","color":[0, 255, 0]}}},{"type":"Feature","id":"9652365e-9aa9-4614-98f1-8ebc7f3aa2bd","geometry":{"type":"Polygon","coordinates":[[[1778, 1622],[1778, 1914],[2900, 1914],[2900, 1622],[1778, 1622]]]},"properties":{"objectType":"annotation","name":"address","classification":{"name":"address","color":[0, 0, 255]}}}]}