{"type":"FeatureCollection","features":[{"type":"Feature","id":"eb8c3562-8a2d-47d9-b210-2a676d0c8db0","geometry":{"type":"Polygon","coordinates":[[[1567, 1847],[1567, 1943],[2908, 1943],[2908, 1847],[1567, 1847]]]},"properties":{"objectType":"annotation","name":"company","classification":{"name":"company","color":[255, 0, 0]}}},{"type":"Feature","id":"f0762a82-5bda-43ca-825a-42c7ace4fa7c","geometry":{"type":"Polygon","coordinates":[[[2824, 3251],[2824, 3303],[2933, 3303],[2933, 3251],[2824, 3251]]]},"properties":{"objectType":"annotation","name":"total","classification":{"name":"total","color":[255, 255, 0]}}},{"type":"Feature","id":"b102f2bf-478c-4edd-820e-b2ed92410248","geometry":{"type":"Polygon","coordinates":[[[1994, 1944],[1994, 2009],[2320, 2009],[2320, 1944],[1994, 1944]]]},"properties":{"objectType":"annotation","name":"date","classification":{"name":"date","color":[0, 255, 0]}}},{"type":"Feature","id":"7c56640c-7465-4de8-8cb6-4a4b5271437c","geometry":{"type":"Polygon","coordinates":[[[1668, 2096],[1668, 2269],[2816, 2269],[2816, 2096],[1668, 2096]]]},"properties":{"objectType":"annotation","name":"address","classification":{"name":"address","color":[0, 0, 255]}}}]}