{"type":"FeatureCollection","features":[{"type":"Feature","id":"a7f1d0d9-8148-46bb-a988-f3f4d1835b06","geometry":{"type":"Polygon","coordinates":[[[334, 344],[334, 359],[627, 359],[627, 344],[334, 344]]]},"properties":{"objectType":"annotation","name":"company","classification":{"name":"company","color":[255, 0, 0]}}},{"type":"Feature","id":"d8e7e1be-eea7-4971-8cf5-dc5f21925334","geometry":{"type":"Polygon","coordinates":[[[617, 642],[617, 654],[641, 654],[641, 642],[617, 642]]]},"properties":{"objectType":"annotation","name":"total","classification":{"name":"total","color":[255, 255, 0]}}},{"type":"Feature","id":"777937ff-02b9-44fa-ae60-22731b74771d","geometry":{"type":"Polygon","coordinates":[[[358, 396],[358, 430],[607, 430],[607, 396],[358, 396]]]},"properties":{"objectType":"annotation","name":"address","classification":{"name":"address","color":[0, 0, 255]}}},{"type":"Feature","id":"59c5280b-9bb6-44cf-9c52-6559735e5f8c","geometry":{"type":"Polygon","coordinates":[[[426, 360],[426, 373],[500, 373],[500, 360],[426, 360]]]},"properties":{"objectType":"annotation","name":"date","classification":{"name":"date","color":[0, 255, 0]}}}]}