{"type":"FeatureCollection","features":[{"type":"Feature","id":"3b5bb02d-0628-4ca8-82f0-4e7036994a7e","geometry":{"type":"Polygon","coordinates":[[[404, 271],[404, 364],[597, 364],[597, 271],[404, 271]]]},"properties":{"objectType":"annotation","name":"address","classification":{"name":"address","color":[0, 0, 255]}}},{"type":"Feature","id":"7acd692b-e8e3-42bc-a737-c2f0bb2f8edc","geometry":{"type":"Polygon","coordinates":[[[547, 777],[547, 810],[622, 810],[622, 777],[547, 777]]]},"properties":{"objectType":"annotation","name":"total","classification":{"name":"total","color":[255, 255, 0]}}},{"type":"Feature","id":"9dd9b975-0197-4068-965d-b980f1e6e59b","geometry":{"type":"Polygon","coordinates":[[[483, 436],[483, 452],[559, 452],[559, 436],[483, 436]]]},"properties":{"objectType":"annotation","name":"date","classification":{"name":"date","color":[0, 255, 0]}}},{"type":"Feature","id":"b5ea13fc-fee6-447a-8539-f2407a418e24","geometry":{"type":"Polygon","coordinates":[[[429, 251],[429, 270],[585, 270],[585, 251],[429, 251]]]},"properties":{"objectType":"annotation","name":"company","classification":{"name":"company","color":[255, 0, 0]}}}]}