{"type":"FeatureCollection","features":[{"type":"Feature","id":"10459568-ff92-4bff-8bd3-2e7873e620b6","geometry":{"type":"Polygon","coordinates":[[[1374, 1591],[1374, 1666],[2613, 1666],[2613, 1591],[1374, 1591]]]},"properties":{"objectType":"annotation","name":"company","classification":{"name":"company","color":[255, 0, 0]}}},{"type":"Feature","id":"fc7646a5-bd67-4ca3-864c-c4c0439848d1","geometry":{"type":"Polygon","coordinates":[[[1335, 1772],[1335, 2030],[2655, 2030],[2655, 1772],[1335, 1772]]]},"properties":{"objectType":"annotation","name":"address","classification":{"name":"address","color":[0, 0, 255]}}},{"type":"Feature","id":"73d24989-6c11-411b-a099-2aa307c0cc3d","geometry":{"type":"Polygon","coordinates":[[[1310, 2413],[1310, 2509],[1671, 2509],[1671, 2413],[1310, 2413]]]},"properties":{"objectType":"annotation","name":"date","classification":{"name":"date","color":[0, 255, 0]}}},{"type":"Feature","id":"f6428f22-fba1-48e4-9e4d-a612c442e5b3","geometry":{"type":"Polygon","coordinates":[[[2350, 3323],[2350, 3416],[2715, 3416],[2715, 3323],[2350, 3323]]]},"properties":{"objectType":"annotation","name":"total","classification":{"name":"total","color":[255, 255, 0]}}}]}