{"type":"FeatureCollection","features":[{"type":"Feature","id":"51e5f409-2ec1-4d42-a879-b3ffe2e16d6a","geometry":{"type":"Polygon","coordinates":[[[155, 293],[155, 361],[667, 361],[667, 293],[155, 293]]]},"properties":{"objectType":"annotation","name":"company","classification":{"name":"company","color":[255, 0, 0]}}},{"type":"Feature","id":"d406d92d-38a5-496a-9635-22cf0f8f6fc9","geometry":{"type":"Polygon","coordinates":[[[171, 343],[171, 458],[643, 458],[643, 343],[171, 343]]]},"properties":{"objectType":"annotation","name":"address","classification":{"name":"address","color":[0, 0, 255]}}},{"type":"Feature","id":"290e96db-bec0-4530-b7fa-3d628b82bf9d","geometry":{"type":"Polygon","coordinates":[[[261, 712],[261, 741],[430, 741],[430, 712],[261, 712]]]},"properties":{"objectType":"annotation","name":"date","classification":{"name":"date","color":[0, 255, 0]}}},{"type":"Feature","id":"2dbebd61-3c6b-4033-a3ac-d3c292bd03c9","geometry":{"type":"Polygon","coordinates":[[[492, 1465],[492, 1499],[596, 1499],[596, 1465],[492, 1465]]]},"properties":{"objectType":"annotation","name":"total","classification":{"name":"total","color":[255, 255, 0]}}}]}