{"type":"FeatureCollection","features":[{"type":"Feature","id":"b2a4bc28-6ad7-45d6-883b-938c436a1ddb","geometry":{"type":"Polygon","coordinates":[[[226, 737],[226, 764],[373, 764],[373, 737],[226, 737]]]},"properties":{"objectType":"annotation","name":"date","classification":{"name":"date","color":[0, 255, 0]}}},{"type":"Feature","id":"1e65d684-70b4-4625-9725-aef178c75950","geometry":{"type":"Polygon","coordinates":[[[55, 404],[55, 510],[519, 510],[519, 404],[55, 404]]]},"properties":{"objectType":"annotation","name":"address","classification":{"name":"address","color":[0, 0, 255]}}},{"type":"Feature","id":"f778a24c-25b5-49f4-9cb0-d0e2f3e35e5e","geometry":{"type":"Polygon","coordinates":[[[389, 1301],[389, 1325],[474, 1325],[474, 1301],[389, 1301]]]},"properties":{"objectType":"annotation","name":"total","classification":{"name":"total","color":[255, 255, 0]}}},{"type":"Feature","id":"6f7089c0-edca-4070-88e0-0340b6c1c367","geometry":{"type":"Polygon","coordinates":[[[112, 274],[112, 307],[429, 307],[429, 274],[112, 274]]]},"properties":{"objectType":"annotation","name":"company","classification":{"name":"company","color":[255, 0, 0]}}}]}