{"type":"FeatureCollection","features":[{"type":"Feature","id":"ab033d59-eb84-44be-b417-cebf08ea8c2b","geometry":{"type":"Polygon","coordinates":[[[313, 44],[313, 102],[1044, 102],[1044, 44],[313, 44]]]},"properties":{"objectType":"annotation","name":"company","classification":{"name":"company","color":[255, 0, 0]}}},{"type":"Feature","id":"67b45adc-ac3d-42ce-96cd-04dd123eefb4","geometry":{"type":"Polygon","coordinates":[[[381, 141],[381, 205],[977, 205],[977, 141],[381, 141]]]},"properties":{"objectType":"annotation","name":"address","classification":{"name":"address","color":[0, 0, 255]}}},{"type":"Feature","id":"16b624ba-8bdb-4f9a-a152-8f439f8a21d9","geometry":{"type":"Polygon","coordinates":[[[915, 528],[915, 563],[1101, 563],[1101, 528],[915, 528]]]},"properties":{"objectType":"annotation","name":"date","classification":{"name":"date","color":[0, 255, 0]}}},{"type":"Feature","id":"962c08ef-54b0-43b6-af14-4dd370d3aa86","geometry":{"type":"Polygon","coordinates":[[[945, 1171],[945, 1216],[1075, 1216],[1075, 1171],[945, 1171]]]},"properties":{"objectType":"annotation","name":"total","classification":{"name":"total","color":[255, 255, 0]}}}]}