{"type":"FeatureCollection","features":[{"type":"Feature","id":"692913c3-3231-4edf-a5fd-35e950950a7a","geometry":{"type":"Polygon","coordinates":[[[200, 196],[200, 243],[696, 243],[696, 196],[200, 196]]]},"properties":{"objectType":"annotation","name":"company","classification":{"name":"company","color":[255, 0, 0]}}},{"type":"Feature","id":"df50ea22-6ccb-455a-bf0b-aae6e47054cf","geometry":{"type":"Polygon","coordinates":[[[669, 607],[669, 646],[812, 646],[812, 607],[669, 607]]]},"properties":{"objectType":"annotation","name":"date","classification":{"name":"date","color":[0, 255, 0]}}},{"type":"Feature","id":"a76650ab-9caa-41ff-9cbb-91d167ec76c9","geometry":{"type":"Polygon","coordinates":[[[219, 243],[219, 434],[694, 434],[694, 243],[219, 243]]]},"properties":{"objectType":"annotation","name":"address","classification":{"name":"address","color":[0, 0, 255]}}},{"type":"Feature","id":"838327b4-941d-43a4-a47d-0eb5f5ee5977","geometry":{"type":"Polygon","coordinates":[[[690, 859],[690, 899],[765, 899],[765, 859],[690, 859]]]},"properties":{"objectType":"annotation","name":"total","classification":{"name":"total","color":[255, 255, 0]}}}]}