{"type":"FeatureCollection","features":[{"type":"Feature","id":"0fd74135-ebf1-4c4b-b16d-d1fed038fc01","geometry":{"type":"Polygon","coordinates":[[[303, 296],[303, 314],[594, 314],[594, 296],[303, 296]]]},"properties":{"objectType":"annotation","name":"company","classification":{"name":"company","color":[255, 0, 0]}}},{"type":"Feature","id":"58f951cb-3491-4db8-8f43-24de308933e3","geometry":{"type":"Polygon","coordinates":[[[324, 350],[324, 384],[575, 384],[575, 350],[324, 350]]]},"properties":{"objectType":"annotation","name":"address","classification":{"name":"address","color":[0, 0, 255]}}},{"type":"Feature","id":"1feaefec-c596-4246-82e9-afd6579f98f9","geometry":{"type":"Polygon","coordinates":[[[579, 550],[579, 564],[605, 564],[605, 550],[579, 550]]]},"properties":{"objectType":"annotation","name":"total","classification":{"name":"total","color":[255, 255, 0]}}},{"type":"Feature","id":"a403c5ca-d19d-4ed7-b07f-a3cf1b863c92","geometry":{"type":"Polygon","coordinates":[[[395, 314],[395, 328],[467, 328],[467, 314],[395, 314]]]},"properties":{"objectType":"annotation","name":"date","classification":{"name":"date","color":[0, 255, 0]}}}]}