{"type":"FeatureCollection","features":[{"type":"Feature","id":"448868df-0dce-4a2f-a311-0a947d9b8f49","geometry":{"type":"Polygon","coordinates":[[[376, 325],[376, 342],[667, 342],[667, 325],[376, 325]]]},"properties":{"objectType":"annotation","name":"company","classification":{"name":"company","color":[255, 0, 0]}}},{"type":"Feature","id":"4c72619c-605f-47f3-90f0-1dce29c5bf30","geometry":{"type":"Polygon","coordinates":[[[397, 380],[397, 413],[648, 413],[648, 380],[397, 380]]]},"properties":{"objectType":"annotation","name":"address","classification":{"name":"address","color":[0, 0, 255]}}},{"type":"Feature","id":"5fd54028-aa80-4ec6-a6d0-07e28a0b58f8","geometry":{"type":"Polygon","coordinates":[[[656, 575],[656, 588],[681, 588],[681, 575],[656, 575]]]},"properties":{"objectType":"annotation","name":"total","classification":{"name":"total","color":[255, 255, 0]}}},{"type":"Feature","id":"b230d956-e01e-4e7c-960d-d41a0f24f1c3","geometry":{"type":"Polygon","coordinates":[[[469, 343],[469, 356],[539, 356],[539, 343],[469, 343]]]},"properties":{"objectType":"annotation","name":"date","classification":{"name":"date","color":[0, 255, 0]}}}]}