{"type":"FeatureCollection","features":[{"type":"Feature","id":"11c3dfbe-2659-4630-9a94-d24860785a28","geometry":{"type":"Polygon","coordinates":[[[1553, 899],[1553, 1016],[2869, 1016],[2869, 899],[1553, 899]]]},"properties":{"objectType":"annotation","name":"company","classification":{"name":"company","color":[255, 0, 0]}}},{"type":"Feature","id":"bdcf78e0-57b6-4c0f-9613-39446208f759","geometry":{"type":"Polygon","coordinates":[[[1350, 1079],[1350, 1186],[3047, 1186],[3047, 1079],[1350, 1079]]]},"properties":{"objectType":"annotation","name":"address","classification":{"name":"address","color":[0, 0, 255]}}},{"type":"Feature","id":"69367cb6-10b8-403a-938b-5b8253ea85fd","geometry":{"type":"Polygon","coordinates":[[[1793, 1797],[1793, 1874],[2149, 1874],[2149, 1797],[1793, 1797]]]},"properties":{"objectType":"annotation","name":"date","classification":{"name":"date","color":[0, 255, 0]}}},{"type":"Feature","id":"2fbad5a1-0222-43e1-903a-cd0f4e52822d","geometry":{"type":"Polygon","coordinates":[[[2675, 3416],[2675, 3554],[3028, 3554],[3028, 3416],[2675, 3416]]]},"properties":{"objectType":"annotation","name":"total","classification":{"name":"total","color":[255, 255, 0]}}}]}