{"type":"FeatureCollection","features":[{"type":"Feature","id":"18fd6377-fdf2-4b20-b59d-1a9c253fd47f","geometry":{"type":"Polygon","coordinates":[[[49, 283],[49, 323],[358, 323],[358, 283],[49, 283]]]},"properties":{"objectType":"annotation","name":"company","classification":{"name":"company","color":[255, 0, 0]}}},{"type":"Feature","id":"6e1d5082-dadf-4fde-9d3b-7faafd071f97","geometry":{"type":"Polygon","coordinates":[[[53, 326],[53, 403],[617, 403],[617, 326],[53, 326]]]},"properties":{"objectType":"annotation","name":"address","classification":{"name":"address","color":[0, 0, 255]}}},{"type":"Feature","id":"26b07daa-37e7-4bd4-b72f-77d04c6c8046","geometry":{"type":"Polygon","coordinates":[[[453, 842],[453, 871],[589, 871],[589, 842],[453, 842]]]},"properties":{"objectType":"annotation","name":"date","classification":{"name":"date","color":[0, 255, 0]}}},{"type":"Feature","id":"ffc07a1b-c263-426a-8f57-543d9a4df654","geometry":{"type":"Polygon","coordinates":[[[701, 1879],[701, 1911],[767, 1911],[767, 1879],[701, 1879]]]},"properties":{"objectType":"annotation","name":"total","classification":{"name":"total","color":[255, 255, 0]}}}]}