{"type":"FeatureCollection","features":[{"type":"Feature","id":"2cb8438c-7de0-4f3a-8a70-c04f4c193572","geometry":{"type":"Polygon","coordinates":[[[63, 340],[63, 369],[553, 369],[553, 340],[63, 340]]]},"properties":{"objectType":"annotation","name":"company","classification":{"name":"company","color":[255, 0, 0]}}},{"type":"Feature","id":"475d40ce-0f3c-4a07-9654-28d8cb15c893","geometry":{"type":"Polygon","coordinates":[[[460, 561],[460, 582],[587, 582],[587, 561],[460, 561]]]},"properties":{"objectType":"annotation","name":"date","classification":{"name":"date","color":[0, 255, 0]}}},{"type":"Feature","id":"6086a208-bd82-4ec4-9651-c92fa4571ab6","geometry":{"type":"Polygon","coordinates":[[[74, 406],[74, 432],[541, 432],[541, 406],[74, 406]]]},"properties":{"objectType":"annotation","name":"address","classification":{"name":"address","color":[0, 0, 255]}}},{"type":"Feature","id":"4f487f67-70d8-499e-911a-b573759a4553","geometry":{"type":"Polygon","coordinates":[[[505, 1189],[505, 1214],[580, 1214],[580, 1189],[505, 1189]]]},"properties":{"objectType":"annotation","name":"total","classification":{"name":"total","color":[255, 255, 0]}}}]}