{"type":"FeatureCollection","features":[{"type":"Feature","id":"57b78932-72c5-4241-a848-bd30957ac942","geometry":{"type":"Polygon","coordinates":[[[174, 86],[174, 143],[679, 143],[679, 86],[174, 86]]]},"properties":{"objectType":"annotation","name":"company","classification":{"name":"company","color":[255, 0, 0]}}},{"type":"Feature","id":"8dba7bbf-f6a4-4088-a75d-87cd3112c5e7","geometry":{"type":"Polygon","coordinates":[[[192, 130],[192, 242],[658, 242],[658, 130],[192, 130]]]},"properties":{"objectType":"annotation","name":"address","classification":{"name":"address","color":[0, 0, 255]}}},{"type":"Feature","id":"90322428-6d32-468e-8c7c-9d2c877cf2ed","geometry":{"type":"Polygon","coordinates":[[[510, 1186],[510, 1220],[609, 1220],[609, 1186],[510, 1186]]]},"properties":{"objectType":"annotation","name":"total","classification":{"name":"total","color":[255, 255, 0]}}},{"type":"Feature","id":"7d5b958b-a90d-45bf-b196-92409add653f","geometry":{"type":"Polygon","coordinates":[[[279, 481],[279, 514],[447, 514],[447, 481],[279, 481]]]},"properties":{"objectType":"annotation","name":"date","classification":{"name":"date","color":[0, 255, 0]}}}]}