{"type":"FeatureCollection","features":[{"type":"Feature","id":"d4900561-ec90-4712-aad8-c0d3af4e939f","geometry":{"type":"Polygon","coordinates":[[[72, 27],[72, 81],[680, 81],[680, 27],[72, 27]]]},"properties":{"objectType":"annotation","name":"company","classification":{"name":"company","color":[255, 0, 0]}}},{"type":"Feature","id":"b86083e8-dad8-4f0c-8b24-b23472065970","geometry":{"type":"Polygon","coordinates":[[[164, 85],[164, 219],[572, 219],[572, 85],[164, 85]]]},"properties":{"objectType":"annotation","name":"address","classification":{"name":"address","color":[0, 0, 255]}}},{"type":"Feature","id":"6690da3c-1fc4-4901-9b8d-7cfe1e6ec716","geometry":{"type":"Polygon","coordinates":[[[246, 435],[246, 469],[402, 469],[402, 435],[246, 435]]]},"properties":{"objectType":"annotation","name":"date","classification":{"name":"date","color":[0, 255, 0]}}},{"type":"Feature","id":"70bd79e0-506d-447c-9ad0-aaf2601a87ae","geometry":{"type":"Polygon","coordinates":[[[613, 1059],[613, 1100],[691, 1100],[691, 1059],[613, 1059]]]},"properties":{"objectType":"annotation","name":"total","classification":{"name":"total","color":[255, 255, 0]}}}]}