{"type":"FeatureCollection","features":[{"type":"Feature","id":"a7ba1e33-4b46-4f78-8b6e-5bab31353473","geometry":{"type":"Polygon","coordinates":[[[45, 197],[45, 224],[477, 224],[477, 197],[45, 197]]]},"properties":{"objectType":"annotation","name":"company","classification":{"name":"company","color":[255, 0, 0]}}},{"type":"Feature","id":"a919cd20-34a5-4843-89d2-21240471498e","geometry":{"type":"Polygon","coordinates":[[[6, 358],[6, 452],[530, 452],[530, 358],[6, 358]]]},"properties":{"objectType":"annotation","name":"address","classification":{"name":"address","color":[0, 0, 255]}}},{"type":"Feature","id":"c006f3f4-a38b-4009-b565-2a83389fcfaf","geometry":{"type":"Polygon","coordinates":[[[250, 715],[250, 746],[382, 746],[382, 715],[250, 715]]]},"properties":{"objectType":"annotation","name":"date","classification":{"name":"date","color":[0, 255, 0]}}},{"type":"Feature","id":"738f87d7-13a3-4ee6-a846-3c62da6e32b4","geometry":{"type":"Polygon","coordinates":[[[456, 978],[456, 1004],[528, 1004],[528, 978],[456, 978]]]},"properties":{"objectType":"annotation","name":"total","classification":{"name":"total","color":[255, 255, 0]}}}]}