{"type":"FeatureCollection","features":[{"type":"Feature","id":"6f7d522a-d8a5-452c-bfa6-852cdbe2283c","geometry":{"type":"Polygon","coordinates":[[[1933, 888],[1933, 973],[2882, 973],[2882, 888],[1933, 888]]]},"properties":{"objectType":"annotation","name":"company","classification":{"name":"company","color":[255, 0, 0]}}},{"type":"Feature","id":"5f49ff5a-a6f3-484c-84d0-ad8c3e881031","geometry":{"type":"Polygon","coordinates":[[[1896, 986],[1896, 1269],[2924, 1269],[2924, 986],[1896, 986]]]},"properties":{"objectType":"annotation","name":"address","classification":{"name":"address","color":[0, 0, 255]}}},{"type":"Feature","id":"d0a600ab-776a-4cfa-9289-dfa508006ee5","geometry":{"type":"Polygon","coordinates":[[[1602, 3562],[1602, 3647],[1949, 3647],[1949, 3562],[1602, 3562]]]},"properties":{"objectType":"annotation","name":"date","classification":{"name":"date","color":[0, 255, 0]}}},{"type":"Feature","id":"bea8f63e-f892-4187-aa0c-90630f95fcd7","geometry":{"type":"Polygon","coordinates":[[[2827, 2671],[2827, 2755],[3016, 2755],[3016, 2671],[2827, 2671]]]},"properties":{"objectType":"annotation","name":"total","classification":{"name":"total","color":[255, 255, 0]}}}]}