{"type":"FeatureCollection","features":[{"type":"Feature","id":"4c64de3d-b4a2-4918-85f9-591bc016fd88","geometry":{"type":"Polygon","coordinates":[[[366, 241],[366, 259],[597, 259],[597, 241],[366, 241]]]},"properties":{"objectType":"annotation","name":"company","classification":{"name":"company","color":[255, 0, 0]}}},{"type":"Feature","id":"bb05708b-7350-4d12-be7d-890e6e1949bf","geometry":{"type":"Polygon","coordinates":[[[377, 282],[377, 336],[578, 336],[578, 282],[377, 282]]]},"properties":{"objectType":"annotation","name":"address","classification":{"name":"address","color":[0, 0, 255]}}},{"type":"Feature","id":"407be99c-23ef-4df5-8563-ba3644ed5e1a","geometry":{"type":"Polygon","coordinates":[[[571, 466],[571, 479],[637, 479],[637, 466],[571, 466]]]},"properties":{"objectType":"annotation","name":"date","classification":{"name":"date","color":[0, 255, 0]}}},{"type":"Feature","id":"a887ce98-917e-4c10-9646-df687b916010","geometry":{"type":"Polygon","coordinates":[[[581, 890],[581, 908],[634, 908],[634, 890],[581, 890]]]},"properties":{"objectType":"annotation","name":"total","classification":{"name":"total","color":[255, 255, 0]}}}]}