{"type":"FeatureCollection","features":[{"type":"Feature","id":"f9f05fbc-c017-4069-b4a3-2719a0b56e48","geometry":{"type":"Polygon","coordinates":[[[148, 48],[148, 125],[564, 125],[564, 48],[148, 48]]]},"properties":{"objectType":"annotation","name":"company","classification":{"name":"company","color":[255, 0, 0]}}},{"type":"Feature","id":"ae346c5d-135f-48b6-bbd8-7d6b092fe75d","geometry":{"type":"Polygon","coordinates":[[[85, 121],[85, 267],[625, 267],[625, 121],[85, 121]]]},"properties":{"objectType":"annotation","name":"address","classification":{"name":"address","color":[0, 0, 255]}}},{"type":"Feature","id":"8b09243c-282b-45dd-bbd8-e8ab15df23a6","geometry":{"type":"Polygon","coordinates":[[[446, 838],[446, 861],[510, 861],[510, 838],[446, 838]]]},"properties":{"objectType":"annotation","name":"total","classification":{"name":"total","color":[255, 255, 0]}}},{"type":"Feature","id":"c5395b36-520e-4e0c-8dba-a15c8d40c355","geometry":{"type":"Polygon","coordinates":[[[248, 476],[248, 501],[378, 501],[378, 476],[248, 476]]]},"properties":{"objectType":"annotation","name":"date","classification":{"name":"date","color":[0, 255, 0]}}}]}