{"type":"FeatureCollection","features":[{"type":"Feature","id":"1a356cb8-9831-4f9e-bbf7-f8592fd8a8ae","geometry":{"type":"Polygon","coordinates":[[[1607, 1862],[1607, 1954],[2937, 1954],[2937, 1862],[1607, 1862]]]},"properties":{"objectType":"annotation","name":"company","classification":{"name":"company","color":[255, 0, 0]}}},{"type":"Feature","id":"939ab33f-e3b8-4199-a11e-ca0cc15514e8","geometry":{"type":"Polygon","coordinates":[[[2861, 3051],[2861, 3096],[2967, 3096],[2967, 3051],[2861, 3051]]]},"properties":{"objectType":"annotation","name":"total","classification":{"name":"total","color":[255, 255, 0]}}},{"type":"Feature","id":"fd13c3c4-9903-4e11-878f-269d0125cc99","geometry":{"type":"Polygon","coordinates":[[[1702, 2107],[1702, 2271],[2841, 2271],[2841, 2107],[1702, 2107]]]},"properties":{"objectType":"annotation","name":"address","classification":{"name":"address","color":[0, 0, 255]}}},{"type":"Feature","id":"20d8fca6-04c9-44cd-8e12-0514c87e108a","geometry":{"type":"Polygon","coordinates":[[[2031, 1958],[2031, 2024],[2358, 2024],[2358, 1958],[2031, 1958]]]},"properties":{"objectType":"annotation","name":"date","classification":{"name":"date","color":[0, 255, 0]}}}]}