{"type":"FeatureCollection","features":[{"type":"Feature","id":"f346ec07-f7c0-4f6d-abaa-da85fcb33e7f","geometry":{"type":"Polygon","coordinates":[[[288, 642],[288, 662],[409, 662],[409, 642],[288, 642]]]},"properties":{"objectType":"annotation","name":"total","classification":{"name":"total","color":[255, 255, 0]}}},{"type":"Feature","id":"e7c9fdb6-60af-4f06-b051-ac8e677b63b5","geometry":{"type":"Polygon","coordinates":[[[121, 369],[121, 391],[273, 391],[273, 369],[121, 369]]]},"properties":{"objectType":"annotation","name":"date","classification":{"name":"date","color":[0, 255, 0]}}},{"type":"Feature","id":"efb6bc94-a8e7-45b7-a420-049b38f5edca","geometry":{"type":"Polygon","coordinates":[[[39, 232],[39, 281],[400, 281],[400, 232],[39, 232]]]},"properties":{"objectType":"annotation","name":"address","classification":{"name":"address","color":[0, 0, 255]}}},{"type":"Feature","id":"0e788089-2717-491a-8d55-50a75e0325ef","geometry":{"type":"Polygon","coordinates":[[[87, 91],[87, 140],[372, 140],[372, 91],[87, 91]]]},"properties":{"objectType":"annotation","name":"company","classification":{"name":"company","color":[255, 0, 0]}}}]}