{"type":"FeatureCollection","features":[{"type":"Feature","id":"fddf6e3b-46a3-40ef-af7b-40838d2afa52","geometry":{"type":"Polygon","coordinates":[[[578, 1011],[578, 1041],[673, 1041],[673, 1011],[578, 1011]]]},"properties":{"objectType":"annotation","name":"total","classification":{"name":"total","color":[255, 255, 0]}}},{"type":"Feature","id":"2342ff32-a575-46e4-a40f-e9a3c245a8b1","geometry":{"type":"Polygon","coordinates":[[[307, 550],[307, 581],[449, 581],[449, 550],[307, 550]]]},"properties":{"objectType":"annotation","name":"date","classification":{"name":"date","color":[0, 255, 0]}}},{"type":"Feature","id":"36bbcffa-513e-450b-bbd0-d8fe1e052d96","geometry":{"type":"Polygon","coordinates":[[[92, 297],[92, 441],[478, 441],[478, 297],[92, 297]]]},"properties":{"objectType":"annotation","name":"address","classification":{"name":"address","color":[0, 0, 255]}}},{"type":"Feature","id":"dd00eebb-1bf0-4c7b-bf68-2f38c9c5fa06","geometry":{"type":"Polygon","coordinates":[[[91, 165],[91, 243],[583, 243],[583, 165],[91, 165]]]},"properties":{"objectType":"annotation","name":"company","classification":{"name":"company","color":[255, 0, 0]}}}]}