{"type":"FeatureCollection","features":[{"type":"Feature","id":"7a5df3c7-df72-45e6-877e-38f6d6a4bae7","geometry":{"type":"Polygon","coordinates":[[[258, 277],[258, 315],[627, 315],[627, 277],[258, 277]]]},"properties":{"objectType":"annotation","name":"company","classification":{"name":"company","color":[255, 0, 0]}}},{"type":"Feature","id":"a99123ad-29bf-4e03-85aa-ee7eeaf3fb36","geometry":{"type":"Polygon","coordinates":[[[159, 344],[159, 450],[703, 450],[703, 344],[159, 344]]]},"properties":{"objectType":"annotation","name":"address","classification":{"name":"address","color":[0, 0, 255]}}},{"type":"Feature","id":"3bf3da37-eef1-4e66-956e-49027e182d53","geometry":{"type":"Polygon","coordinates":[[[679, 796],[679, 827],[784, 827],[784, 796],[679, 796]]]},"properties":{"objectType":"annotation","name":"total","classification":{"name":"total","color":[255, 255, 0]}}},{"type":"Feature","id":"c8d38d8c-28c6-476b-bd19-574b268f848d","geometry":{"type":"Polygon","coordinates":[[[85, 986],[85, 1022],[243, 1022],[243, 986],[85, 986]]]},"properties":{"objectType":"annotation","name":"date","classification":{"name":"date","color":[0, 255, 0]}}}]}