{"type":"FeatureCollection","features":[{"type":"Feature","id":"386c3b90-085a-47ce-9cc4-e1c81726d308","geometry":{"type":"Polygon","coordinates":[[[220, 331],[220, 376],[670, 376],[670, 331],[220, 331]]]},"properties":{"objectType":"annotation","name":"company","classification":{"name":"company","color":[255, 0, 0]}}},{"type":"Feature","id":"37f63120-08a7-4bb0-b018-1042e23fba51","geometry":{"type":"Polygon","coordinates":[[[115, 431],[115, 578],[741, 578],[741, 431],[115, 431]]]},"properties":{"objectType":"annotation","name":"address","classification":{"name":"address","color":[0, 0, 255]}}},{"type":"Feature","id":"b8d4bb9b-45d0-4eb1-b1c0-dc68e5ed1bb1","geometry":{"type":"Polygon","coordinates":[[[724, 2003],[724, 2046],[825, 2046],[825, 2003],[724, 2003]]]},"properties":{"objectType":"annotation","name":"total","classification":{"name":"total","color":[255, 255, 0]}}},{"type":"Feature","id":"ffae8450-d36d-46f9-b5d4-a7770652171b","geometry":{"type":"Polygon","coordinates":[[[50, 2302],[50, 2354],[241, 2354],[241, 2302],[50, 2302]]]},"properties":{"objectType":"annotation","name":"date","classification":{"name":"date","color":[0, 255, 0]}}}]}