{"type":"FeatureCollection","features":[{"type":"Feature","id":"c36111ac-ba9b-4ae1-aa3b-203196b3a34b","geometry":{"type":"Polygon","coordinates":[[[72, 309],[72, 373],[709, 373],[709, 309],[72, 309]]]},"properties":{"objectType":"annotation","name":"company","classification":{"name":"company","color":[255, 0, 0]}}},{"type":"Feature","id":"fb929ca0-87c3-4c29-821e-7cd3fcff7798","geometry":{"type":"Polygon","coordinates":[[[72, 402],[72, 483],[711, 483],[711, 402],[72, 402]]]},"properties":{"objectType":"annotation","name":"address","classification":{"name":"address","color":[0, 0, 255]}}},{"type":"Feature","id":"06a03132-a74c-40d3-9b11-6c5ffc1981a9","geometry":{"type":"Polygon","coordinates":[[[210, 626],[210, 670],[386, 670],[386, 626],[210, 626]]]},"properties":{"objectType":"annotation","name":"date","classification":{"name":"date","color":[0, 255, 0]}}},{"type":"Feature","id":"25fe0ce8-dcd6-4627-9fea-20165e6dcb66","geometry":{"type":"Polygon","coordinates":[[[526, 1160],[526, 1210],[704, 1210],[704, 1160],[526, 1160]]]},"properties":{"objectType":"annotation","name":"total","classification":{"name":"total","color":[255, 255, 0]}}}]}