{"type":"FeatureCollection","features":[{"type":"Feature","id":"e38d49fd-b368-4920-a66c-4ef0686a6454","geometry":{"type":"Polygon","coordinates":[[[669, 1090],[669, 1117],[773, 1117],[773, 1090],[669, 1090]]]},"properties":{"objectType":"annotation","name":"total","classification":{"name":"total","color":[255, 255, 0]}}},{"type":"Feature","id":"ece07a55-6573-4573-b5cc-13b01db5f77a","geometry":{"type":"Polygon","coordinates":[[[623, 551],[623, 578],[760, 578],[760, 551],[623, 551]]]},"properties":{"objectType":"annotation","name":"date","classification":{"name":"date","color":[0, 255, 0]}}},{"type":"Feature","id":"3780865a-c9ea-4d5f-b297-ddb78cfac7c2","geometry":{"type":"Polygon","coordinates":[[[194, 203],[194, 301],[672, 301],[672, 203],[194, 203]]]},"properties":{"objectType":"annotation","name":"address","classification":{"name":"address","color":[0, 0, 255]}}},{"type":"Feature","id":"5892dc08-f4df-476c-97b6-f8470a819f91","geometry":{"type":"Polygon","coordinates":[[[130, 111],[130, 140],[733, 140],[733, 111],[130, 111]]]},"properties":{"objectType":"annotation","name":"company","classification":{"name":"company","color":[255, 0, 0]}}}]}