{"type":"FeatureCollection","features":[{"type":"Feature","id":"fc358ca2-2383-4e25-9f4b-1af6ed6367e9","geometry":{"type":"Polygon","coordinates":[[[396, 402],[396, 435],[646, 435],[646, 402],[396, 402]]]},"properties":{"objectType":"annotation","name":"address","classification":{"name":"address","color":[0, 0, 255]}}},{"type":"Feature","id":"7d6c48da-ac25-4f1f-9e73-6bf32636513d","geometry":{"type":"Polygon","coordinates":[[[652, 635],[652, 647],[677, 647],[677, 635],[652, 635]]]},"properties":{"objectType":"annotation","name":"total","classification":{"name":"total","color":[255, 255, 0]}}},{"type":"Feature","id":"3dcf282f-85af-42d9-bf3b-9d9edd1cfab6","geometry":{"type":"Polygon","coordinates":[[[467, 366],[467, 378],[538, 378],[538, 366],[467, 366]]]},"properties":{"objectType":"annotation","name":"date","classification":{"name":"date","color":[0, 255, 0]}}},{"type":"Feature","id":"a4bfefe2-2428-40d8-898e-bf2e8d24d4f0","geometry":{"type":"Polygon","coordinates":[[[376, 349],[376, 363],[665, 363],[665, 349],[376, 349]]]},"properties":{"objectType":"annotation","name":"company","classification":{"name":"company","color":[255, 0, 0]}}}]}