{"type":"FeatureCollection","features":[{"type":"Feature","id":"a5abc07f-f2f3-40eb-923e-b9dd7db009b3","geometry":{"type":"Polygon","coordinates":[[[591, 1375],[591, 1400],[663, 1400],[663, 1375],[591, 1375]]]},"properties":{"objectType":"annotation","name":"total","classification":{"name":"total","color":[255, 255, 0]}}},{"type":"Feature","id":"90b08155-fe4d-47ff-9f5a-8f5b6ee840ce","geometry":{"type":"Polygon","coordinates":[[[290, 1017],[290, 1043],[452, 1043],[452, 1017],[290, 1017]]]},"properties":{"objectType":"annotation","name":"date","classification":{"name":"date","color":[0, 255, 0]}}},{"type":"Feature","id":"2e56fe0f-6bb3-4e39-91c4-215b7cd92cd3","geometry":{"type":"Polygon","coordinates":[[[198, 739],[198, 843],[514, 843],[514, 739],[198, 739]]]},"properties":{"objectType":"annotation","name":"address","classification":{"name":"address","color":[0, 0, 255]}}},{"type":"Feature","id":"37930c5f-2246-496f-8307-c8468ca0e7dc","geometry":{"type":"Polygon","coordinates":[[[168, 659],[168, 690],[544, 690],[544, 659],[168, 659]]]},"properties":{"objectType":"annotation","name":"company","classification":{"name":"company","color":[255, 0, 0]}}}]}