{"type":"FeatureCollection","features":[{"type":"Feature","id":"c981e52b-8000-44a1-a7cf-821b54e1a74f","geometry":{"type":"Polygon","coordinates":[[[2925, 3062],[2925, 3112],[3034, 3112],[3034, 3062],[2925, 3062]]]},"properties":{"objectType":"annotation","name":"total","classification":{"name":"total","color":[255, 255, 0]}}},{"type":"Feature","id":"7a4882b5-b6f6-4395-a098-dae44ec0fc9a","geometry":{"type":"Polygon","coordinates":[[[1751, 1977],[1751, 2126],[2890, 2126],[2890, 1977],[1751, 1977]]]},"properties":{"objectType":"annotation","name":"address","classification":{"name":"address","color":[0, 0, 255]}}},{"type":"Feature","id":"a7e0a8ae-22c3-43f5-8ba1-a80f28c78997","geometry":{"type":"Polygon","coordinates":[[[2090, 1815],[2090, 1880],[2398, 1880],[2398, 1815],[2090, 1815]]]},"properties":{"objectType":"annotation","name":"date","classification":{"name":"date","color":[0, 255, 0]}}},{"type":"Feature","id":"3b890cfa-efd9-4125-8f80-9ba0dae6ec81","geometry":{"type":"Polygon","coordinates":[[[1661, 1735],[1661, 1802],[2984, 1802],[2984, 1735],[1661, 1735]]]},"properties":{"objectType":"annotation","name":"company","classification":{"name":"company","color":[255, 0, 0]}}}]}