{"type":"FeatureCollection","features":[{"type":"Feature","id":"14968908-88c8-4f8b-bb55-b085fb2750ea","geometry":{"type":"Polygon","coordinates":[[[10, 960],[10, 988],[141, 988],[141, 960],[10, 960]]]},"properties":{"objectType":"annotation","name":"date","classification":{"name":"date","color":[0, 255, 0]}}},{"type":"Feature","id":"c1416617-21fd-4af0-9b5f-03d55820a490","geometry":{"type":"Polygon","coordinates":[[[593, 756],[593, 782],[670, 782],[670, 756],[593, 756]]]},"properties":{"objectType":"annotation","name":"total","classification":{"name":"total","color":[255, 255, 0]}}},{"type":"Feature","id":"e4a09acf-a621-417a-ad2a-2472c50b5b2e","geometry":{"type":"Polygon","coordinates":[[[59, 320],[59, 415],[601, 415],[601, 320],[59, 320]]]},"properties":{"objectType":"annotation","name":"address","classification":{"name":"address","color":[0, 0, 255]}}},{"type":"Feature","id":"22ed647e-3fd9-45cb-9fec-251fa81ce5f2","geometry":{"type":"Polygon","coordinates":[[[159, 251],[159, 281],[522, 281],[522, 251],[159, 251]]]},"properties":{"objectType":"annotation","name":"company","classification":{"name":"company","color":[255, 0, 0]}}}]}