{"type":"FeatureCollection","features":[{"type":"Feature","id":"e12d330e-1f7a-422f-8bec-08a22d0c2d42","geometry":{"type":"Polygon","coordinates":[[[125, 354],[125, 480],[706, 480],[706, 354],[125, 354]]]},"properties":{"objectType":"annotation","name":"address","classification":{"name":"address","color":[0, 0, 255]}}},{"type":"Feature","id":"699403b1-5f1b-4b88-ad14-8843ade4fec4","geometry":{"type":"Polygon","coordinates":[[[244, 265],[244, 304],[578, 304],[578, 265],[244, 265]]]},"properties":{"objectType":"annotation","name":"company","classification":{"name":"company","color":[255, 0, 0]}}},{"type":"Feature","id":"f7dbf7c1-118d-4f39-a707-226bb0995549","geometry":{"type":"Polygon","coordinates":[[[620, 1289],[620, 1342],[772, 1342],[772, 1289],[620, 1289]]]},"properties":{"objectType":"annotation","name":"total","classification":{"name":"total","color":[255, 255, 0]}}},{"type":"Feature","id":"39f046b4-1bc6-4e68-b1dd-23be215c82a3","geometry":{"type":"Polygon","coordinates":[[[203, 695],[203, 729],[400, 729],[400, 695],[203, 695]]]},"properties":{"objectType":"annotation","name":"date","classification":{"name":"date","color":[0, 255, 0]}}}]}