{"type":"FeatureCollection","features":[{"type":"Feature","id":"f325825c-06e7-4ef0-996e-7966db6d0f35","geometry":{"type":"Polygon","coordinates":[[[680, 1411],[680, 1451],[838, 1451],[838, 1411],[680, 1411]]]},"properties":{"objectType":"annotation","name":"total","classification":{"name":"total","color":[255, 255, 0]}}},{"type":"Feature","id":"b5443684-fab9-4c85-b1c1-69ea376fd4e2","geometry":{"type":"Polygon","coordinates":[[[221, 768],[221, 809],[420, 809],[420, 768],[221, 768]]]},"properties":{"objectType":"annotation","name":"date","classification":{"name":"date","color":[0, 255, 0]}}},{"type":"Feature","id":"36b04fa9-85d3-4130-b055-59e3bcec358c","geometry":{"type":"Polygon","coordinates":[[[120, 371],[120, 515],[767, 515],[767, 371],[120, 371]]]},"properties":{"objectType":"annotation","name":"address","classification":{"name":"address","color":[0, 0, 255]}}},{"type":"Feature","id":"f4556e0c-67cf-4b0c-899a-be4368bccee4","geometry":{"type":"Polygon","coordinates":[[[259, 271],[259, 312],[619, 312],[619, 271],[259, 271]]]},"properties":{"objectType":"annotation","name":"company","classification":{"name":"company","color":[255, 0, 0]}}}]}