{"type":"FeatureCollection","features":[{"type":"Feature","id":"06404196-df95-49d0-805c-81cf6356e5ba","geometry":{"type":"Polygon","coordinates":[[[679, 1322],[679, 1352],[762, 1352],[762, 1322],[679, 1322]]]},"properties":{"objectType":"annotation","name":"total","classification":{"name":"total","color":[255, 255, 0]}}},{"type":"Feature","id":"d99734c5-1ee7-46f3-aae0-a3ed56c863a7","geometry":{"type":"Polygon","coordinates":[[[674, 698],[674, 728],[842, 728],[842, 698],[674, 698]]]},"properties":{"objectType":"annotation","name":"date","classification":{"name":"date","color":[0, 255, 0]}}},{"type":"Feature","id":"fedfdb8e-07f2-48bd-9c3b-dc26cb3121de","geometry":{"type":"Polygon","coordinates":[[[251, 321],[251, 447],[685, 447],[685, 321],[251, 321]]]},"properties":{"objectType":"annotation","name":"address","classification":{"name":"address","color":[0, 0, 255]}}},{"type":"Feature","id":"23155093-67f4-4ad4-9fff-7408b28fc677","geometry":{"type":"Polygon","coordinates":[[[99, 220],[99, 257],[837, 257],[837, 220],[99, 220]]]},"properties":{"objectType":"annotation","name":"company","classification":{"name":"company","color":[255, 0, 0]}}}]}