{"type":"FeatureCollection","features":[{"type":"Feature","id":"9daab736-dd20-434d-8d4b-999d85c53367","geometry":{"type":"Polygon","coordinates":[[[163, 336],[163, 378],[712, 378],[712, 336],[163, 336]]]},"properties":{"objectType":"annotation","name":"company","classification":{"name":"company","color":[255, 0, 0]}}},{"type":"Feature","id":"1135f67b-25ce-4f4e-90c5-d1bb63a01843","geometry":{"type":"Polygon","coordinates":[[[111, 391],[111, 537],[758, 537],[758, 391],[111, 391]]]},"properties":{"objectType":"annotation","name":"address","classification":{"name":"address","color":[0, 0, 255]}}},{"type":"Feature","id":"218b0a6c-0c6a-43a2-860d-d9a38005ac37","geometry":{"type":"Polygon","coordinates":[[[64, 1237],[64, 1295],[238, 1295],[238, 1237],[64, 1237]]]},"properties":{"objectType":"annotation","name":"date","classification":{"name":"date","color":[0, 255, 0]}}},{"type":"Feature","id":"9b41d8b8-d939-4e26-964d-338f21511867","geometry":{"type":"Polygon","coordinates":[[[740, 994],[740, 1048],[843, 1048],[843, 994],[740, 994]]]},"properties":{"objectType":"annotation","name":"total","classification":{"name":"total","color":[255, 255, 0]}}}]}