{"type":"FeatureCollection","features":[{"type":"Feature","id":"bcaef324-3cb5-40bb-996c-b333adfb6c24","geometry":{"type":"Polygon","coordinates":[[[465, 821],[465, 845],[537, 845],[537, 821],[465, 821]]]},"properties":{"objectType":"annotation","name":"total","classification":{"name":"total","color":[255, 255, 0]}}},{"type":"Feature","id":"116ab936-b8d6-4a12-9396-a21aca54bc1d","geometry":{"type":"Polygon","coordinates":[[[21, 460],[21, 486],[138, 486],[138, 460],[21, 460]]]},"properties":{"objectType":"annotation","name":"date","classification":{"name":"date","color":[0, 255, 0]}}},{"type":"Feature","id":"5b41f4eb-bbd0-4be9-a7b4-8312f9485ba1","geometry":{"type":"Polygon","coordinates":[[[35, 264],[35, 354],[534, 354],[534, 264],[35, 264]]]},"properties":{"objectType":"annotation","name":"address","classification":{"name":"address","color":[0, 0, 255]}}},{"type":"Feature","id":"3f7822fb-bf3f-4098-af98-4215174ae948","geometry":{"type":"Polygon","coordinates":[[[78, 86],[78, 186],[517, 186],[517, 86],[78, 86]]]},"properties":{"objectType":"annotation","name":"company","classification":{"name":"company","color":[255, 0, 0]}}}]}