{"type":"FeatureCollection","features":[{"type":"Feature","id":"909774d9-2430-470e-9d98-48a5a6f252c1","geometry":{"type":"Polygon","coordinates":[[[43, 125],[43, 164],[514, 164],[514, 125],[43, 125]]]},"properties":{"objectType":"annotation","name":"company","classification":{"name":"company","color":[255, 0, 0]}}},{"type":"Feature","id":"ba03d0b0-358c-4bee-aba9-c2f968c66d49","geometry":{"type":"Polygon","coordinates":[[[28, 173],[28, 221],[521, 221],[521, 173],[28, 173]]]},"properties":{"objectType":"annotation","name":"address","classification":{"name":"address","color":[0, 0, 255]}}},{"type":"Feature","id":"f743d2e2-d997-466a-a957-9da008cdefa7","geometry":{"type":"Polygon","coordinates":[[[392, 967],[392, 996],[529, 996],[529, 967],[392, 967]]]},"properties":{"objectType":"annotation","name":"date","classification":{"name":"date","color":[0, 255, 0]}}},{"type":"Feature","id":"5be6a152-3f72-4d0c-98cc-d182f37c9da6","geometry":{"type":"Polygon","coordinates":[[[465, 573],[465, 617],[542, 617],[542, 573],[465, 573]]]},"properties":{"objectType":"annotation","name":"total","classification":{"name":"total","color":[255, 255, 0]}}}]}