{"type":"FeatureCollection","features":[{"type":"Feature","id":"6d05a279-1eb2-44c5-8dec-b127a5f2ed00","geometry":{"type":"Polygon","coordinates":[[[654, 1223],[654, 1256],[765, 1256],[765, 1223],[654, 1223]]]},"properties":{"objectType":"annotation","name":"total","classification":{"name":"total","color":[255, 255, 0]}}},{"type":"Feature","id":"987996a4-c645-40f6-862d-a188918e3162","geometry":{"type":"Polygon","coordinates":[[[313, 723],[313, 756],[501, 756],[501, 723],[313, 723]]]},"properties":{"objectType":"annotation","name":"date","classification":{"name":"date","color":[0, 255, 0]}}},{"type":"Feature","id":"a47fd7f6-4502-4fa9-b37f-efd0c92b5540","geometry":{"type":"Polygon","coordinates":[[[104, 522],[104, 616],[739, 616],[739, 522],[104, 522]]]},"properties":{"objectType":"annotation","name":"address","classification":{"name":"address","color":[0, 0, 255]}}},{"type":"Feature","id":"7665e05c-0e8c-42ad-af34-a1e95da315b5","geometry":{"type":"Polygon","coordinates":[[[184, 421],[184, 456],[671, 456],[671, 421],[184, 421]]]},"properties":{"objectType":"annotation","name":"company","classification":{"name":"company","color":[255, 0, 0]}}}]}