{"type":"FeatureCollection","features":[{"type":"Feature","id":"646688ee-7512-414e-a6d6-b7fd4650fc87","geometry":{"type":"Polygon","coordinates":[[[2711, 3395],[2711, 3457],[2917, 3457],[2917, 3395],[2711, 3395]]]},"properties":{"objectType":"annotation","name":"total","classification":{"name":"total","color":[255, 255, 0]}}},{"type":"Feature","id":"ff19d559-a9ac-43ae-97fc-2f0c39240daa","geometry":{"type":"Polygon","coordinates":[[[1879, 2606],[1879, 2667],[2154, 2667],[2154, 2606],[1879, 2606]]]},"properties":{"objectType":"annotation","name":"date","classification":{"name":"date","color":[0, 255, 0]}}},{"type":"Feature","id":"dc7f2ec8-2558-45ec-9baa-b4d3147fed8b","geometry":{"type":"Polygon","coordinates":[[[1917, 1600],[1917, 1862],[2720, 1862],[2720, 1600],[1917, 1600]]]},"properties":{"objectType":"annotation","name":"address","classification":{"name":"address","color":[0, 0, 255]}}},{"type":"Feature","id":"b3f955b3-5b61-4804-9702-5d92dcf8a244","geometry":{"type":"Polygon","coordinates":[[[1709, 1399],[1709, 1467],[2546, 1467],[2546, 1399],[1709, 1399]]]},"properties":{"objectType":"annotation","name":"company","classification":{"name":"company","color":[255, 0, 0]}}}]}