{"type":"FeatureCollection","features":[{"type":"Feature","id":"bb9077e3-f12b-47fa-bcc5-25ec7af76e0f","geometry":{"type":"Polygon","coordinates":[[[187, 266],[187, 309],[663, 309],[663, 266],[187, 266]]]},"properties":{"objectType":"annotation","name":"company","classification":{"name":"company","color":[255, 0, 0]}}},{"type":"Feature","id":"7f8f5025-0395-4a2b-9aed-13421eb5e0f2","geometry":{"type":"Polygon","coordinates":[[[276, 1821],[276, 1866],[489, 1866],[489, 1821],[276, 1821]]]},"properties":{"objectType":"annotation","name":"date","classification":{"name":"date","color":[0, 255, 0]}}},{"type":"Feature","id":"7a8b5118-9e77-4993-b646-c123976ab7aa","geometry":{"type":"Polygon","coordinates":[[[36, 447],[36, 575],[813, 575],[813, 447],[36, 447]]]},"properties":{"objectType":"annotation","name":"address","classification":{"name":"address","color":[0, 0, 255]}}},{"type":"Feature","id":"d75d530c-9e11-4f1b-8fd7-1354f438394f","geometry":{"type":"Polygon","coordinates":[[[705, 1207],[705, 1287],[820, 1287],[820, 1207],[705, 1207]]]},"properties":{"objectType":"annotation","name":"total","classification":{"name":"total","color":[255, 255, 0]}}}]}