{"type":"FeatureCollection","features":[{"type":"Feature","id":"4e15d2a1-4715-4e4f-a9d7-fbbb6c3baee8","geometry":{"type":"Polygon","coordinates":[[[660, 1293],[660, 1334],[750, 1334],[750, 1293],[660, 1293]]]},"properties":{"objectType":"annotation","name":"total","classification":{"name":"total","color":[255, 255, 0]}}},{"type":"Feature","id":"53c4ed55-f352-4d27-b1b7-deb41750b40c","geometry":{"type":"Polygon","coordinates":[[[625, 693],[625, 732],[769, 732],[769, 693],[625, 693]]]},"properties":{"objectType":"annotation","name":"date","classification":{"name":"date","color":[0, 255, 0]}}},{"type":"Feature","id":"03c9ff45-505f-4135-b3b1-6b8188b2f30c","geometry":{"type":"Polygon","coordinates":[[[290, 165],[290, 202],[645, 202],[645, 165],[290, 165]]]},"properties":{"objectType":"annotation","name":"company","classification":{"name":"company","color":[255, 0, 0]}}},{"type":"Feature","id":"5e2c3abd-1b17-4ace-8dfe-79bb7034f11e","geometry":{"type":"Polygon","coordinates":[[[290, 324],[290, 447],[646, 447],[646, 324],[290, 324]]]},"properties":{"objectType":"annotation","name":"address","classification":{"name":"address","color":[0, 0, 255]}}}]}