{"type":"FeatureCollection","features":[{"type":"Feature","id":"975799eb-2c5e-4ce5-ac2e-b67761340e36","geometry":{"type":"Polygon","coordinates":[[[133, 319],[133, 394],[538, 394],[538, 319],[133, 319]]]},"properties":{"objectType":"annotation","name":"address","classification":{"name":"address","color":[0, 0, 255]}}},{"type":"Feature","id":"5662acf7-d29a-482c-a64e-454924912d39","geometry":{"type":"Polygon","coordinates":[[[124, 243],[124, 272],[498, 272],[498, 243],[124, 243]]]},"properties":{"objectType":"annotation","name":"company","classification":{"name":"company","color":[255, 0, 0]}}},{"type":"Feature","id":"475eba04-cd9a-4def-9a3d-d0718fdc991d","geometry":{"type":"Polygon","coordinates":[[[743, 924],[743, 975],[884, 975],[884, 924],[743, 924]]]},"properties":{"objectType":"annotation","name":"total","classification":{"name":"total","color":[255, 255, 0]}}},{"type":"Feature","id":"04fc6c2c-08a0-4f99-aa78-4e00b9d46ef7","geometry":{"type":"Polygon","coordinates":[[[138, 1424],[138, 1456],[310, 1456],[310, 1424],[138, 1424]]]},"properties":{"objectType":"annotation","name":"date","classification":{"name":"date","color":[0, 255, 0]}}}]}