{"type":"FeatureCollection","features":[{"type":"Feature","id":"75e2ac68-05f2-40d4-9d93-6a08b0881619","geometry":{"type":"Polygon","coordinates":[[[137, 312],[137, 384],[724, 384],[724, 312],[137, 312]]]},"properties":{"objectType":"annotation","name":"company","classification":{"name":"company","color":[255, 0, 0]}}},{"type":"Feature","id":"84938549-7f14-42f0-9410-a2c1969e916a","geometry":{"type":"Polygon","coordinates":[[[73, 403],[73, 491],[728, 491],[728, 403],[73, 403]]]},"properties":{"objectType":"annotation","name":"address","classification":{"name":"address","color":[0, 0, 255]}}},{"type":"Feature","id":"7dc2eb87-7133-4888-bcfd-6e8275f5e127","geometry":{"type":"Polygon","coordinates":[[[225, 633],[225, 686],[399, 686],[399, 633],[225, 633]]]},"properties":{"objectType":"annotation","name":"date","classification":{"name":"date","color":[0, 255, 0]}}},{"type":"Feature","id":"6c07e124-1b80-4f89-a9a8-cd3af6d82b05","geometry":{"type":"Polygon","coordinates":[[[530, 1318],[530, 1369],[711, 1369],[711, 1318],[530, 1318]]]},"properties":{"objectType":"annotation","name":"total","classification":{"name":"total","color":[255, 255, 0]}}}]}