{"type":"FeatureCollection","features":[{"type":"Feature","id":"cc09f0ff-292f-47d0-a56f-f4783675dbad","geometry":{"type":"Polygon","coordinates":[[[160, 167],[160, 209],[651, 209],[651, 167],[160, 167]]]},"properties":{"objectType":"annotation","name":"company","classification":{"name":"company","color":[255, 0, 0]}}},{"type":"Feature","id":"7f8d7169-da71-4a8c-862d-42e05f330e13","geometry":{"type":"Polygon","coordinates":[[[676, 1172],[676, 1199],[765, 1199],[765, 1172],[676, 1172]]]},"properties":{"objectType":"annotation","name":"total","classification":{"name":"total","color":[255, 255, 0]}}},{"type":"Feature","id":"0cc3bc84-09c3-4817-86c0-8a176afac6ba","geometry":{"type":"Polygon","coordinates":[[[582, 472],[582, 503],[728, 503],[728, 472],[582, 472]]]},"properties":{"objectType":"annotation","name":"date","classification":{"name":"date","color":[0, 255, 0]}}},{"type":"Feature","id":"f0575daf-2aaa-4274-802a-33f0fc6083c3","geometry":{"type":"Polygon","coordinates":[[[92, 246],[92, 320],[719, 320],[719, 246],[92, 246]]]},"properties":{"objectType":"annotation","name":"address","classification":{"name":"address","color":[0, 0, 255]}}}]}