{"type":"FeatureCollection","features":[{"type":"Feature","id":"26e5d522-9678-47af-a1cb-1ecf035930a5","geometry":{"type":"Polygon","coordinates":[[[78, 1702],[78, 1729],[206, 1729],[206, 1702],[78, 1702]]]},"properties":{"objectType":"annotation","name":"date","classification":{"name":"date","color":[0, 255, 0]}}},{"type":"Feature","id":"d1b26a65-f0f1-4e76-925f-6962a0e949d4","geometry":{"type":"Polygon","coordinates":[[[637, 1433],[637, 1460],[732, 1460],[732, 1433],[637, 1433]]]},"properties":{"objectType":"annotation","name":"total","classification":{"name":"total","color":[255, 255, 0]}}},{"type":"Feature","id":"d624c9a4-d904-4226-bc49-c2debcd57bd9","geometry":{"type":"Polygon","coordinates":[[[123, 407],[123, 502],[660, 502],[660, 407],[123, 407]]]},"properties":{"objectType":"annotation","name":"address","classification":{"name":"address","color":[0, 0, 255]}}},{"type":"Feature","id":"5530605b-6c26-4d49-95da-69bcbf7b375e","geometry":{"type":"Polygon","coordinates":[[[171, 342],[171, 369],[614, 369],[614, 342],[171, 342]]]},"properties":{"objectType":"annotation","name":"company","classification":{"name":"company","color":[255, 0, 0]}}}]}