{"type":"FeatureCollection","features":[{"type":"Feature","id":"ff1c18ca-d282-422e-808c-ad082d430b99","geometry":{"type":"Polygon","coordinates":[[[60, 215],[60, 312],[357, 312],[357, 215],[60, 215]]]},"properties":{"objectType":"annotation","name":"address","classification":{"name":"address","color":[0, 0, 255]}}},{"type":"Feature","id":"75d9b97b-fea6-4965-83c0-d5ebd7f27a7a","geometry":{"type":"Polygon","coordinates":[[[54, 148],[54, 175],[467, 175],[467, 148],[54, 148]]]},"properties":{"objectType":"annotation","name":"company","classification":{"name":"company","color":[255, 0, 0]}}},{"type":"Feature","id":"ea43d9ff-1535-48c0-8d48-8b919b22370c","geometry":{"type":"Polygon","coordinates":[[[229, 529],[229, 556],[322, 556],[322, 529],[229, 529]]]},"properties":{"objectType":"annotation","name":"date","classification":{"name":"date","color":[0, 255, 0]}}},{"type":"Feature","id":"84362bb5-e5c5-46e7-98b8-747fb203b160","geometry":{"type":"Polygon","coordinates":[[[366, 770],[366, 816],[426, 816],[426, 770],[366, 770]]]},"properties":{"objectType":"annotation","name":"total","classification":{"name":"total","color":[255, 255, 0]}}}]}