{"type":"FeatureCollection","features":[{"type":"Feature","id":"ff967987-bc59-4ac8-b3af-4ecb2bcc4a00","geometry":{"type":"Polygon","coordinates":[[[117, 356],[117, 481],[700, 481],[700, 356],[117, 356]]]},"properties":{"objectType":"annotation","name":"address","classification":{"name":"address","color":[0, 0, 255]}}},{"type":"Feature","id":"3d6c4870-bc75-4d73-b41b-f9b7f9398f0a","geometry":{"type":"Polygon","coordinates":[[[208, 243],[208, 324],[591, 324],[591, 243],[208, 243]]]},"properties":{"objectType":"annotation","name":"company","classification":{"name":"company","color":[255, 0, 0]}}},{"type":"Feature","id":"5388442b-2c2f-4b2a-b45c-24ad3dbc576a","geometry":{"type":"Polygon","coordinates":[[[201, 701],[201, 739],[392, 739],[392, 701],[201, 701]]]},"properties":{"objectType":"annotation","name":"date","classification":{"name":"date","color":[0, 255, 0]}}},{"type":"Feature","id":"2c24d9bf-2f34-4395-8960-d4e98095ca60","geometry":{"type":"Polygon","coordinates":[[[601, 1376],[601, 1430],[778, 1430],[778, 1376],[601, 1376]]]},"properties":{"objectType":"annotation","name":"total","classification":{"name":"total","color":[255, 255, 0]}}}]}