{"type":"FeatureCollection","features":[{"type":"Feature","id":"60caa261-ec79-4439-8921-717fbced3ee3","geometry":{"type":"Polygon","coordinates":[[[657, 2264],[657, 2293],[764, 2293],[764, 2264],[657, 2264]]]},"properties":{"objectType":"annotation","name":"total","classification":{"name":"total","color":[255, 255, 0]}}},{"type":"Feature","id":"6f0364ea-32e0-4708-bbad-43ad87dcbdde","geometry":{"type":"Polygon","coordinates":[[[667, 695],[667, 726],[839, 726],[839, 695],[667, 695]]]},"properties":{"objectType":"annotation","name":"date","classification":{"name":"date","color":[0, 255, 0]}}},{"type":"Feature","id":"3662c3f2-3ddc-4f0e-8392-986fd39f923f","geometry":{"type":"Polygon","coordinates":[[[245, 317],[245, 444],[681, 444],[681, 317],[245, 317]]]},"properties":{"objectType":"annotation","name":"address","classification":{"name":"address","color":[0, 0, 255]}}},{"type":"Feature","id":"6f4d056a-3606-4976-9ea8-f120f71bc032","geometry":{"type":"Polygon","coordinates":[[[93, 215],[93, 253],[834, 253],[834, 215],[93, 215]]]},"properties":{"objectType":"annotation","name":"company","classification":{"name":"company","color":[255, 0, 0]}}}]}