{"type":"FeatureCollection","features":[{"type":"Feature","id":"e3233450-e1d3-4f27-870f-f6f3a1e9a1c3","geometry":{"type":"Polygon","coordinates":[[[399, 300],[399, 318],[518, 318],[518, 300],[399, 300]]]},"properties":{"objectType":"annotation","name":"date","classification":{"name":"date","color":[0, 255, 0]}}},{"type":"Feature","id":"396f90e9-2cc9-46b4-acff-2c51c5203690","geometry":{"type":"Polygon","coordinates":[[[167, 90],[167, 137],[463, 137],[463, 90],[167, 90]]]},"properties":{"objectType":"annotation","name":"address","classification":{"name":"address","color":[0, 0, 255]}}},{"type":"Feature","id":"0ba8f5a7-5a51-461a-a62f-d294e8e93454","geometry":{"type":"Polygon","coordinates":[[[41, 66],[41, 87],[477, 87],[477, 66],[41, 66]]]},"properties":{"objectType":"annotation","name":"company","classification":{"name":"company","color":[255, 0, 0]}}},{"type":"Feature","id":"a48db1d7-6b53-48cd-9009-e2c4971e4f51","geometry":{"type":"Polygon","coordinates":[[[465, 931],[465, 962],[513, 962],[513, 931],[465, 931]]]},"properties":{"objectType":"annotation","name":"total","classification":{"name":"total","color":[255, 255, 0]}}}]}