{"type":"FeatureCollection","features":[{"type":"Feature","id":"61031fb7-e056-4614-8bf6-3db8f16e5ca2","geometry":{"type":"Polygon","coordinates":[[[3083, 2619],[3083, 2668],[3190, 2668],[3190, 2619],[3083, 2619]]]},"properties":{"objectType":"annotation","name":"total","classification":{"name":"total","color":[255, 255, 0]}}},{"type":"Feature","id":"3231cf2f-55f8-4631-90c6-a179a718efec","geometry":{"type":"Polygon","coordinates":[[[1905, 1545],[1905, 1692],[3040, 1692],[3040, 1545],[1905, 1545]]]},"properties":{"objectType":"annotation","name":"address","classification":{"name":"address","color":[0, 0, 255]}}},{"type":"Feature","id":"49cd5452-8dda-4419-8da0-ddd777c9d5f2","geometry":{"type":"Polygon","coordinates":[[[2238, 1382],[2238, 1443],[2546, 1443],[2546, 1382],[2238, 1382]]]},"properties":{"objectType":"annotation","name":"date","classification":{"name":"date","color":[0, 255, 0]}}},{"type":"Feature","id":"b5819917-bb1b-415e-ae96-4c36bb8246cc","geometry":{"type":"Polygon","coordinates":[[[1813, 1302],[1813, 1363],[3134, 1363],[3134, 1302],[1813, 1302]]]},"properties":{"objectType":"annotation","name":"company","classification":{"name":"company","color":[255, 0, 0]}}}]}