{"type":"FeatureCollection","features":[{"type":"Feature","id":"a3734e98-2b96-4b51-9bd7-0eee681d2329","geometry":{"type":"Polygon","coordinates":[[[257, 1213],[257, 1239],[390, 1239],[390, 1213],[257, 1213]]]},"properties":{"objectType":"annotation","name":"date","classification":{"name":"date","color":[0, 255, 0]}}},{"type":"Feature","id":"cd172336-6387-48c8-919e-1c1df151b885","geometry":{"type":"Polygon","coordinates":[[[543, 694],[543, 719],[614, 719],[614, 694],[543, 694]]]},"properties":{"objectType":"annotation","name":"total","classification":{"name":"total","color":[255, 255, 0]}}},{"type":"Feature","id":"a1d27e6e-efdc-412b-a875-296e24d8d13e","geometry":{"type":"Polygon","coordinates":[[[171, 183],[171, 274],[572, 274],[572, 183],[171, 183]]]},"properties":{"objectType":"annotation","name":"address","classification":{"name":"address","color":[0, 0, 255]}}},{"type":"Feature","id":"9360cc68-d18c-4627-8cc2-9b19aaa33615","geometry":{"type":"Polygon","coordinates":[[[99, 150],[99, 175],[489, 175],[489, 150],[99, 150]]]},"properties":{"objectType":"annotation","name":"company","classification":{"name":"company","color":[255, 0, 0]}}}]}