{"type":"FeatureCollection","features":[{"type":"Feature","id":"c852d497-2f9f-48a9-81fa-775ab6688162","geometry":{"type":"Polygon","coordinates":[[[239, 268],[239, 305],[569, 305],[569, 268],[239, 268]]]},"properties":{"objectType":"annotation","name":"company","classification":{"name":"company","color":[255, 0, 0]}}},{"type":"Feature","id":"7c5c529f-2556-4f1b-a12d-11e5224b2168","geometry":{"type":"Polygon","coordinates":[[[176, 696],[176, 735],[545, 735],[545, 696],[176, 696]]]},"properties":{"objectType":"annotation","name":"date","classification":{"name":"date","color":[0, 255, 0]}}},{"type":"Feature","id":"bc2245f8-a147-4e34-9ec9-75f5ba7171c9","geometry":{"type":"Polygon","coordinates":[[[119, 354],[119, 482],[697, 482],[697, 354],[119, 354]]]},"properties":{"objectType":"annotation","name":"address","classification":{"name":"address","color":[0, 0, 255]}}},{"type":"Feature","id":"cedbad5b-8427-41d2-b886-7e4ad0254e47","geometry":{"type":"Polygon","coordinates":[[[609, 1292],[609, 1497],[753, 1497],[753, 1292],[609, 1292]]]},"properties":{"objectType":"annotation","name":"total","classification":{"name":"total","color":[255, 255, 0]}}}]}