{"type":"FeatureCollection","features":[{"type":"Feature","id":"016d812d-d0c3-449b-b31b-8972dc06cf1e","geometry":{"type":"Polygon","coordinates":[[[28, 183],[28, 295],[542, 295],[542, 183],[28, 183]]]},"properties":{"objectType":"annotation","name":"address","classification":{"name":"address","color":[0, 0, 255]}}},{"type":"Feature","id":"5e36069a-4394-4ab9-a4de-7f43760d9379","geometry":{"type":"Polygon","coordinates":[[[27, 149],[27, 176],[406, 176],[406, 149],[27, 149]]]},"properties":{"objectType":"annotation","name":"company","classification":{"name":"company","color":[255, 0, 0]}}},{"type":"Feature","id":"15e0bb47-deb2-4489-99ae-84c1ccfb8b8d","geometry":{"type":"Polygon","coordinates":[[[484, 713],[484, 746],[535, 746],[535, 713],[484, 713]]]},"properties":{"objectType":"annotation","name":"total","classification":{"name":"total","color":[255, 255, 0]}}},{"type":"Feature","id":"b75b7653-a546-4dbc-9282-adf250bf16b8","geometry":{"type":"Polygon","coordinates":[[[27, 1016],[27, 1044],[155, 1044],[155, 1016],[27, 1016]]]},"properties":{"objectType":"annotation","name":"date","classification":{"name":"date","color":[0, 255, 0]}}}]}