{"type":"FeatureCollection","features":[{"type":"Feature","id":"59fa32ad-38a8-443e-aa1b-92a5dee53b0e","geometry":{"type":"Polygon","coordinates":[[[36, 75],[36, 96],[473, 96],[473, 75],[36, 75]]]},"properties":{"objectType":"annotation","name":"company","classification":{"name":"company","color":[255, 0, 0]}}},{"type":"Feature","id":"5349a71d-ed63-41b5-af1b-f0b989fea221","geometry":{"type":"Polygon","coordinates":[[[160, 97],[160, 145],[457, 145],[457, 97],[160, 97]]]},"properties":{"objectType":"annotation","name":"address","classification":{"name":"address","color":[0, 0, 255]}}},{"type":"Feature","id":"874efbc3-b0ef-44e6-a24e-8deb5591cd9a","geometry":{"type":"Polygon","coordinates":[[[303, 468],[303, 488],[413, 488],[413, 468],[303, 468]]]},"properties":{"objectType":"annotation","name":"date","classification":{"name":"date","color":[0, 255, 0]}}},{"type":"Feature","id":"4682ce82-2c69-4e91-b1d0-2076c71d2193","geometry":{"type":"Polygon","coordinates":[[[449, 913],[449, 946],[511, 946],[511, 913],[449, 913]]]},"properties":{"objectType":"annotation","name":"total","classification":{"name":"total","color":[255, 255, 0]}}}]}