{"type":"FeatureCollection","features":[{"type":"Feature","id":"62f13eeb-be21-4bdc-a8e2-f2da1022474a","geometry":{"type":"Polygon","coordinates":[[[622, 650],[622, 662],[657, 662],[657, 650],[622, 650]]]},"properties":{"objectType":"annotation","name":"total","classification":{"name":"total","color":[255, 255, 0]}}},{"type":"Feature","id":"75b39eeb-8785-4e64-8963-952e220971c8","geometry":{"type":"Polygon","coordinates":[[[335, 846],[335, 861],[408, 861],[408, 846],[335, 846]]]},"properties":{"objectType":"annotation","name":"date","classification":{"name":"date","color":[0, 255, 0]}}},{"type":"Feature","id":"d551977f-1b56-4a45-8204-496b4384423e","geometry":{"type":"Polygon","coordinates":[[[337, 397],[337, 451],[677, 451],[677, 397],[337, 397]]]},"properties":{"objectType":"annotation","name":"address","classification":{"name":"address","color":[0, 0, 255]}}},{"type":"Feature","id":"9748f0a6-d32f-4787-b3f6-2789444b1812","geometry":{"type":"Polygon","coordinates":[[[338, 378],[338, 391],[531, 391],[531, 378],[338, 378]]]},"properties":{"objectType":"annotation","name":"company","classification":{"name":"company","color":[255, 0, 0]}}}]}