{"type":"FeatureCollection","features":[{"type":"Feature","id":"9918e9b2-ff95-41f4-b18c-2774fb882797","geometry":{"type":"Polygon","coordinates":[[[581, 904],[581, 927],[647, 927],[647, 904],[581, 904]]]},"properties":{"objectType":"annotation","name":"total","classification":{"name":"total","color":[255, 255, 0]}}},{"type":"Feature","id":"92fd0e79-eb4b-49e0-b047-a29ec09058ab","geometry":{"type":"Polygon","coordinates":[[[223, 130],[223, 158],[535, 158],[535, 130],[223, 130]]]},"properties":{"objectType":"annotation","name":"company","classification":{"name":"company","color":[255, 0, 0]}}},{"type":"Feature","id":"d519e542-4f6f-437e-a785-9ce5d9b223bd","geometry":{"type":"Polygon","coordinates":[[[146, 191],[146, 293],[610, 293],[610, 191],[146, 191]]]},"properties":{"objectType":"annotation","name":"address","classification":{"name":"address","color":[0, 0, 255]}}},{"type":"Feature","id":"c31b4df3-35f4-496f-af07-fdf03098570c","geometry":{"type":"Polygon","coordinates":[[[425, 422],[425, 447],[559, 447],[559, 422],[425, 422]]]},"properties":{"objectType":"annotation","name":"date","classification":{"name":"date","color":[0, 255, 0]}}}]}