{"type":"FeatureCollection","features":[{"type":"Feature","id":"5490cabb-bf14-49b8-b4c0-d59909260a3a","geometry":{"type":"Polygon","coordinates":[[[549, 1112],[549, 1140],[666, 1140],[666, 1112],[549, 1112]]]},"properties":{"objectType":"annotation","name":"total","classification":{"name":"total","color":[255, 255, 0]}}},{"type":"Feature","id":"3a7943e2-6f94-4a80-9224-70bf43bb3bbd","geometry":{"type":"Polygon","coordinates":[[[481, 605],[481, 631],[631, 631],[631, 605],[481, 605]]]},"properties":{"objectType":"annotation","name":"date","classification":{"name":"date","color":[0, 255, 0]}}},{"type":"Feature","id":"d8f42da3-cc80-4f85-9414-0f23e4bb1d6d","geometry":{"type":"Polygon","coordinates":[[[112, 305],[112, 421],[616, 421],[616, 305],[112, 305]]]},"properties":{"objectType":"annotation","name":"address","classification":{"name":"address","color":[0, 0, 255]}}},{"type":"Feature","id":"341fe396-ebcc-4e9c-8d28-8df635cae106","geometry":{"type":"Polygon","coordinates":[[[78, 245],[78, 274],[647, 274],[647, 245],[78, 245]]]},"properties":{"objectType":"annotation","name":"company","classification":{"name":"company","color":[255, 0, 0]}}}]}