{"type":"FeatureCollection","features":[{"type":"Feature","id":"38efbc38-9ef4-4d53-8d92-7a49e964922d","geometry":{"type":"Polygon","coordinates":[[[177, 336],[177, 369],[520, 369],[520, 336],[177, 336]]]},"properties":{"objectType":"annotation","name":"address","classification":{"name":"address","color":[0, 0, 255]}}},{"type":"Feature","id":"f8021dee-a26f-4150-9b74-35ffc329dafc","geometry":{"type":"Polygon","coordinates":[[[506, 658],[506, 686],[654, 686],[654, 658],[506, 658]]]},"properties":{"objectType":"annotation","name":"total","classification":{"name":"total","color":[255, 255, 0]}}},{"type":"Feature","id":"3560924f-2e89-4508-85ed-caa8148ea1be","geometry":{"type":"Polygon","coordinates":[[[149, 1175],[149, 1201],[297, 1201],[297, 1175],[149, 1175]]]},"properties":{"objectType":"annotation","name":"date","classification":{"name":"date","color":[0, 255, 0]}}},{"type":"Feature","id":"42ce80fd-7a23-4b37-8ae4-7e6c3d8e2237","geometry":{"type":"Polygon","coordinates":[[[58, 215],[58, 246],[654, 246],[654, 215],[58, 215]]]},"properties":{"objectType":"annotation","name":"company","classification":{"name":"company","color":[255, 0, 0]}}}]}