{"type":"FeatureCollection","features":[{"type":"Feature","id":"b76fdd1d-adcd-4a9e-9feb-c70372e52178","geometry":{"type":"Polygon","coordinates":[[[51, 190],[51, 279],[530, 279],[530, 190],[51, 190]]]},"properties":{"objectType":"annotation","name":"company","classification":{"name":"company","color":[255, 0, 0]}}},{"type":"Feature","id":"e809d1dd-3a69-435d-8a2e-6f89b578ae40","geometry":{"type":"Polygon","coordinates":[[[59, 292],[59, 373],[503, 373],[503, 292],[59, 292]]]},"properties":{"objectType":"annotation","name":"address","classification":{"name":"address","color":[0, 0, 255]}}},{"type":"Feature","id":"c2f1d0b7-7ed8-46d2-ba82-4252bc711950","geometry":{"type":"Polygon","coordinates":[[[403, 988],[403, 1024],[547, 1024],[547, 988],[403, 988]]]},"properties":{"objectType":"annotation","name":"total","classification":{"name":"total","color":[255, 255, 0]}}},{"type":"Feature","id":"ebe41427-722e-4dc2-b84b-8a20b083a55e","geometry":{"type":"Polygon","coordinates":[[[378, 602],[378, 629],[525, 629],[525, 602],[378, 602]]]},"properties":{"objectType":"annotation","name":"date","classification":{"name":"date","color":[0, 255, 0]}}}]}