{"type":"FeatureCollection","features":[{"type":"Feature","id":"98b44d79-3b96-4d83-a6a2-54aceedfc039","geometry":{"type":"Polygon","coordinates":[[[37, 128],[37, 172],[535, 172],[535, 128],[37, 128]]]},"properties":{"objectType":"annotation","name":"company","classification":{"name":"company","color":[255, 0, 0]}}},{"type":"Feature","id":"59d51b0d-bfc2-4726-9a3e-0e66042b0917","geometry":{"type":"Polygon","coordinates":[[[35, 184],[35, 230],[537, 230],[537, 184],[35, 184]]]},"properties":{"objectType":"annotation","name":"address","classification":{"name":"address","color":[0, 0, 255]}}},{"type":"Feature","id":"6c673b09-6b57-427c-837a-e7c81bf8c294","geometry":{"type":"Polygon","coordinates":[[[468, 553],[468, 598],[539, 598],[539, 553],[468, 553]]]},"properties":{"objectType":"annotation","name":"total","classification":{"name":"total","color":[255, 255, 0]}}},{"type":"Feature","id":"79ac42cb-e958-4783-ac48-a4606b58fa37","geometry":{"type":"Polygon","coordinates":[[[392, 938],[392, 975],[531, 975],[531, 938],[392, 938]]]},"properties":{"objectType":"annotation","name":"date","classification":{"name":"date","color":[0, 255, 0]}}}]}