{"type":"FeatureCollection","features":[{"type":"Feature","id":"384c554a-fd3b-481e-9e24-08930e76680d","geometry":{"type":"Polygon","coordinates":[[[75, 338],[75, 380],[649, 380],[649, 338],[75, 338]]]},"properties":{"objectType":"annotation","name":"company","classification":{"name":"company","color":[255, 0, 0]}}},{"type":"Feature","id":"d23b6ae5-f4c2-408b-8ae2-e2e161a9e78b","geometry":{"type":"Polygon","coordinates":[[[642, 1319],[642, 1353],[714, 1353],[714, 1319],[642, 1319]]]},"properties":{"objectType":"annotation","name":"total","classification":{"name":"total","color":[255, 255, 0]}}},{"type":"Feature","id":"4322662e-7fec-4a32-8c9b-c5df463374cb","geometry":{"type":"Polygon","coordinates":[[[347, 1050],[347, 1092],[521, 1092],[521, 1050],[347, 1050]]]},"properties":{"objectType":"annotation","name":"date","classification":{"name":"date","color":[0, 255, 0]}}},{"type":"Feature","id":"a7f78858-96c2-4ce8-aa21-3ef112c9571d","geometry":{"type":"Polygon","coordinates":[[[29, 564],[29, 694],[715, 694],[715, 564],[29, 564]]]},"properties":{"objectType":"annotation","name":"address","classification":{"name":"address","color":[0, 0, 255]}}}]}