{"type":"FeatureCollection","features":[{"type":"Feature","id":"ca157b56-36f2-451f-8bfc-10065640dc9a","geometry":{"type":"Polygon","coordinates":[[[628, 1031],[628, 1065],[735, 1065],[735, 1031],[628, 1031]]]},"properties":{"objectType":"annotation","name":"total","classification":{"name":"total","color":[255, 255, 0]}}},{"type":"Feature","id":"a790bf0d-42f0-48b9-b7d3-849bb67133ac","geometry":{"type":"Polygon","coordinates":[[[631, 785],[631, 820],[769, 820],[769, 785],[631, 785]]]},"properties":{"objectType":"annotation","name":"date","classification":{"name":"date","color":[0, 255, 0]}}},{"type":"Feature","id":"95b0f4c0-fbf3-4ede-b605-100af253670d","geometry":{"type":"Polygon","coordinates":[[[169, 390],[169, 574],[641, 574],[641, 390],[169, 390]]]},"properties":{"objectType":"annotation","name":"address","classification":{"name":"address","color":[0, 0, 255]}}},{"type":"Feature","id":"62c5437d-8f02-4981-bcb4-09e2d11d977c","geometry":{"type":"Polygon","coordinates":[[[151, 341],[151, 376],[451, 376],[451, 341],[151, 341]]]},"properties":{"objectType":"annotation","name":"company","classification":{"name":"company","color":[255, 0, 0]}}}]}