{"type":"FeatureCollection","features":[{"type":"Feature","id":"8a41868d-2343-48fe-98b6-7204da59205c","geometry":{"type":"Polygon","coordinates":[[[46, 179],[46, 230],[512, 230],[512, 179],[46, 179]]]},"properties":{"objectType":"annotation","name":"address","classification":{"name":"address","color":[0, 0, 255]}}},{"type":"Feature","id":"be3187cf-f2fc-48b1-8e5a-a076202d248b","geometry":{"type":"Polygon","coordinates":[[[36, 131],[36, 169],[533, 169],[533, 131],[36, 131]]]},"properties":{"objectType":"annotation","name":"company","classification":{"name":"company","color":[255, 0, 0]}}},{"type":"Feature","id":"d8eaad16-ce58-4afe-b62c-3fc388b8ec0f","geometry":{"type":"Polygon","coordinates":[[[459, 903],[459, 947],[561, 947],[561, 903],[459, 903]]]},"properties":{"objectType":"annotation","name":"total","classification":{"name":"total","color":[255, 255, 0]}}},{"type":"Feature","id":"16c8df44-d279-4bd3-8531-49763587eebc","geometry":{"type":"Polygon","coordinates":[[[165, 1171],[165, 1215],[313, 1215],[313, 1171],[165, 1171]]]},"properties":{"objectType":"annotation","name":"date","classification":{"name":"date","color":[0, 255, 0]}}}]}