{"type":"FeatureCollection","features":[{"type":"Feature","id":"ac783724-ff57-476e-9aca-e11759c5253c","geometry":{"type":"Polygon","coordinates":[[[292, 514],[292, 544],[360, 544],[360, 514],[292, 514]]]},"properties":{"objectType":"annotation","name":"total","classification":{"name":"total","color":[255, 255, 0]}}},{"type":"Feature","id":"35221d15-58fa-486f-883f-cad3fefc1681","geometry":{"type":"Polygon","coordinates":[[[26, 350],[26, 368],[114, 368],[114, 350],[26, 350]]]},"properties":{"objectType":"annotation","name":"date","classification":{"name":"date","color":[0, 255, 0]}}},{"type":"Feature","id":"68e7942d-2317-473c-a0d2-5efa191a6e5c","geometry":{"type":"Polygon","coordinates":[[[26, 229],[26, 268],[369, 268],[369, 229],[26, 229]]]},"properties":{"objectType":"annotation","name":"address","classification":{"name":"address","color":[0, 0, 255]}}},{"type":"Feature","id":"2c565883-ca9e-4999-8483-5d6b40cc801f","geometry":{"type":"Polygon","coordinates":[[[34, 207],[34, 226],[272, 226],[272, 207],[34, 207]]]},"properties":{"objectType":"annotation","name":"company","classification":{"name":"company","color":[255, 0, 0]}}}]}