{"type":"FeatureCollection","features":[{"type":"Feature","id":"deaded25-ca44-4858-935d-e8a4ce9ae61c","geometry":{"type":"Polygon","coordinates":[[[672, 1647],[672, 1683],[764, 1683],[764, 1647],[672, 1647]]]},"properties":{"objectType":"annotation","name":"total","classification":{"name":"total","color":[255, 255, 0]}}},{"type":"Feature","id":"16846cf8-3896-445c-ac18-96277261edf8","geometry":{"type":"Polygon","coordinates":[[[644, 789],[644, 828],[788, 828],[788, 789],[644, 789]]]},"properties":{"objectType":"annotation","name":"date","classification":{"name":"date","color":[0, 255, 0]}}},{"type":"Feature","id":"f4871c67-005a-4b8e-bde1-2354b23b449a","geometry":{"type":"Polygon","coordinates":[[[174, 388],[174, 582],[651, 582],[651, 388],[174, 388]]]},"properties":{"objectType":"annotation","name":"address","classification":{"name":"address","color":[0, 0, 255]}}},{"type":"Feature","id":"8b543a69-5c63-4222-a863-50cb4b12ad5c","geometry":{"type":"Polygon","coordinates":[[[155, 342],[155, 384],[459, 384],[459, 342],[155, 342]]]},"properties":{"objectType":"annotation","name":"company","classification":{"name":"company","color":[255, 0, 0]}}}]}