{"type":"FeatureCollection","features":[{"type":"Feature","id":"d5df278a-4960-444a-8a18-3aac815550b7","geometry":{"type":"Polygon","coordinates":[[[153, 332],[153, 373],[648, 373],[648, 332],[153, 332]]]},"properties":{"objectType":"annotation","name":"company","classification":{"name":"company","color":[255, 0, 0]}}},{"type":"Feature","id":"5678778c-5059-45d5-b262-994843ed1538","geometry":{"type":"Polygon","coordinates":[[[633, 735],[633, 774],[776, 774],[776, 735],[633, 735]]]},"properties":{"objectType":"annotation","name":"date","classification":{"name":"date","color":[0, 255, 0]}}},{"type":"Feature","id":"55075533-2fb7-4773-bd67-82cdc1584523","geometry":{"type":"Polygon","coordinates":[[[649, 1034],[649, 1072],[741, 1072],[741, 1034],[649, 1034]]]},"properties":{"objectType":"annotation","name":"total","classification":{"name":"total","color":[255, 255, 0]}}},{"type":"Feature","id":"9bf7971b-a003-4107-8d91-4859a9dc0406","geometry":{"type":"Polygon","coordinates":[[[164, 387],[164, 570],[659, 570],[659, 387],[164, 387]]]},"properties":{"objectType":"annotation","name":"address","classification":{"name":"address","color":[0, 0, 255]}}}]}