{"type":"FeatureCollection","features":[{"type":"Feature","id":"73883ebf-4abf-4e79-81b7-fc1ce6eabd6d","geometry":{"type":"Polygon","coordinates":[[[555, 1094],[555, 1122],[627, 1122],[627, 1094],[555, 1094]]]},"properties":{"objectType":"annotation","name":"total","classification":{"name":"total","color":[255, 255, 0]}}},{"type":"Feature","id":"3baeb3aa-1093-460a-8c56-4ce16f9567ab","geometry":{"type":"Polygon","coordinates":[[[57, 570],[57, 597],[215, 597],[215, 570],[57, 570]]]},"properties":{"objectType":"annotation","name":"date","classification":{"name":"date","color":[0, 255, 0]}}},{"type":"Feature","id":"1220c8c2-2227-4792-89ed-b759b2f619d7","geometry":{"type":"Polygon","coordinates":[[[170, 231],[170, 337],[499, 337],[499, 231],[170, 231]]]},"properties":{"objectType":"annotation","name":"address","classification":{"name":"address","color":[0, 0, 255]}}},{"type":"Feature","id":"0036edfe-5a88-458a-9af5-01a759dff185","geometry":{"type":"Polygon","coordinates":[[[227, 158],[227, 185],[456, 185],[456, 158],[227, 158]]]},"properties":{"objectType":"annotation","name":"company","classification":{"name":"company","color":[255, 0, 0]}}}]}