{"type":"FeatureCollection","features":[{"type":"Feature","id":"9be39432-a846-4999-af12-f03afce8b594","geometry":{"type":"Polygon","coordinates":[[[36, 564],[36, 593],[172, 593],[172, 564],[36, 564]]]},"properties":{"objectType":"annotation","name":"date","classification":{"name":"date","color":[0, 255, 0]}}},{"type":"Feature","id":"92d3e076-c4d0-419e-9117-48a8852f1caf","geometry":{"type":"Polygon","coordinates":[[[49, 325],[49, 394],[646, 394],[646, 325],[49, 325]]]},"properties":{"objectType":"annotation","name":"address","classification":{"name":"address","color":[0, 0, 255]}}},{"type":"Feature","id":"0cc49961-0cfe-4305-a927-e4d8505df12e","geometry":{"type":"Polygon","coordinates":[[[103, 119],[103, 238],[626, 238],[626, 119],[103, 119]]]},"properties":{"objectType":"annotation","name":"company","classification":{"name":"company","color":[255, 0, 0]}}},{"type":"Feature","id":"ad59fb09-5cb8-4a18-8caf-092d4364e32e","geometry":{"type":"Polygon","coordinates":[[[566, 994],[566, 1021],[652, 1021],[652, 994],[566, 994]]]},"properties":{"objectType":"annotation","name":"total","classification":{"name":"total","color":[255, 255, 0]}}}]}