{"type":"FeatureCollection","features":[{"type":"Feature","id":"a315168f-ff81-492b-8036-f9d1c94ec83e","geometry":{"type":"Polygon","coordinates":[[[437, 386],[437, 405],[652, 405],[652, 386],[437, 386]]]},"properties":{"objectType":"annotation","name":"company","classification":{"name":"company","color":[255, 0, 0]}}},{"type":"Feature","id":"31213422-0b93-4909-83ff-53b45f90c23f","geometry":{"type":"Polygon","coordinates":[[[408, 565],[408, 581],[486, 581],[486, 565],[408, 565]]]},"properties":{"objectType":"annotation","name":"date","classification":{"name":"date","color":[0, 255, 0]}}},{"type":"Feature","id":"7ef2678f-328e-4621-a0a3-4120b91b3df4","geometry":{"type":"Polygon","coordinates":[[[658, 907],[658, 929],[733, 929],[733, 907],[658, 907]]]},"properties":{"objectType":"annotation","name":"total","classification":{"name":"total","color":[255, 255, 0]}}},{"type":"Feature","id":"2aa9547e-9946-4ffa-b16c-161e8d8a5e68","geometry":{"type":"Polygon","coordinates":[[[374, 442],[374, 483],[718, 483],[718, 442],[374, 442]]]},"properties":{"objectType":"annotation","name":"address","classification":{"name":"address","color":[0, 0, 255]}}}]}