{"type":"FeatureCollection","features":[{"type":"Feature","id":"62106371-c4ca-4ffe-ac8b-1516a5723a48","geometry":{"type":"Polygon","coordinates":[[[99, 317],[99, 423],[592, 423],[592, 317],[99, 317]]]},"properties":{"objectType":"annotation","name":"address","classification":{"name":"address","color":[0, 0, 255]}}},{"type":"Feature","id":"c1ccc7d1-e7cf-4069-878e-e26ce438527c","geometry":{"type":"Polygon","coordinates":[[[175, 235],[175, 283],[493, 283],[493, 235],[175, 235]]]},"properties":{"objectType":"annotation","name":"company","classification":{"name":"company","color":[255, 0, 0]}}},{"type":"Feature","id":"a3fecfbe-d098-429b-b277-5bd0a97c765d","geometry":{"type":"Polygon","coordinates":[[[164, 608],[164, 654],[338, 654],[338, 608],[164, 608]]]},"properties":{"objectType":"annotation","name":"date","classification":{"name":"date","color":[0, 255, 0]}}},{"type":"Feature","id":"02c9bc1e-6a3f-42fc-bbe1-d335fbc601ab","geometry":{"type":"Polygon","coordinates":[[[500, 1224],[500, 1283],[659, 1283],[659, 1224],[500, 1224]]]},"properties":{"objectType":"annotation","name":"total","classification":{"name":"total","color":[255, 255, 0]}}}]}