{"type":"FeatureCollection","features":[{"type":"Feature","id":"536e84dd-476d-4fd2-9dcd-25a9e92d0cbc","geometry":{"type":"Polygon","coordinates":[[[51, 1283],[51, 1317],[189, 1317],[189, 1283],[51, 1283]]]},"properties":{"objectType":"annotation","name":"date","classification":{"name":"date","color":[0, 255, 0]}}},{"type":"Feature","id":"5e88c323-6aeb-42b6-bb5e-468aa8adbff9","geometry":{"type":"Polygon","coordinates":[[[539, 964],[539, 996],[611, 996],[611, 964],[539, 964]]]},"properties":{"objectType":"annotation","name":"total","classification":{"name":"total","color":[255, 255, 0]}}},{"type":"Feature","id":"64d5cd16-1a5d-4cee-b4d0-10df1644fb0e","geometry":{"type":"Polygon","coordinates":[[[153, 156],[153, 271],[565, 271],[565, 156],[153, 156]]]},"properties":{"objectType":"annotation","name":"address","classification":{"name":"address","color":[0, 0, 255]}}},{"type":"Feature","id":"c26dd128-3cdd-4a48-aeb9-c341badc8369","geometry":{"type":"Polygon","coordinates":[[[167, 115],[167, 152],[393, 152],[393, 115],[167, 115]]]},"properties":{"objectType":"annotation","name":"company","classification":{"name":"company","color":[255, 0, 0]}}}]}