{"type":"FeatureCollection","features":[{"type":"Feature","id":"f9b903af-0601-4572-b0fc-18c41e799fc6","geometry":{"type":"Polygon","coordinates":[[[76, 211],[76, 327],[537, 327],[537, 211],[76, 211]]]},"properties":{"objectType":"annotation","name":"address","classification":{"name":"address","color":[0, 0, 255]}}},{"type":"Feature","id":"f3f8735d-2ae9-461c-97b8-34c9bf1564d8","geometry":{"type":"Polygon","coordinates":[[[468, 438],[468, 469],[591, 469],[591, 438],[468, 438]]]},"properties":{"objectType":"annotation","name":"date","classification":{"name":"date","color":[0, 255, 0]}}},{"type":"Feature","id":"b28b03cb-de5e-49dd-8a7c-0fc02bf5bac3","geometry":{"type":"Polygon","coordinates":[[[430, 879],[430, 916],[539, 916],[539, 879],[430, 879]]]},"properties":{"objectType":"annotation","name":"total","classification":{"name":"total","color":[255, 255, 0]}}},{"type":"Feature","id":"b4715fc1-71a5-4bb6-a437-efe16fbdd00c","geometry":{"type":"Polygon","coordinates":[[[71, 140],[71, 184],[545, 184],[545, 140],[71, 140]]]},"properties":{"objectType":"annotation","name":"company","classification":{"name":"company","color":[255, 0, 0]}}}]}