{"type":"FeatureCollection","features":[{"type":"Feature","id":"72749a40-7620-49f0-9dc6-0d33851da6f3","geometry":{"type":"Polygon","coordinates":[[[104, 195],[104, 219],[475, 219],[475, 195],[104, 195]]]},"properties":{"objectType":"annotation","name":"company","classification":{"name":"company","color":[255, 0, 0]}}},{"type":"Feature","id":"f28268d3-c0f2-4957-b639-17fbdf45e0d3","geometry":{"type":"Polygon","coordinates":[[[165, 232],[165, 357],[415, 357],[415, 232],[165, 232]]]},"properties":{"objectType":"annotation","name":"address","classification":{"name":"address","color":[0, 0, 255]}}},{"type":"Feature","id":"121c0282-d9f9-4103-90da-f6d5082485dc","geometry":{"type":"Polygon","coordinates":[[[204, 539],[204, 567],[326, 567],[326, 539],[204, 539]]]},"properties":{"objectType":"annotation","name":"date","classification":{"name":"date","color":[0, 255, 0]}}},{"type":"Feature","id":"31338298-7cf2-4012-bf42-516fddf5a3b7","geometry":{"type":"Polygon","coordinates":[[[370, 800],[370, 832],[449, 832],[449, 800],[370, 800]]]},"properties":{"objectType":"annotation","name":"total","classification":{"name":"total","color":[255, 255, 0]}}}]}