{"type":"FeatureCollection","features":[{"type":"Feature","id":"2ee98a1e-994c-416c-97d6-09896ab45d62","geometry":{"type":"Polygon","coordinates":[[[287, 1578],[287, 1606],[384, 1606],[384, 1578],[287, 1578]]]},"properties":{"objectType":"annotation","name":"date","classification":{"name":"date","color":[0, 255, 0]}}},{"type":"Feature","id":"82f5286a-9156-4457-80b7-1e1f0d574615","geometry":{"type":"Polygon","coordinates":[[[417, 848],[417, 876],[480, 876],[480, 848],[417, 848]]]},"properties":{"objectType":"annotation","name":"total","classification":{"name":"total","color":[255, 255, 0]}}},{"type":"Feature","id":"21b09e3b-26eb-4090-8839-8d5cf7ed99ad","geometry":{"type":"Polygon","coordinates":[[[30, 315],[30, 411],[298, 411],[298, 315],[30, 315]]]},"properties":{"objectType":"annotation","name":"address","classification":{"name":"address","color":[0, 0, 255]}}},{"type":"Feature","id":"68bfc679-aae2-4044-9583-ef92cc2f3bfe","geometry":{"type":"Polygon","coordinates":[[[31, 282],[31, 312],[443, 312],[443, 282],[31, 282]]]},"properties":{"objectType":"annotation","name":"company","classification":{"name":"company","color":[255, 0, 0]}}}]}