{"type":"FeatureCollection","features":[{"type":"Feature","id":"371ca445-10ca-487e-a54d-64e249f703f0","geometry":{"type":"Polygon","coordinates":[[[444, 873],[444, 896],[492, 896],[492, 873],[444, 873]]]},"properties":{"objectType":"annotation","name":"total","classification":{"name":"total","color":[255, 255, 0]}}},{"type":"Feature","id":"be062029-3fb8-4b7c-a630-04c41c45df6a","geometry":{"type":"Polygon","coordinates":[[[171, 493],[171, 521],[289, 521],[289, 493],[171, 493]]]},"properties":{"objectType":"annotation","name":"date","classification":{"name":"date","color":[0, 255, 0]}}},{"type":"Feature","id":"d229733f-c19b-41d5-9446-b256cb48d1b2","geometry":{"type":"Polygon","coordinates":[[[61, 233],[61, 314],[534, 314],[534, 233],[61, 233]]]},"properties":{"objectType":"annotation","name":"address","classification":{"name":"address","color":[0, 0, 255]}}},{"type":"Feature","id":"d8263917-6c9d-4ab2-aad6-d9a845072a88","geometry":{"type":"Polygon","coordinates":[[[155, 205],[155, 228],[439, 228],[439, 205],[155, 205]]]},"properties":{"objectType":"annotation","name":"company","classification":{"name":"company","color":[255, 0, 0]}}}]}