{"type":"FeatureCollection","features":[{"type":"Feature","id":"9eba9b2d-3610-4f82-8d12-3a4a79033ab4","geometry":{"type":"Polygon","coordinates":[[[33, 135],[33, 171],[529, 171],[529, 135],[33, 135]]]},"properties":{"objectType":"annotation","name":"company","classification":{"name":"company","color":[255, 0, 0]}}},{"type":"Feature","id":"77bc301a-7382-4ec6-83f0-5639a7a001d7","geometry":{"type":"Polygon","coordinates":[[[29, 187],[29, 232],[531, 232],[531, 187],[29, 187]]]},"properties":{"objectType":"annotation","name":"address","classification":{"name":"address","color":[0, 0, 255]}}},{"type":"Feature","id":"3eac1f47-2739-4553-8dac-ebb149caeb66","geometry":{"type":"Polygon","coordinates":[[[402, 974],[402, 1013],[541, 1013],[541, 974],[402, 974]]]},"properties":{"objectType":"annotation","name":"date","classification":{"name":"date","color":[0, 255, 0]}}},{"type":"Feature","id":"a85cf0b5-c9ac-4ca1-b328-86f89cdcfb79","geometry":{"type":"Polygon","coordinates":[[[450, 723],[450, 773],[539, 773],[539, 723],[450, 723]]]},"properties":{"objectType":"annotation","name":"total","classification":{"name":"total","color":[255, 255, 0]}}}]}