{"type":"FeatureCollection","features":[{"type":"Feature","id":"86d81858-ea97-4d64-b248-04c722cd3f5a","geometry":{"type":"Polygon","coordinates":[[[24, 1043],[24, 1071],[153, 1071],[153, 1043],[24, 1043]]]},"properties":{"objectType":"annotation","name":"date","classification":{"name":"date","color":[0, 255, 0]}}},{"type":"Feature","id":"e143149b-bab6-411d-b360-12b2de33f9ce","geometry":{"type":"Polygon","coordinates":[[[602, 805],[602, 832],[684, 832],[684, 805],[602, 805]]]},"properties":{"objectType":"annotation","name":"total","classification":{"name":"total","color":[255, 255, 0]}}},{"type":"Feature","id":"50479138-cc37-45ab-916b-69a322e71381","geometry":{"type":"Polygon","coordinates":[[[87, 335],[87, 433],[613, 433],[613, 335],[87, 335]]]},"properties":{"objectType":"annotation","name":"address","classification":{"name":"address","color":[0, 0, 255]}}},{"type":"Feature","id":"42ca490f-c6c9-4e05-8912-8aacfb10e326","geometry":{"type":"Polygon","coordinates":[[[120, 267],[120, 298],[567, 298],[567, 267],[120, 267]]]},"properties":{"objectType":"annotation","name":"company","classification":{"name":"company","color":[255, 0, 0]}}}]}