{"type":"FeatureCollection","features":[{"type":"Feature","id":"e983adef-4a4e-4024-a379-c600ebee8abd","geometry":{"type":"Polygon","coordinates":[[[146, 323],[146, 488],[547, 488],[547, 323],[146, 323]]]},"properties":{"objectType":"annotation","name":"address","classification":{"name":"address","color":[0, 0, 255]}}},{"type":"Feature","id":"cd27982d-9646-4eaa-af23-e525b4802a78","geometry":{"type":"Polygon","coordinates":[[[129, 284],[129, 324],[560, 324],[560, 284],[129, 284]]]},"properties":{"objectType":"annotation","name":"company","classification":{"name":"company","color":[255, 0, 0]}}},{"type":"Feature","id":"f9c27a36-663b-4e26-ba3c-7c09090a01f8","geometry":{"type":"Polygon","coordinates":[[[544, 828],[544, 864],[637, 864],[637, 828],[544, 828]]]},"properties":{"objectType":"annotation","name":"total","classification":{"name":"total","color":[255, 255, 0]}}},{"type":"Feature","id":"758f7056-7902-482e-918c-3389413d1527","geometry":{"type":"Polygon","coordinates":[[[532, 623],[532, 658],[663, 658],[663, 623],[532, 623]]]},"properties":{"objectType":"annotation","name":"date","classification":{"name":"date","color":[0, 255, 0]}}}]}