{"type":"FeatureCollection","features":[{"type":"Feature","id":"25280f45-150e-4812-a210-65f7f8ac7c11","geometry":{"type":"Polygon","coordinates":[[[61, 157],[61, 204],[635, 204],[635, 157],[61, 157]]]},"properties":{"objectType":"annotation","name":"company","classification":{"name":"company","color":[255, 0, 0]}}},{"type":"Feature","id":"10958ae6-c947-4f0c-9bc6-a097a2f66808","geometry":{"type":"Polygon","coordinates":[[[151, 235],[151, 357],[549, 357],[549, 235],[151, 235]]]},"properties":{"objectType":"annotation","name":"address","classification":{"name":"address","color":[0, 0, 255]}}},{"type":"Feature","id":"d669d0b0-e4ed-4ed1-9978-6ba65b811ccd","geometry":{"type":"Polygon","coordinates":[[[547, 982],[547, 1040],[664, 1040],[664, 982],[547, 982]]]},"properties":{"objectType":"annotation","name":"total","classification":{"name":"total","color":[255, 255, 0]}}},{"type":"Feature","id":"3d70b373-9872-45f4-8cd5-692deb61d638","geometry":{"type":"Polygon","coordinates":[[[433, 527],[433, 564],[580, 564],[580, 527],[433, 527]]]},"properties":{"objectType":"annotation","name":"date","classification":{"name":"date","color":[0, 255, 0]}}}]}