{"type":"FeatureCollection","features":[{"type":"Feature","id":"c1f9652c-d552-45a9-a8b2-ba9b2255cc63","geometry":{"type":"Polygon","coordinates":[[[189, 109],[189, 135],[424, 135],[424, 109],[189, 109]]]},"properties":{"objectType":"annotation","name":"company","classification":{"name":"company","color":[255, 0, 0]}}},{"type":"Feature","id":"4105bd4c-917b-4c10-bb48-85f24f28b70b","geometry":{"type":"Polygon","coordinates":[[[190, 220],[190, 297],[424, 297],[424, 220],[190, 220]]]},"properties":{"objectType":"annotation","name":"address","classification":{"name":"address","color":[0, 0, 255]}}},{"type":"Feature","id":"5f23a7c0-eadd-41a8-b74a-08537536c026","geometry":{"type":"Polygon","coordinates":[[[438, 804],[438, 830],[498, 830],[498, 804],[438, 804]]]},"properties":{"objectType":"annotation","name":"total","classification":{"name":"total","color":[255, 255, 0]}}},{"type":"Feature","id":"0e437905-8bb7-44cc-81d9-f0cc2aeada9d","geometry":{"type":"Polygon","coordinates":[[[413, 457],[413, 486],[509, 486],[509, 457],[413, 457]]]},"properties":{"objectType":"annotation","name":"date","classification":{"name":"date","color":[0, 255, 0]}}}]}