{"type":"FeatureCollection","features":[{"type":"Feature","id":"25e6b9e4-53c5-48d6-bc74-de0f0b508959","geometry":{"type":"Polygon","coordinates":[[[55, 249],[55, 286],[472, 286],[472, 249],[55, 249]]]},"properties":{"objectType":"annotation","name":"company","classification":{"name":"company","color":[255, 0, 0]}}},{"type":"Feature","id":"2270fe34-2e6b-4cb1-9b90-a8fe56e1e1d0","geometry":{"type":"Polygon","coordinates":[[[54, 290],[54, 367],[641, 367],[641, 290],[54, 290]]]},"properties":{"objectType":"annotation","name":"address","classification":{"name":"address","color":[0, 0, 255]}}},{"type":"Feature","id":"d9982447-0a87-4ee3-b299-fd10b7950a36","geometry":{"type":"Polygon","coordinates":[[[566, 1464],[566, 1491],[656, 1491],[656, 1464],[566, 1464]]]},"properties":{"objectType":"annotation","name":"total","classification":{"name":"total","color":[255, 255, 0]}}},{"type":"Feature","id":"edbe95a8-1316-47fc-8731-a86eb5e094f4","geometry":{"type":"Polygon","coordinates":[[[221, 1865],[221, 1892],[340, 1892],[340, 1865],[221, 1865]]]},"properties":{"objectType":"annotation","name":"date","classification":{"name":"date","color":[0, 255, 0]}}}]}