{"type":"FeatureCollection","features":[{"type":"Feature","id":"87f5590b-7e9d-4c69-ba3e-37db90526223","geometry":{"type":"Polygon","coordinates":[[[139, 61],[139, 99],[472, 99],[472, 61],[139, 61]]]},"properties":{"objectType":"annotation","name":"company","classification":{"name":"company","color":[255, 0, 0]}}},{"type":"Feature","id":"4bb6b881-2674-4001-a905-efa76d421df0","geometry":{"type":"Polygon","coordinates":[[[533, 743],[533, 768],[608, 768],[608, 743],[533, 743]]]},"properties":{"objectType":"annotation","name":"total","classification":{"name":"total","color":[255, 255, 0]}}},{"type":"Feature","id":"c927d598-b490-4d1a-bc7b-5b02d74c3060","geometry":{"type":"Polygon","coordinates":[[[357, 367],[357, 395],[503, 395],[503, 367],[357, 367]]]},"properties":{"objectType":"annotation","name":"date","classification":{"name":"date","color":[0, 255, 0]}}},{"type":"Feature","id":"149bb726-5348-4b76-b5f4-29d3a87a20da","geometry":{"type":"Polygon","coordinates":[[[61, 122],[61, 236],[559, 236],[559, 122],[61, 122]]]},"properties":{"objectType":"annotation","name":"address","classification":{"name":"address","color":[0, 0, 255]}}}]}