{"type":"FeatureCollection","features":[{"type":"Feature","id":"8028bb21-1c38-42bb-a7c6-609a3e430f25","geometry":{"type":"Polygon","coordinates":[[[701, 1623],[701, 1657],[810, 1657],[810, 1623],[701, 1623]]]},"properties":{"objectType":"annotation","name":"total","classification":{"name":"total","color":[255, 255, 0]}}},{"type":"Feature","id":"9b7fb603-6e0d-4418-b391-d833d75b2c82","geometry":{"type":"Polygon","coordinates":[[[40, 680],[40, 718],[213, 718],[213, 680],[40, 680]]]},"properties":{"objectType":"annotation","name":"date","classification":{"name":"date","color":[0, 255, 0]}}},{"type":"Feature","id":"1c2ab354-3f06-4dde-a405-3a97d774bb0b","geometry":{"type":"Polygon","coordinates":[[[123, 119],[123, 270],[782, 270],[782, 119],[123, 119]]]},"properties":{"objectType":"annotation","name":"company","classification":{"name":"company","color":[255, 0, 0]}}},{"type":"Feature","id":"1c64c99d-9346-4b7e-92f8-05e225fe4317","geometry":{"type":"Polygon","coordinates":[[[60, 384],[60, 471],[806, 471],[806, 384],[60, 384]]]},"properties":{"objectType":"annotation","name":"address","classification":{"name":"address","color":[0, 0, 255]}}}]}