{"type":"FeatureCollection","features":[{"type":"Feature","id":"def90100-f3ba-4480-b8d6-dd186ab37e46","geometry":{"type":"Polygon","coordinates":[[[85, 221],[85, 261],[684, 261],[684, 221],[85, 221]]]},"properties":{"objectType":"annotation","name":"company","classification":{"name":"company","color":[255, 0, 0]}}},{"type":"Feature","id":"d9a47c3a-0da8-4f0c-a579-79863370d54d","geometry":{"type":"Polygon","coordinates":[[[575, 1038],[575, 1064],[648, 1064],[648, 1038],[575, 1038]]]},"properties":{"objectType":"annotation","name":"total","classification":{"name":"total","color":[255, 255, 0]}}},{"type":"Feature","id":"08fa8a59-045c-4888-b820-73878c17c1a2","geometry":{"type":"Polygon","coordinates":[[[542, 608],[542, 633],[683, 633],[683, 608],[542, 608]]]},"properties":{"objectType":"annotation","name":"date","classification":{"name":"date","color":[0, 255, 0]}}},{"type":"Feature","id":"d898869f-0b0d-4f3e-aebd-5eb8c592695a","geometry":{"type":"Polygon","coordinates":[[[206, 307],[206, 411],[556, 411],[556, 307],[206, 307]]]},"properties":{"objectType":"annotation","name":"address","classification":{"name":"address","color":[0, 0, 255]}}}]}