{"type":"FeatureCollection","features":[{"type":"Feature","id":"4984a691-5ee3-4a06-898b-70395714d88f","geometry":{"type":"Polygon","coordinates":[[[31, 61],[31, 88],[598, 88],[598, 61],[31, 61]]]},"properties":{"objectType":"annotation","name":"company","classification":{"name":"company","color":[255, 0, 0]}}},{"type":"Feature","id":"a84d1b46-0ad1-4c91-bcbc-71c90f358cbf","geometry":{"type":"Polygon","coordinates":[[[149, 93],[149, 140],[459, 140],[459, 93],[149, 93]]]},"properties":{"objectType":"annotation","name":"address","classification":{"name":"address","color":[0, 0, 255]}}},{"type":"Feature","id":"271d3d79-63f1-4af3-8185-a0200fef33ce","geometry":{"type":"Polygon","coordinates":[[[430, 895],[430, 950],[524, 950],[524, 895],[430, 895]]]},"properties":{"objectType":"annotation","name":"total","classification":{"name":"total","color":[255, 255, 0]}}},{"type":"Feature","id":"f1afb804-74d1-4eb1-aa7a-5f51297a41ff","geometry":{"type":"Polygon","coordinates":[[[290, 448],[290, 490],[417, 490],[417, 448],[290, 448]]]},"properties":{"objectType":"annotation","name":"date","classification":{"name":"date","color":[0, 255, 0]}}}]}