{"type":"FeatureCollection","features":[{"type":"Feature","id":"46abefc1-f2ab-4750-91f3-935bef810e5a","geometry":{"type":"Polygon","coordinates":[[[661, 997],[661, 1031],[766, 1031],[766, 997],[661, 997]]]},"properties":{"objectType":"annotation","name":"total","classification":{"name":"total","color":[255, 255, 0]}}},{"type":"Feature","id":"7249500c-ca63-4599-bc5a-84388955a74f","geometry":{"type":"Polygon","coordinates":[[[659, 795],[659, 829],[801, 829],[801, 795],[659, 795]]]},"properties":{"objectType":"annotation","name":"date","classification":{"name":"date","color":[0, 255, 0]}}},{"type":"Feature","id":"22587187-cee2-4fbe-9265-d34f6af49948","geometry":{"type":"Polygon","coordinates":[[[189, 390],[189, 579],[662, 579],[662, 390],[189, 390]]]},"properties":{"objectType":"annotation","name":"address","classification":{"name":"address","color":[0, 0, 255]}}},{"type":"Feature","id":"e0251265-394c-477a-a91f-3bbc9b134bbf","geometry":{"type":"Polygon","coordinates":[[[169, 344],[169, 387],[469, 387],[469, 344],[169, 344]]]},"properties":{"objectType":"annotation","name":"company","classification":{"name":"company","color":[255, 0, 0]}}}]}