{"type":"FeatureCollection","features":[{"type":"Feature","id":"185caf9e-ffe5-499f-b539-c60dd44ffb06","geometry":{"type":"Polygon","coordinates":[[[17, 250],[17, 291],[433, 291],[433, 250],[17, 250]]]},"properties":{"objectType":"annotation","name":"company","classification":{"name":"company","color":[255, 0, 0]}}},{"type":"Feature","id":"99e4065a-34d2-4c02-8f7b-ac289e2842b3","geometry":{"type":"Polygon","coordinates":[[[5, 294],[5, 393],[393, 393],[393, 294],[5, 294]]]},"properties":{"objectType":"annotation","name":"address","classification":{"name":"address","color":[0, 0, 255]}}},{"type":"Feature","id":"30a1fee4-4827-4f40-b0eb-b6bcda46640f","geometry":{"type":"Polygon","coordinates":[[[401, 823],[401, 862],[467, 862],[467, 823],[401, 823]]]},"properties":{"objectType":"annotation","name":"total","classification":{"name":"total","color":[255, 255, 0]}}},{"type":"Feature","id":"98b7a06a-5b18-4c87-80bc-3cf5bc00ed3b","geometry":{"type":"Polygon","coordinates":[[[245, 1427],[245, 1472],[381, 1472],[381, 1427],[245, 1427]]]},"properties":{"objectType":"annotation","name":"date","classification":{"name":"date","color":[0, 255, 0]}}}]}