{"type":"FeatureCollection","features":[{"type":"Feature","id":"7f3813b2-1a10-485f-b9b7-702b619e788d","geometry":{"type":"Polygon","coordinates":[[[49, 501],[49, 615],[601, 615],[601, 501],[49, 501]]]},"properties":{"objectType":"annotation","name":"address","classification":{"name":"address","color":[0, 0, 255]}}},{"type":"Feature","id":"766d8410-2894-48b6-944c-84d1b8ca2c75","geometry":{"type":"Polygon","coordinates":[[[42, 265],[42, 427],[783, 427],[783, 265],[42, 265]]]},"properties":{"objectType":"annotation","name":"company","classification":{"name":"company","color":[255, 0, 0]}}},{"type":"Feature","id":"2a962f72-8178-466e-acf5-98583b6e772a","geometry":{"type":"Polygon","coordinates":[[[595, 1440],[595, 1491],[841, 1491],[841, 1440],[595, 1440]]]},"properties":{"objectType":"annotation","name":"total","classification":{"name":"total","color":[255, 255, 0]}}},{"type":"Feature","id":"a2af6283-8345-4fe6-a425-f7df965df837","geometry":{"type":"Polygon","coordinates":[[[585, 843],[585, 884],[812, 884],[812, 843],[585, 843]]]},"properties":{"objectType":"annotation","name":"date","classification":{"name":"date","color":[0, 255, 0]}}}]}