{"type":"FeatureCollection","features":[{"type":"Feature","id":"02b40539-7d5c-47ae-bc48-267d2b928dc2","geometry":{"type":"Polygon","coordinates":[[[1532, 1680],[1532, 1855],[2684, 1855],[2684, 1680],[1532, 1680]]]},"properties":{"objectType":"annotation","name":"address","classification":{"name":"address","color":[0, 0, 255]}}},{"type":"Feature","id":"8b1bac7e-d79e-4825-aa51-f50d168e83ee","geometry":{"type":"Polygon","coordinates":[[[1423, 1426],[1423, 1556],[2895, 1556],[2895, 1426],[1423, 1426]]]},"properties":{"objectType":"annotation","name":"company","classification":{"name":"company","color":[255, 0, 0]}}},{"type":"Feature","id":"90d463ba-e235-44cf-b099-85942b87a2af","geometry":{"type":"Polygon","coordinates":[[[2659, 2943],[2659, 3075],[2914, 3075],[2914, 2943],[2659, 2943]]]},"properties":{"objectType":"annotation","name":"total","classification":{"name":"total","color":[255, 255, 0]}}},{"type":"Feature","id":"330823dc-e43c-4a3c-9c02-43bd0fcf2e2c","geometry":{"type":"Polygon","coordinates":[[[1525, 2537],[1525, 2688],[1914, 2688],[1914, 2537],[1525, 2537]]]},"properties":{"objectType":"annotation","name":"date","classification":{"name":"date","color":[0, 255, 0]}}}]}