{"type":"FeatureCollection","features":[{"type":"Feature","id":"db19610a-f1cd-4ce8-bf0e-b8a2dfada0b6","geometry":{"type":"Polygon","coordinates":[[[38, 1166],[38, 1191],[148, 1191],[148, 1166],[38, 1166]]]},"properties":{"objectType":"annotation","name":"date","classification":{"name":"date","color":[0, 255, 0]}}},{"type":"Feature","id":"0ad292dd-6c6d-48a6-b29a-d3fb6a96843e","geometry":{"type":"Polygon","coordinates":[[[473, 794],[473, 818],[543, 818],[543, 794],[473, 794]]]},"properties":{"objectType":"annotation","name":"total","classification":{"name":"total","color":[255, 255, 0]}}},{"type":"Feature","id":"7ac02111-c0a4-4c3a-a91c-348f578eab2e","geometry":{"type":"Polygon","coordinates":[[[20, 301],[20, 451],[512, 451],[512, 301],[20, 301]]]},"properties":{"objectType":"annotation","name":"address","classification":{"name":"address","color":[0, 0, 255]}}},{"type":"Feature","id":"6e6c7f0c-67d7-417e-885f-e42ea45c2fdc","geometry":{"type":"Polygon","coordinates":[[[21, 263],[21, 300],[403, 300],[403, 263],[21, 263]]]},"properties":{"objectType":"annotation","name":"company","classification":{"name":"company","color":[255, 0, 0]}}}]}