{"type":"FeatureCollection","features":[{"type":"Feature","id":"bd9b06bd-bccd-47c8-8c7c-b89f373802ca","geometry":{"type":"Polygon","coordinates":[[[178, 341],[178, 378],[671, 378],[671, 341],[178, 341]]]},"properties":{"objectType":"annotation","name":"company","classification":{"name":"company","color":[255, 0, 0]}}},{"type":"Feature","id":"2c04a85a-726c-4c17-9104-1f8b0fbefe14","geometry":{"type":"Polygon","coordinates":[[[200, 389],[200, 575],[674, 575],[674, 389],[200, 389]]]},"properties":{"objectType":"annotation","name":"address","classification":{"name":"address","color":[0, 0, 255]}}},{"type":"Feature","id":"59bc13e2-ed7e-4c9c-ac37-8a7492cb3e92","geometry":{"type":"Polygon","coordinates":[[[700, 987],[700, 1022],[771, 1022],[771, 987],[700, 987]]]},"properties":{"objectType":"annotation","name":"total","classification":{"name":"total","color":[255, 255, 0]}}},{"type":"Feature","id":"701d5402-239a-4de1-ae85-5b0549b2b18c","geometry":{"type":"Polygon","coordinates":[[[665, 788],[665, 822],[805, 822],[805, 788],[665, 788]]]},"properties":{"objectType":"annotation","name":"date","classification":{"name":"date","color":[0, 255, 0]}}}]}