{"type":"FeatureCollection","features":[{"type":"Feature","id":"1bcfcaf2-7059-4a3f-a74f-1ba3e6e418ca","geometry":{"type":"Polygon","coordinates":[[[425, 630],[425, 654],[501, 654],[501, 630],[425, 630]]]},"properties":{"objectType":"annotation","name":"total","classification":{"name":"total","color":[255, 255, 0]}}},{"type":"Feature","id":"1bef256b-f538-411b-9839-38d622579315","geometry":{"type":"Polygon","coordinates":[[[51, 429],[51, 453],[176, 453],[176, 429],[51, 429]]]},"properties":{"objectType":"annotation","name":"date","classification":{"name":"date","color":[0, 255, 0]}}},{"type":"Feature","id":"db3cd8b8-5020-49c0-9ba4-10ea305fb08d","geometry":{"type":"Polygon","coordinates":[[[87, 230],[87, 328],[535, 328],[535, 230],[87, 230]]]},"properties":{"objectType":"annotation","name":"address","classification":{"name":"address","color":[0, 0, 255]}}},{"type":"Feature","id":"9b259c4b-5d91-46b0-a6d2-d88f4ca6eb52","geometry":{"type":"Polygon","coordinates":[[[111, 181],[111, 204],[500, 204],[500, 181],[111, 181]]]},"properties":{"objectType":"annotation","name":"company","classification":{"name":"company","color":[255, 0, 0]}}}]}