{"type":"FeatureCollection","features":[{"type":"Feature","id":"bb2f6fab-8eb2-49f3-9dd1-315cf96a0276","geometry":{"type":"Polygon","coordinates":[[[581, 1316],[581, 1344],[666, 1344],[666, 1316],[581, 1316]]]},"properties":{"objectType":"annotation","name":"total","classification":{"name":"total","color":[255, 255, 0]}}},{"type":"Feature","id":"206c0f07-967e-41a0-bb6d-2ad406852d69","geometry":{"type":"Polygon","coordinates":[[[368, 649],[368, 677],[510, 677],[510, 649],[368, 649]]]},"properties":{"objectType":"annotation","name":"date","classification":{"name":"date","color":[0, 255, 0]}}},{"type":"Feature","id":"844195e5-a1c1-4264-ab32-879f1bdc3c20","geometry":{"type":"Polygon","coordinates":[[[169, 314],[169, 418],[616, 418],[616, 314],[169, 314]]]},"properties":{"objectType":"annotation","name":"address","classification":{"name":"address","color":[0, 0, 255]}}},{"type":"Feature","id":"99bb2a35-c7ca-41f9-a737-8889d1f8c3fb","geometry":{"type":"Polygon","coordinates":[[[268, 241],[268, 269],[523, 269],[523, 241],[268, 241]]]},"properties":{"objectType":"annotation","name":"company","classification":{"name":"company","color":[255, 0, 0]}}}]}