{"type":"FeatureCollection","features":[{"type":"Feature","id":"fd283f3c-6a31-40a1-b6a3-a54cd18eb7da","geometry":{"type":"Polygon","coordinates":[[[97, 175],[97, 274],[639, 274],[639, 175],[97, 175]]]},"properties":{"objectType":"annotation","name":"address","classification":{"name":"address","color":[0, 0, 255]}}},{"type":"Feature","id":"476265e8-c3af-4ea0-a909-5564d7509acf","geometry":{"type":"Polygon","coordinates":[[[179, 110],[179, 144],[572, 144],[572, 110],[179, 110]]]},"properties":{"objectType":"annotation","name":"company","classification":{"name":"company","color":[255, 0, 0]}}},{"type":"Feature","id":"4dce9025-e83a-4fb0-b76c-024584f6926b","geometry":{"type":"Polygon","coordinates":[[[41, 871],[41, 901],[190, 901],[190, 871],[41, 871]]]},"properties":{"objectType":"annotation","name":"date","classification":{"name":"date","color":[0, 255, 0]}}},{"type":"Feature","id":"529f2d66-5b68-42df-8a15-c1d0a201ddd4","geometry":{"type":"Polygon","coordinates":[[[634, 608],[634, 636],[715, 636],[715, 608],[634, 608]]]},"properties":{"objectType":"annotation","name":"total","classification":{"name":"total","color":[255, 255, 0]}}}]}