{"type":"FeatureCollection","features":[{"type":"Feature","id":"f21cad8b-872b-4b97-9e00-1006e7944950","geometry":{"type":"Polygon","coordinates":[[[496, 1068],[496, 1102],[622, 1102],[622, 1068],[496, 1068]]]},"properties":{"objectType":"annotation","name":"total","classification":{"name":"total","color":[255, 255, 0]}}},{"type":"Feature","id":"8d0b0039-0e38-4e26-b173-a9618704bc06","geometry":{"type":"Polygon","coordinates":[[[362, 523],[362, 555],[507, 555],[507, 523],[362, 523]]]},"properties":{"objectType":"annotation","name":"date","classification":{"name":"date","color":[0, 255, 0]}}},{"type":"Feature","id":"044fc4e5-2598-4c93-90b3-8955bb1aa76d","geometry":{"type":"Polygon","coordinates":[[[131, 272],[131, 385],[529, 385],[529, 272],[131, 272]]]},"properties":{"objectType":"annotation","name":"address","classification":{"name":"address","color":[0, 0, 255]}}},{"type":"Feature","id":"e3b14b3a-c757-4af9-bdb6-0d4349429e87","geometry":{"type":"Polygon","coordinates":[[[139, 231],[139, 271],[516, 271],[516, 231],[139, 231]]]},"properties":{"objectType":"annotation","name":"company","classification":{"name":"company","color":[255, 0, 0]}}}]}