{"type":"FeatureCollection","features":[{"type":"Feature","id":"1ebb6152-a776-4a36-9951-9e7f9019aee8","geometry":{"type":"Polygon","coordinates":[[[20, 73],[20, 99],[598, 99],[598, 73],[20, 73]]]},"properties":{"objectType":"annotation","name":"company","classification":{"name":"company","color":[255, 0, 0]}}},{"type":"Feature","id":"c6b9f0c2-db0b-4f72-8d81-418db558e705","geometry":{"type":"Polygon","coordinates":[[[148, 102],[148, 142],[456, 142],[456, 102],[148, 102]]]},"properties":{"objectType":"annotation","name":"address","classification":{"name":"address","color":[0, 0, 255]}}},{"type":"Feature","id":"223f78ad-0950-4e85-a623-16f74d7595c2","geometry":{"type":"Polygon","coordinates":[[[429, 885],[429, 929],[526, 929],[526, 885],[429, 885]]]},"properties":{"objectType":"annotation","name":"total","classification":{"name":"total","color":[255, 255, 0]}}},{"type":"Feature","id":"5d6fcca0-077e-4405-9df0-33bdd45db5c8","geometry":{"type":"Polygon","coordinates":[[[295, 461],[295, 498],[421, 498],[421, 461],[295, 461]]]},"properties":{"objectType":"annotation","name":"date","classification":{"name":"date","color":[0, 255, 0]}}}]}