{"type":"FeatureCollection","features":[{"type":"Feature","id":"ccc862ed-cb0d-422c-bc0f-fd3d8e70767d","geometry":{"type":"Polygon","coordinates":[[[652, 1444],[652, 1481],[743, 1481],[743, 1444],[652, 1444]]]},"properties":{"objectType":"annotation","name":"total","classification":{"name":"total","color":[255, 255, 0]}}},{"type":"Feature","id":"03d8731e-3f95-4547-9ce0-222d9d50d064","geometry":{"type":"Polygon","coordinates":[[[370, 959],[370, 1001],[549, 1001],[549, 959],[370, 959]]]},"properties":{"objectType":"annotation","name":"date","classification":{"name":"date","color":[0, 255, 0]}}},{"type":"Feature","id":"bca720aa-f597-4258-9a07-80c69ec782a8","geometry":{"type":"Polygon","coordinates":[[[52, 472],[52, 601],[743, 601],[743, 472],[52, 472]]]},"properties":{"objectType":"annotation","name":"address","classification":{"name":"address","color":[0, 0, 255]}}},{"type":"Feature","id":"d6ca839f-1fb0-442c-8b64-f966cb58d168","geometry":{"type":"Polygon","coordinates":[[[103, 339],[103, 380],[673, 380],[673, 339],[103, 339]]]},"properties":{"objectType":"annotation","name":"company","classification":{"name":"company","color":[255, 0, 0]}}}]}