{"type":"FeatureCollection","features":[{"type":"Feature","id":"394bd8b5-f93e-4fe1-b173-b273f051a5e9","geometry":{"type":"Polygon","coordinates":[[[1512, 547],[1512, 840],[2537, 840],[2537, 547],[1512, 547]]]},"properties":{"objectType":"annotation","name":"address","classification":{"name":"address","color":[0, 0, 255]}}},{"type":"Feature","id":"f9df9a1c-05e6-4406-b1e5-c4bcb95449ce","geometry":{"type":"Polygon","coordinates":[[[2423, 3226],[2423, 3311],[2641, 3311],[2641, 3226],[2423, 3226]]]},"properties":{"objectType":"annotation","name":"total","classification":{"name":"total","color":[255, 255, 0]}}},{"type":"Feature","id":"004e9689-2989-4590-8224-c6c35f0f1407","geometry":{"type":"Polygon","coordinates":[[[1452, 454],[1452, 537],[2584, 537],[2584, 454],[1452, 454]]]},"properties":{"objectType":"annotation","name":"company","classification":{"name":"company","color":[255, 0, 0]}}},{"type":"Feature","id":"340e0ec4-9ae2-4117-bfff-ae4a8061be16","geometry":{"type":"Polygon","coordinates":[[[1236, 3940],[1236, 4023],[1622, 4023],[1622, 3940],[1236, 3940]]]},"properties":{"objectType":"annotation","name":"date","classification":{"name":"date","color":[0, 255, 0]}}}]}