{"type":"FeatureCollection","features":[{"type":"Feature","id":"3a5cf689-414d-4bf9-93d0-a523f74f4846","geometry":{"type":"Polygon","coordinates":[[[494, 1489],[494, 1542],[636, 1542],[636, 1489],[494, 1489]]]},"properties":{"objectType":"annotation","name":"total","classification":{"name":"total","color":[255, 255, 0]}}},{"type":"Feature","id":"b0f1c4b5-c7f2-4fb9-97d4-a7262d712f6a","geometry":{"type":"Polygon","coordinates":[[[214, 772],[214, 804],[355, 804],[355, 772],[214, 772]]]},"properties":{"objectType":"annotation","name":"date","classification":{"name":"date","color":[0, 255, 0]}}},{"type":"Feature","id":"6a524568-af1e-4d41-8418-d7f2c4009182","geometry":{"type":"Polygon","coordinates":[[[221, 386],[221, 492],[533, 492],[533, 386],[221, 386]]]},"properties":{"objectType":"annotation","name":"address","classification":{"name":"address","color":[0, 0, 255]}}},{"type":"Feature","id":"a56d5c85-b0fd-46d1-8210-1e5068ba9117","geometry":{"type":"Polygon","coordinates":[[[264, 350],[264, 381],[506, 381],[506, 350],[264, 350]]]},"properties":{"objectType":"annotation","name":"company","classification":{"name":"company","color":[255, 0, 0]}}}]}