{"type":"FeatureCollection","features":[{"type":"Feature","id":"7e7d1160-6ed7-4b35-9fd1-d58b2bcb485b","geometry":{"type":"Polygon","coordinates":[[[492, 591],[492, 612],[552, 612],[552, 591],[492, 591]]]},"properties":{"objectType":"annotation","name":"total","classification":{"name":"total","color":[255, 255, 0]}}},{"type":"Feature","id":"6d693451-ff4e-4819-bace-9606bb88e94d","geometry":{"type":"Polygon","coordinates":[[[261, 441],[261, 467],[382, 467],[382, 441],[261, 441]]]},"properties":{"objectType":"annotation","name":"date","classification":{"name":"date","color":[0, 255, 0]}}},{"type":"Feature","id":"4c6ff211-5c77-4eb2-86c0-b846c75f5c5d","geometry":{"type":"Polygon","coordinates":[[[57, 299],[57, 358],[414, 358],[414, 299],[57, 299]]]},"properties":{"objectType":"annotation","name":"address","classification":{"name":"address","color":[0, 0, 255]}}},{"type":"Feature","id":"042c7b0f-1f8e-4204-bae6-0975e3c6e1d0","geometry":{"type":"Polygon","coordinates":[[[59, 257],[59, 281],[433, 281],[433, 257],[59, 257]]]},"properties":{"objectType":"annotation","name":"company","classification":{"name":"company","color":[255, 0, 0]}}}]}