{"type":"FeatureCollection","features":[{"type":"Feature","id":"fbcab5dd-8ab2-431f-9a4b-15d8edb9d07a","geometry":{"type":"Polygon","coordinates":[[[19, 68],[19, 93],[572, 93],[572, 68],[19, 68]]]},"properties":{"objectType":"annotation","name":"company","classification":{"name":"company","color":[255, 0, 0]}}},{"type":"Feature","id":"0246ec34-6e58-4684-b7a4-2a82f5dfabed","geometry":{"type":"Polygon","coordinates":[[[141, 97],[141, 143],[450, 143],[450, 97],[141, 97]]]},"properties":{"objectType":"annotation","name":"address","classification":{"name":"address","color":[0, 0, 255]}}},{"type":"Feature","id":"59c0019b-dca2-4d2e-b253-3e8d2fe9d597","geometry":{"type":"Polygon","coordinates":[[[418, 880],[418, 931],[514, 931],[514, 880],[418, 880]]]},"properties":{"objectType":"annotation","name":"total","classification":{"name":"total","color":[255, 255, 0]}}},{"type":"Feature","id":"eff3b10c-6f65-4e98-bf18-6e49ca5bef88","geometry":{"type":"Polygon","coordinates":[[[278, 455],[278, 488],[413, 488],[413, 455],[278, 455]]]},"properties":{"objectType":"annotation","name":"date","classification":{"name":"date","color":[0, 255, 0]}}}]}