{"type":"FeatureCollection","features":[{"type":"Feature","id":"3c018887-be8d-4870-bbc8-773a853cdac1","geometry":{"type":"Polygon","coordinates":[[[66, 192],[66, 279],[522, 279],[522, 192],[66, 192]]]},"properties":{"objectType":"annotation","name":"company","classification":{"name":"company","color":[255, 0, 0]}}},{"type":"Feature","id":"6d1b4dbd-7a14-41a5-ae22-13738c8ea10d","geometry":{"type":"Polygon","coordinates":[[[99, 296],[99, 370],[503, 370],[503, 296],[99, 296]]]},"properties":{"objectType":"annotation","name":"address","classification":{"name":"address","color":[0, 0, 255]}}},{"type":"Feature","id":"c9aab58b-adc0-40be-9eef-fc1e367969a5","geometry":{"type":"Polygon","coordinates":[[[401, 936],[401, 966],[553, 966],[553, 936],[401, 936]]]},"properties":{"objectType":"annotation","name":"total","classification":{"name":"total","color":[255, 255, 0]}}},{"type":"Feature","id":"18c0934a-c4dd-4eac-9684-f662eea708c7","geometry":{"type":"Polygon","coordinates":[[[383, 586],[383, 622],[539, 622],[539, 586],[383, 586]]]},"properties":{"objectType":"annotation","name":"date","classification":{"name":"date","color":[0, 255, 0]}}}]}