{"type":"FeatureCollection","features":[{"type":"Feature","id":"a521e75f-322c-47f8-b968-a3ed7923995c","geometry":{"type":"Polygon","coordinates":[[[184, 164],[184, 206],[658, 206],[658, 164],[184, 164]]]},"properties":{"objectType":"annotation","name":"company","classification":{"name":"company","color":[255, 0, 0]}}},{"type":"Feature","id":"fcf07095-4649-4f80-958e-ae805679b4dd","geometry":{"type":"Polygon","coordinates":[[[32, 211],[32, 352],[812, 352],[812, 211],[32, 211]]]},"properties":{"objectType":"annotation","name":"address","classification":{"name":"address","color":[0, 0, 255]}}},{"type":"Feature","id":"0eae22b6-3c02-45d8-9081-7bc6a1378da8","geometry":{"type":"Polygon","coordinates":[[[615, 925],[615, 995],[825, 995],[825, 925],[615, 925]]]},"properties":{"objectType":"annotation","name":"total","classification":{"name":"total","color":[255, 255, 0]}}},{"type":"Feature","id":"ac10122f-4c58-4f29-b0ef-52a5bdeec7c6","geometry":{"type":"Polygon","coordinates":[[[153, 616],[153, 664],[366, 664],[366, 616],[153, 616]]]},"properties":{"objectType":"annotation","name":"date","classification":{"name":"date","color":[0, 255, 0]}}}]}