{"type":"FeatureCollection","features":[{"type":"Feature","id":"7400e536-9028-417f-9e7c-c8459a7cb9e0","geometry":{"type":"Polygon","coordinates":[[[662, 798],[662, 837],[809, 837],[809, 798],[662, 798]]]},"properties":{"objectType":"annotation","name":"date","classification":{"name":"date","color":[0, 255, 0]}}},{"type":"Feature","id":"28bdfb8e-ad89-4e08-90be-acf26c89d3b3","geometry":{"type":"Polygon","coordinates":[[[214, 395],[214, 586],[646, 586],[646, 395],[214, 395]]]},"properties":{"objectType":"annotation","name":"address","classification":{"name":"address","color":[0, 0, 255]}}},{"type":"Feature","id":"5f93da6d-53db-4c5e-a0be-d17d3a84defc","geometry":{"type":"Polygon","coordinates":[[[155, 348],[155, 392],[694, 392],[694, 348],[155, 348]]]},"properties":{"objectType":"annotation","name":"company","classification":{"name":"company","color":[255, 0, 0]}}},{"type":"Feature","id":"5ac174d7-d3f9-46f3-83e2-12139b7399c1","geometry":{"type":"Polygon","coordinates":[[[667, 1046],[667, 1089],[782, 1089],[782, 1046],[667, 1046]]]},"properties":{"objectType":"annotation","name":"total","classification":{"name":"total","color":[255, 255, 0]}}}]}