{"type":"FeatureCollection","features":[{"type":"Feature","id":"7c65740c-3866-447e-89b3-dccb7c376082","geometry":{"type":"Polygon","coordinates":[[[469, 650],[469, 670],[529, 670],[529, 650],[469, 650]]]},"properties":{"objectType":"annotation","name":"total","classification":{"name":"total","color":[255, 255, 0]}}},{"type":"Feature","id":"ce9b734d-16c2-453b-ba2f-cd0f6cb81de4","geometry":{"type":"Polygon","coordinates":[[[31, 133],[31, 167],[533, 167],[533, 133],[31, 133]]]},"properties":{"objectType":"annotation","name":"company","classification":{"name":"company","color":[255, 0, 0]}}},{"type":"Feature","id":"731b55c3-a8ea-41f3-8401-0961bd3d3e53","geometry":{"type":"Polygon","coordinates":[[[33, 183],[33, 229],[524, 229],[524, 183],[33, 183]]]},"properties":{"objectType":"annotation","name":"address","classification":{"name":"address","color":[0, 0, 255]}}},{"type":"Feature","id":"25d6f390-b683-4e31-970a-7e5758382df6","geometry":{"type":"Polygon","coordinates":[[[388, 1034],[388, 1064],[531, 1064],[531, 1034],[388, 1034]]]},"properties":{"objectType":"annotation","name":"date","classification":{"name":"date","color":[0, 255, 0]}}}]}