{"type":"FeatureCollection","features":[{"type":"Feature","id":"17354f47-8401-4e74-b8ea-f97b88dee82d","geometry":{"type":"Polygon","coordinates":[[[224, 125],[224, 158],[492, 158],[492, 125],[224, 125]]]},"properties":{"objectType":"annotation","name":"company","classification":{"name":"company","color":[255, 0, 0]}}},{"type":"Feature","id":"df147f12-ae86-4cc9-9dda-ff727682519b","geometry":{"type":"Polygon","coordinates":[[[106, 206],[106, 371],[596, 371],[596, 206],[106, 206]]]},"properties":{"objectType":"annotation","name":"address","classification":{"name":"address","color":[0, 0, 255]}}},{"type":"Feature","id":"bf127e09-3b84-480b-a64f-e59b4a4e183f","geometry":{"type":"Polygon","coordinates":[[[33, 699],[33, 742],[226, 742],[226, 699],[33, 699]]]},"properties":{"objectType":"annotation","name":"date","classification":{"name":"date","color":[0, 255, 0]}}},{"type":"Feature","id":"517ad731-8dfc-4d69-b929-b58a0b783f60","geometry":{"type":"Polygon","coordinates":[[[576, 1217],[576, 1258],[689, 1258],[689, 1217],[576, 1217]]]},"properties":{"objectType":"annotation","name":"total","classification":{"name":"total","color":[255, 255, 0]}}}]}