{"type":"FeatureCollection","features":[{"type":"Feature","id":"acf41473-69a4-4b57-a870-e58cc3eac0da","geometry":{"type":"Polygon","coordinates":[[[562, 718],[562, 742],[630, 742],[630, 718],[562, 718]]]},"properties":{"objectType":"annotation","name":"total","classification":{"name":"total","color":[255, 255, 0]}}},{"type":"Feature","id":"8a9f415c-28b5-4053-864d-d6e8f7d17b4e","geometry":{"type":"Polygon","coordinates":[[[395, 372],[395, 397],[531, 397],[531, 372],[395, 372]]]},"properties":{"objectType":"annotation","name":"date","classification":{"name":"date","color":[0, 255, 0]}}},{"type":"Feature","id":"d722b54a-d47c-4c05-b13c-34fd96eb92b9","geometry":{"type":"Polygon","coordinates":[[[99, 131],[99, 239],[581, 239],[581, 131],[99, 131]]]},"properties":{"objectType":"annotation","name":"address","classification":{"name":"address","color":[0, 0, 255]}}},{"type":"Feature","id":"42636b36-a139-41b2-b57a-9452e14bb11c","geometry":{"type":"Polygon","coordinates":[[[179, 67],[179, 99],[501, 99],[501, 67],[179, 67]]]},"properties":{"objectType":"annotation","name":"company","classification":{"name":"company","color":[255, 0, 0]}}}]}