{"type":"FeatureCollection","features":[{"type":"Feature","id":"47524a31-6818-420b-9c1f-c808911f76a7","geometry":{"type":"Polygon","coordinates":[[[634, 1589],[634, 1625],[741, 1625],[741, 1589],[634, 1589]]]},"properties":{"objectType":"annotation","name":"total","classification":{"name":"total","color":[255, 255, 0]}}},{"type":"Feature","id":"b1d829f7-86ff-48c8-996a-d9c16905d462","geometry":{"type":"Polygon","coordinates":[[[631, 785],[631, 822],[775, 822],[775, 785],[631, 785]]]},"properties":{"objectType":"annotation","name":"date","classification":{"name":"date","color":[0, 255, 0]}}},{"type":"Feature","id":"7dd59753-c0d9-4d4a-bbed-fe90f28553fa","geometry":{"type":"Polygon","coordinates":[[[170, 383],[170, 571],[646, 571],[646, 383],[170, 383]]]},"properties":{"objectType":"annotation","name":"address","classification":{"name":"address","color":[0, 0, 255]}}},{"type":"Feature","id":"b38e30ea-1025-4b9b-a512-8c712294be03","geometry":{"type":"Polygon","coordinates":[[[150, 335],[150, 372],[455, 372],[455, 335],[150, 335]]]},"properties":{"objectType":"annotation","name":"company","classification":{"name":"company","color":[255, 0, 0]}}}]}