{"type":"FeatureCollection","features":[{"type":"Feature","id":"8052ba9b-c477-4600-b2cf-3c0b1b0fedc1","geometry":{"type":"Polygon","coordinates":[[[156, 181],[156, 272],[789, 272],[789, 181],[156, 181]]]},"properties":{"objectType":"annotation","name":"company","classification":{"name":"company","color":[255, 0, 0]}}},{"type":"Feature","id":"dd343eb6-fb13-46fa-93ac-ae957c000f79","geometry":{"type":"Polygon","coordinates":[[[725, 1631],[725, 1672],[848, 1672],[848, 1631],[725, 1631]]]},"properties":{"objectType":"annotation","name":"total","classification":{"name":"total","color":[255, 255, 0]}}},{"type":"Feature","id":"67272c28-508c-410b-a65d-fd9a4f30678f","geometry":{"type":"Polygon","coordinates":[[[299, 647],[299, 676],[431, 676],[431, 647],[299, 647]]]},"properties":{"objectType":"annotation","name":"date","classification":{"name":"date","color":[0, 255, 0]}}},{"type":"Feature","id":"009b20f7-dc78-4bea-80f3-28d7b8d99985","geometry":{"type":"Polygon","coordinates":[[[250, 362],[250, 467],[702, 467],[702, 362],[250, 362]]]},"properties":{"objectType":"annotation","name":"address","classification":{"name":"address","color":[0, 0, 255]}}}]}