{"type":"FeatureCollection","features":[{"type":"Feature","id":"41fbea3f-ec68-4fe6-9968-f49235e71fa3","geometry":{"type":"Polygon","coordinates":[[[156, 342],[156, 375],[718, 375],[718, 342],[156, 342]]]},"properties":{"objectType":"annotation","name":"company","classification":{"name":"company","color":[255, 0, 0]}}},{"type":"Feature","id":"7aa45167-aaa7-4379-833d-72d4dcba59f6","geometry":{"type":"Polygon","coordinates":[[[99, 423],[99, 546],[778, 546],[778, 423],[99, 423]]]},"properties":{"objectType":"annotation","name":"address","classification":{"name":"address","color":[0, 0, 255]}}},{"type":"Feature","id":"6c0f9b57-bcf0-4767-85d1-f00d32ec9d2c","geometry":{"type":"Polygon","coordinates":[[[38, 1302],[38, 1341],[219, 1341],[219, 1302],[38, 1302]]]},"properties":{"objectType":"annotation","name":"date","classification":{"name":"date","color":[0, 255, 0]}}},{"type":"Feature","id":"95c721b3-4c96-4598-a866-4b71c8cde401","geometry":{"type":"Polygon","coordinates":[[[740, 796],[740, 851],[836, 851],[836, 796],[740, 796]]]},"properties":{"objectType":"annotation","name":"total","classification":{"name":"total","color":[255, 255, 0]}}}]}