{"type":"FeatureCollection","features":[{"type":"Feature","id":"2e35d8b0-8ceb-409c-a91f-6f5d93ba9e98","geometry":{"type":"Polygon","coordinates":[[[76, 100],[76, 122],[512, 122],[512, 100],[76, 100]]]},"properties":{"objectType":"annotation","name":"company","classification":{"name":"company","color":[255, 0, 0]}}},{"type":"Feature","id":"24112b51-c3ae-47e7-90c8-483716a621bb","geometry":{"type":"Polygon","coordinates":[[[143, 145],[143, 216],[446, 216],[446, 145],[143, 145]]]},"properties":{"objectType":"annotation","name":"address","classification":{"name":"address","color":[0, 0, 255]}}},{"type":"Feature","id":"efc8e979-e325-4f4d-b25e-f735736027a2","geometry":{"type":"Polygon","coordinates":[[[379, 346],[379, 374],[485, 374],[485, 346],[379, 346]]]},"properties":{"objectType":"annotation","name":"date","classification":{"name":"date","color":[0, 255, 0]}}},{"type":"Feature","id":"bc1709d4-c952-4a39-af34-93c56012e5c9","geometry":{"type":"Polygon","coordinates":[[[503, 555],[503, 581],[580, 581],[580, 555],[503, 555]]]},"properties":{"objectType":"annotation","name":"total","classification":{"name":"total","color":[255, 255, 0]}}}]}