{"type":"FeatureCollection","features":[{"type":"Feature","id":"67f67d82-1fce-4b68-8bcd-69b843a8e618","geometry":{"type":"Polygon","coordinates":[[[563, 868],[563, 894],[624, 894],[624, 868],[563, 868]]]},"properties":{"objectType":"annotation","name":"total","classification":{"name":"total","color":[255, 255, 0]}}},{"type":"Feature","id":"92b75f87-ab0a-4c1d-8830-7f5a34ac573c","geometry":{"type":"Polygon","coordinates":[[[442, 471],[442, 499],[562, 499],[562, 471],[442, 471]]]},"properties":{"objectType":"annotation","name":"date","classification":{"name":"date","color":[0, 255, 0]}}},{"type":"Feature","id":"e10fdf11-61de-4475-a145-622aad48fc98","geometry":{"type":"Polygon","coordinates":[[[53, 231],[53, 347],[562, 347],[562, 231],[53, 231]]]},"properties":{"objectType":"annotation","name":"address","classification":{"name":"address","color":[0, 0, 255]}}},{"type":"Feature","id":"4a3eae49-06f5-4a29-a4c5-09d60111b26e","geometry":{"type":"Polygon","coordinates":[[[58, 198],[58, 229],[417, 229],[417, 198],[58, 198]]]},"properties":{"objectType":"annotation","name":"company","classification":{"name":"company","color":[255, 0, 0]}}}]}