{"type":"FeatureCollection","features":[{"type":"Feature","id":"130622d6-68d0-4988-977f-4db2e3414406","geometry":{"type":"Polygon","coordinates":[[[152, 254],[152, 299],[775, 299],[775, 254],[152, 254]]]},"properties":{"objectType":"annotation","name":"company","classification":{"name":"company","color":[255, 0, 0]}}},{"type":"Feature","id":"9247a9f6-609f-4994-8a7c-3db0281c97ed","geometry":{"type":"Polygon","coordinates":[[[213, 344],[213, 449],[708, 449],[708, 344],[213, 344]]]},"properties":{"objectType":"annotation","name":"address","classification":{"name":"address","color":[0, 0, 255]}}},{"type":"Feature","id":"1d64677b-3b21-4942-9568-2046fd24beb2","geometry":{"type":"Polygon","coordinates":[[[654, 1547],[654, 1607],[847, 1607],[847, 1547],[654, 1547]]]},"properties":{"objectType":"annotation","name":"total","classification":{"name":"total","color":[255, 255, 0]}}},{"type":"Feature","id":"f9d837c2-e105-4e32-ba03-244dc1b2115b","geometry":{"type":"Polygon","coordinates":[[[685, 898],[685, 959],[890, 959],[890, 898],[685, 898]]]},"properties":{"objectType":"annotation","name":"date","classification":{"name":"date","color":[0, 255, 0]}}}]}