{"type":"FeatureCollection","features":[{"type":"Feature","id":"22af8fa2-9615-420a-9b5c-7721f26f2ca8","geometry":{"type":"Polygon","coordinates":[[[136, 183],[136, 292],[830, 292],[830, 183],[136, 183]]]},"properties":{"objectType":"annotation","name":"company","classification":{"name":"company","color":[255, 0, 0]}}},{"type":"Feature","id":"1883cde0-7c1b-4605-9778-4827e799d17e","geometry":{"type":"Polygon","coordinates":[[[785, 1177],[785, 1214],[869, 1214],[869, 1177],[785, 1177]]]},"properties":{"objectType":"annotation","name":"total","classification":{"name":"total","color":[255, 255, 0]}}},{"type":"Feature","id":"d9696992-5b32-4ff8-989b-acd99f70016a","geometry":{"type":"Polygon","coordinates":[[[313, 586],[313, 619],[499, 619],[499, 586],[313, 586]]]},"properties":{"objectType":"annotation","name":"date","classification":{"name":"date","color":[0, 255, 0]}}},{"type":"Feature","id":"ebc5ec9c-8a36-457b-b8f3-80a061897e71","geometry":{"type":"Polygon","coordinates":[[[128, 350],[128, 424],[833, 424],[833, 350],[128, 350]]]},"properties":{"objectType":"annotation","name":"address","classification":{"name":"address","color":[0, 0, 255]}}}]}