{"type":"FeatureCollection","features":[{"type":"Feature","id":"7a9b2b85-d403-4a0b-a96f-5ce8c13c773d","geometry":{"type":"Polygon","coordinates":[[[113, 337],[113, 355],[208, 355],[208, 337],[113, 337]]]},"properties":{"objectType":"annotation","name":"date","classification":{"name":"date","color":[0, 255, 0]}}},{"type":"Feature","id":"38ea943e-de08-4195-9283-ab662eea3c32","geometry":{"type":"Polygon","coordinates":[[[448, 601],[448, 617],[498, 617],[498, 601],[448, 601]]]},"properties":{"objectType":"annotation","name":"total","classification":{"name":"total","color":[255, 255, 0]}}},{"type":"Feature","id":"4e6ac3eb-cc1c-42d8-9946-0d893c17ba14","geometry":{"type":"Polygon","coordinates":[[[132, 185],[132, 270],[488, 270],[488, 185],[132, 185]]]},"properties":{"objectType":"annotation","name":"address","classification":{"name":"address","color":[0, 0, 255]}}},{"type":"Feature","id":"3897768a-b28b-46fc-b015-5571a9963fdb","geometry":{"type":"Polygon","coordinates":[[[153, 138],[153, 156],[469, 156],[469, 138],[153, 138]]]},"properties":{"objectType":"annotation","name":"company","classification":{"name":"company","color":[255, 0, 0]}}}]}