{"type":"FeatureCollection","features":[{"type":"Feature","id":"175ec838-9442-44d6-bbcf-43e10cc142d1","geometry":{"type":"Polygon","coordinates":[[[573, 1079],[573, 1107],[640, 1107],[640, 1079],[573, 1079]]]},"properties":{"objectType":"annotation","name":"total","classification":{"name":"total","color":[255, 255, 0]}}},{"type":"Feature","id":"95520b71-cf0c-4dc6-b2ed-7cd9f7495809","geometry":{"type":"Polygon","coordinates":[[[289, 726],[289, 755],[460, 755],[460, 726],[289, 726]]]},"properties":{"objectType":"annotation","name":"date","classification":{"name":"date","color":[0, 255, 0]}}},{"type":"Feature","id":"1aa9e6bb-c46f-4d0f-8124-bd7515b156d8","geometry":{"type":"Polygon","coordinates":[[[121, 280],[121, 392],[712, 392],[712, 280],[121, 280]]]},"properties":{"objectType":"annotation","name":"address","classification":{"name":"address","color":[0, 0, 255]}}},{"type":"Feature","id":"8cf1038c-a0c9-45ac-afe3-9036ed0be07a","geometry":{"type":"Polygon","coordinates":[[[129, 227],[129, 259],[793, 259],[793, 227],[129, 227]]]},"properties":{"objectType":"annotation","name":"company","classification":{"name":"company","color":[255, 0, 0]}}}]}