{"type":"FeatureCollection","features":[{"type":"Feature","id":"a47f2def-eb77-4b3f-bce0-28e2954418fc","geometry":{"type":"Polygon","coordinates":[[[167, 332],[167, 372],[731, 372],[731, 332],[167, 332]]]},"properties":{"objectType":"annotation","name":"company","classification":{"name":"company","color":[255, 0, 0]}}},{"type":"Feature","id":"e43efc6f-71ad-4fc0-a670-5a7647a125c8","geometry":{"type":"Polygon","coordinates":[[[126, 383],[126, 524],[778, 524],[778, 383],[126, 383]]]},"properties":{"objectType":"annotation","name":"address","classification":{"name":"address","color":[0, 0, 255]}}},{"type":"Feature","id":"15c2e1cc-0151-40be-8399-6e6a3c762174","geometry":{"type":"Polygon","coordinates":[[[713, 1442],[713, 1495],[837, 1495],[837, 1442],[713, 1442]]]},"properties":{"objectType":"annotation","name":"total","classification":{"name":"total","color":[255, 255, 0]}}},{"type":"Feature","id":"f6f22a79-cae0-4184-a8e2-5b805d9a3677","geometry":{"type":"Polygon","coordinates":[[[65, 1736],[65, 1792],[241, 1792],[241, 1736],[65, 1736]]]},"properties":{"objectType":"annotation","name":"date","classification":{"name":"date","color":[0, 255, 0]}}}]}