{"type":"FeatureCollection","features":[{"type":"Feature","id":"7ba7bd11-bf78-45a7-a665-6c082fb67fdd","geometry":{"type":"Polygon","coordinates":[[[119, 203],[119, 251],[710, 251],[710, 203],[119, 203]]]},"properties":{"objectType":"annotation","name":"company","classification":{"name":"company","color":[255, 0, 0]}}},{"type":"Feature","id":"9354c39f-b6b5-4ab3-b721-601e1595816d","geometry":{"type":"Polygon","coordinates":[[[619, 1068],[619, 1092],[690, 1092],[690, 1068],[619, 1068]]]},"properties":{"objectType":"annotation","name":"total","classification":{"name":"total","color":[255, 255, 0]}}},{"type":"Feature","id":"e2165674-0d0c-4a53-bcaa-3d931c2eef9e","geometry":{"type":"Polygon","coordinates":[[[585, 585],[585, 613],[724, 613],[724, 585],[585, 585]]]},"properties":{"objectType":"annotation","name":"date","classification":{"name":"date","color":[0, 255, 0]}}},{"type":"Feature","id":"c135600b-269e-4c1d-99b4-d2c4f49719e2","geometry":{"type":"Polygon","coordinates":[[[240, 292],[240, 402],[588, 402],[588, 292],[240, 292]]]},"properties":{"objectType":"annotation","name":"address","classification":{"name":"address","color":[0, 0, 255]}}}]}