{"type":"FeatureCollection","features":[{"type":"Feature","id":"249510d7-1444-45b7-92a7-f3e1140cf03d","geometry":{"type":"Polygon","coordinates":[[[35, 120],[35, 171],[541, 171],[541, 120],[35, 120]]]},"properties":{"objectType":"annotation","name":"company","classification":{"name":"company","color":[255, 0, 0]}}},{"type":"Feature","id":"c9c97c36-6bcf-42a9-af5a-9d8a8d83dd0c","geometry":{"type":"Polygon","coordinates":[[[33, 180],[33, 227],[525, 227],[525, 180],[33, 180]]]},"properties":{"objectType":"annotation","name":"address","classification":{"name":"address","color":[0, 0, 255]}}},{"type":"Feature","id":"a9f8a203-30ac-4796-8bd5-5d95659b0d15","geometry":{"type":"Polygon","coordinates":[[[476, 555],[476, 590],[539, 590],[539, 555],[476, 555]]]},"properties":{"objectType":"annotation","name":"total","classification":{"name":"total","color":[255, 255, 0]}}},{"type":"Feature","id":"5eda0982-b03b-47c5-8752-179f0b1118c8","geometry":{"type":"Polygon","coordinates":[[[390, 940],[390, 981],[527, 981],[527, 940],[390, 940]]]},"properties":{"objectType":"annotation","name":"date","classification":{"name":"date","color":[0, 255, 0]}}}]}