{"type":"FeatureCollection","features":[{"type":"Feature","id":"21c99efd-59d6-4714-8530-a4bef9bbdd81","geometry":{"type":"Polygon","coordinates":[[[396, 880],[396, 906],[487, 906],[487, 880],[396, 880]]]},"properties":{"objectType":"annotation","name":"total","classification":{"name":"total","color":[255, 255, 0]}}},{"type":"Feature","id":"fee41a21-f332-4c66-b24f-3081ebda375a","geometry":{"type":"Polygon","coordinates":[[[178, 650],[178, 677],[320, 677],[320, 650],[178, 650]]]},"properties":{"objectType":"annotation","name":"date","classification":{"name":"date","color":[0, 255, 0]}}},{"type":"Feature","id":"f57a9f7f-e6f3-4c5f-ac49-089a0f3ff34e","geometry":{"type":"Polygon","coordinates":[[[66, 253],[66, 347],[406, 347],[406, 253],[66, 253]]]},"properties":{"objectType":"annotation","name":"address","classification":{"name":"address","color":[0, 0, 255]}}},{"type":"Feature","id":"3acae171-9260-4e12-af12-c72c9c6dd22c","geometry":{"type":"Polygon","coordinates":[[[11, 218],[11, 246],[322, 246],[322, 218],[11, 218]]]},"properties":{"objectType":"annotation","name":"company","classification":{"name":"company","color":[255, 0, 0]}}}]}