{"type":"FeatureCollection","features":[{"type":"Feature","id":"ad4398d9-d251-4b64-ac66-d97c03717016","geometry":{"type":"Polygon","coordinates":[[[572, 1054],[572, 1078],[651, 1078],[651, 1054],[572, 1054]]]},"properties":{"objectType":"annotation","name":"total","classification":{"name":"total","color":[255, 255, 0]}}},{"type":"Feature","id":"eeb81c5d-70ca-48e3-9f25-dbfcc3237754","geometry":{"type":"Polygon","coordinates":[[[546, 555],[546, 580],[683, 580],[683, 555],[546, 555]]]},"properties":{"objectType":"annotation","name":"date","classification":{"name":"date","color":[0, 255, 0]}}},{"type":"Feature","id":"cb5d3832-8bf9-401f-aaaa-d72b36f577a2","geometry":{"type":"Polygon","coordinates":[[[118, 262],[118, 338],[645, 338],[645, 262],[118, 262]]]},"properties":{"objectType":"annotation","name":"address","classification":{"name":"address","color":[0, 0, 255]}}},{"type":"Feature","id":"d635906c-256d-4fe7-a4ad-562189433043","geometry":{"type":"Polygon","coordinates":[[[48, 179],[48, 211],[716, 211],[716, 179],[48, 179]]]},"properties":{"objectType":"annotation","name":"company","classification":{"name":"company","color":[255, 0, 0]}}}]}