{"type":"FeatureCollection","features":[{"type":"Feature","id":"ad59e80a-3cd7-43d5-bfbd-364d4515fe38","geometry":{"type":"Polygon","coordinates":[[[1740, 3538],[1740, 3626],[2090, 3626],[2090, 3538],[1740, 3538]]]},"properties":{"objectType":"annotation","name":"date","classification":{"name":"date","color":[0, 255, 0]}}},{"type":"Feature","id":"165eae29-1520-4e2d-bb8a-596f82b967b1","geometry":{"type":"Polygon","coordinates":[[[2973, 2837],[2973, 2908],[3141, 2908],[3141, 2837],[2973, 2837]]]},"properties":{"objectType":"annotation","name":"total","classification":{"name":"total","color":[255, 255, 0]}}},{"type":"Feature","id":"671570c5-27f3-4e93-9c83-56013b9399c0","geometry":{"type":"Polygon","coordinates":[[[2010, 1160],[2010, 1444],[3027, 1444],[3027, 1160],[2010, 1160]]]},"properties":{"objectType":"annotation","name":"address","classification":{"name":"address","color":[0, 0, 255]}}},{"type":"Feature","id":"3e43fbef-0548-41b4-90d8-619fa9649b64","geometry":{"type":"Polygon","coordinates":[[[2044, 1069],[2044, 1150],[2605, 1150],[2605, 1069],[2044, 1069]]]},"properties":{"objectType":"annotation","name":"company","classification":{"name":"company","color":[255, 0, 0]}}}]}