{"type":"FeatureCollection","features":[{"type":"Feature","id":"6de426d8-cbab-489b-94bd-8f4082acedc8","geometry":{"type":"Polygon","coordinates":[[[171, 423],[171, 615],[693, 615],[693, 423],[171, 423]]]},"properties":{"objectType":"annotation","name":"address","classification":{"name":"address","color":[0, 0, 255]}}},{"type":"Feature","id":"99e66fa1-5690-484d-9a77-3694783260dd","geometry":{"type":"Polygon","coordinates":[[[159, 374],[159, 421],[682, 421],[682, 374],[159, 374]]]},"properties":{"objectType":"annotation","name":"company","classification":{"name":"company","color":[255, 0, 0]}}},{"type":"Feature","id":"25d5a69b-7b82-4805-aaec-0c1a0a590fb7","geometry":{"type":"Polygon","coordinates":[[[629, 822],[629, 871],[830, 871],[830, 822],[629, 822]]]},"properties":{"objectType":"annotation","name":"date","classification":{"name":"date","color":[0, 255, 0]}}},{"type":"Feature","id":"fea0f8ff-f086-4aff-a4ec-694cfb663a6b","geometry":{"type":"Polygon","coordinates":[[[658, 1475],[658, 1524],[789, 1524],[789, 1475],[658, 1475]]]},"properties":{"objectType":"annotation","name":"total","classification":{"name":"total","color":[255, 255, 0]}}}]}