{"type":"FeatureCollection","features":[{"type":"Feature","id":"36f74b08-5637-4060-8872-6c4943228caf","geometry":{"type":"Polygon","coordinates":[[[169, 165],[169, 192],[453, 192],[453, 165],[169, 165]]]},"properties":{"objectType":"annotation","name":"company","classification":{"name":"company","color":[255, 0, 0]}}},{"type":"Feature","id":"7936d1a4-1ced-4df4-bbfc-c89d678f28ee","geometry":{"type":"Polygon","coordinates":[[[130, 229],[130, 312],[494, 312],[494, 229],[130, 229]]]},"properties":{"objectType":"annotation","name":"address","classification":{"name":"address","color":[0, 0, 255]}}},{"type":"Feature","id":"a4c2c92d-425d-42e5-bd5e-ef5684f7f357","geometry":{"type":"Polygon","coordinates":[[[433, 865],[433, 905],[521, 905],[521, 865],[433, 865]]]},"properties":{"objectType":"annotation","name":"total","classification":{"name":"total","color":[255, 255, 0]}}},{"type":"Feature","id":"184067fb-7bb0-4410-92ba-14fa87a47f32","geometry":{"type":"Polygon","coordinates":[[[440, 479],[440, 508],[585, 508],[585, 479],[440, 479]]]},"properties":{"objectType":"annotation","name":"date","classification":{"name":"date","color":[0, 255, 0]}}}]}