{"type":"FeatureCollection","features":[{"type":"Feature","id":"c07958d5-8a30-4fb3-9eb7-0d0eada91630","geometry":{"type":"Polygon","coordinates":[[[113, 321],[113, 430],[590, 430],[590, 321],[113, 321]]]},"properties":{"objectType":"annotation","name":"address","classification":{"name":"address","color":[0, 0, 255]}}},{"type":"Feature","id":"8d640a7c-39b9-41e5-837f-66c59ba85de1","geometry":{"type":"Polygon","coordinates":[[[98, 214],[98, 285],[750, 285],[750, 214],[98, 214]]]},"properties":{"objectType":"annotation","name":"company","classification":{"name":"company","color":[255, 0, 0]}}},{"type":"Feature","id":"8c66521d-bb00-4f7d-92bb-e598a11f4c8e","geometry":{"type":"Polygon","coordinates":[[[116, 1388],[116, 1421],[278, 1421],[278, 1388],[116, 1388]]]},"properties":{"objectType":"annotation","name":"date","classification":{"name":"date","color":[0, 255, 0]}}},{"type":"Feature","id":"731ec4a1-0f8c-462a-8b04-d2e58ac06dce","geometry":{"type":"Polygon","coordinates":[[[729, 953],[729, 1016],[881, 1016],[881, 953],[729, 953]]]},"properties":{"objectType":"annotation","name":"total","classification":{"name":"total","color":[255, 255, 0]}}}]}