{"type":"FeatureCollection","features":[{"type":"Feature","id":"e8b394bb-66e6-4fa8-8cad-412b6765bba3","geometry":{"type":"Polygon","coordinates":[[[12, 145],[12, 195],[622, 195],[622, 145],[12, 145]]]},"properties":{"objectType":"annotation","name":"company","classification":{"name":"company","color":[255, 0, 0]}}},{"type":"Feature","id":"f0a540c2-4dfe-4b11-8e69-9cfd6666e982","geometry":{"type":"Polygon","coordinates":[[[23, 207],[23, 273],[426, 273],[426, 207],[23, 207]]]},"properties":{"objectType":"annotation","name":"address","classification":{"name":"address","color":[0, 0, 255]}}},{"type":"Feature","id":"07a73783-e396-4471-911e-cf851bab98f3","geometry":{"type":"Polygon","coordinates":[[[543, 756],[543, 803],[640, 803],[640, 756],[543, 756]]]},"properties":{"objectType":"annotation","name":"total","classification":{"name":"total","color":[255, 255, 0]}}},{"type":"Feature","id":"b498dd26-77e4-45bb-a1a0-024f8aaf83bc","geometry":{"type":"Polygon","coordinates":[[[430, 1023],[430, 1057],[591, 1057],[591, 1023],[430, 1023]]]},"properties":{"objectType":"annotation","name":"date","classification":{"name":"date","color":[0, 255, 0]}}}]}