{"type":"FeatureCollection","features":[{"type":"Feature","id":"7a43f272-6214-43f3-8e06-585e26d0c14f","geometry":{"type":"Polygon","coordinates":[[[648, 940],[648, 990],[705, 990],[705, 940],[648, 940]]]},"properties":{"objectType":"annotation","name":"total","classification":{"name":"total","color":[255, 255, 0]}}},{"type":"Feature","id":"6dad5ee6-f324-4d60-9a89-61bb4d7439e7","geometry":{"type":"Polygon","coordinates":[[[153, 592],[153, 621],[291, 621],[291, 592],[153, 592]]]},"properties":{"objectType":"annotation","name":"date","classification":{"name":"date","color":[0, 255, 0]}}},{"type":"Feature","id":"fbefcf79-2784-4e11-b778-dd8e1efda871","geometry":{"type":"Polygon","coordinates":[[[137, 380],[137, 443],[591, 443],[591, 380],[137, 380]]]},"properties":{"objectType":"annotation","name":"address","classification":{"name":"address","color":[0, 0, 255]}}},{"type":"Feature","id":"e31cc117-f074-4219-a8c3-c2fcf4badc6f","geometry":{"type":"Polygon","coordinates":[[[108, 269],[108, 303],[645, 303],[645, 269],[108, 269]]]},"properties":{"objectType":"annotation","name":"company","classification":{"name":"company","color":[255, 0, 0]}}}]}