{"type":"FeatureCollection","features":[{"type":"Feature","id":"0bff737f-ee35-4bfa-a31e-74092a0a3ff2","geometry":{"type":"Polygon","coordinates":[[[144, 253],[144, 305],[775, 305],[775, 253],[144, 253]]]},"properties":{"objectType":"annotation","name":"company","classification":{"name":"company","color":[255, 0, 0]}}},{"type":"Feature","id":"fcf011e8-762a-4ada-bd69-8fe9a0ffa1b4","geometry":{"type":"Polygon","coordinates":[[[200, 342],[200, 452],[715, 452],[715, 342],[200, 342]]]},"properties":{"objectType":"annotation","name":"address","classification":{"name":"address","color":[0, 0, 255]}}},{"type":"Feature","id":"a9c74b74-fd03-46f9-bd5d-990b15b154dd","geometry":{"type":"Polygon","coordinates":[[[653, 1541],[653, 1609],[828, 1609],[828, 1541],[653, 1541]]]},"properties":{"objectType":"annotation","name":"total","classification":{"name":"total","color":[255, 255, 0]}}},{"type":"Feature","id":"39261519-eca2-43dd-aab9-1ea3f5007294","geometry":{"type":"Polygon","coordinates":[[[693, 899],[693, 947],[888, 947],[888, 899],[693, 899]]]},"properties":{"objectType":"annotation","name":"date","classification":{"name":"date","color":[0, 255, 0]}}}]}