{"type":"FeatureCollection","features":[{"type":"Feature","id":"b36dfd74-d426-4622-ad0c-08e783496fa7","geometry":{"type":"Polygon","coordinates":[[[103, 1363],[103, 1405],[277, 1405],[277, 1363],[103, 1363]]]},"properties":{"objectType":"annotation","name":"date","classification":{"name":"date","color":[0, 255, 0]}}},{"type":"Feature","id":"343bd4a5-c90b-4e28-bbbc-53a39852ca95","geometry":{"type":"Polygon","coordinates":[[[720, 1020],[720, 1058],[807, 1058],[807, 1020],[720, 1020]]]},"properties":{"objectType":"annotation","name":"total","classification":{"name":"total","color":[255, 255, 0]}}},{"type":"Feature","id":"1ce69fe8-0555-407a-8cca-43b757ae3e3b","geometry":{"type":"Polygon","coordinates":[[[239, 219],[239, 363],[751, 363],[751, 219],[239, 219]]]},"properties":{"objectType":"annotation","name":"address","classification":{"name":"address","color":[0, 0, 255]}}},{"type":"Feature","id":"ff20506f-a083-4ad4-8e38-8ed87b76cde6","geometry":{"type":"Polygon","coordinates":[[[256, 168],[256, 213],[539, 213],[539, 168],[256, 168]]]},"properties":{"objectType":"annotation","name":"company","classification":{"name":"company","color":[255, 0, 0]}}}]}