{"type":"FeatureCollection","features":[{"type":"Feature","id":"a571b92c-059b-42fe-a4f7-91d7875e67f4","geometry":{"type":"Polygon","coordinates":[[[403, 764],[403, 789],[492, 789],[492, 764],[403, 764]]]},"properties":{"objectType":"annotation","name":"total","classification":{"name":"total","color":[255, 255, 0]}}},{"type":"Feature","id":"d19e97d3-057c-4b28-98b4-ceebe8e6ef18","geometry":{"type":"Polygon","coordinates":[[[184, 544],[184, 567],[325, 567],[325, 544],[184, 544]]]},"properties":{"objectType":"annotation","name":"date","classification":{"name":"date","color":[0, 255, 0]}}},{"type":"Feature","id":"82898279-55b8-4541-b811-404ce1ed128f","geometry":{"type":"Polygon","coordinates":[[[52, 161],[52, 283],[463, 283],[463, 161],[52, 161]]]},"properties":{"objectType":"annotation","name":"address","classification":{"name":"address","color":[0, 0, 255]}}},{"type":"Feature","id":"f55deb5b-cf97-4808-a67a-e3f0f6e5a92a","geometry":{"type":"Polygon","coordinates":[[[72, 20],[72, 90],[467, 90],[467, 20],[72, 20]]]},"properties":{"objectType":"annotation","name":"company","classification":{"name":"company","color":[255, 0, 0]}}}]}