{"type":"FeatureCollection","features":[{"type":"Feature","id":"91c56ea5-8815-440e-8de7-e127a08cd77c","geometry":{"type":"Polygon","coordinates":[[[2913, 3227],[2913, 3274],[3021, 3274],[3021, 3227],[2913, 3227]]]},"properties":{"objectType":"annotation","name":"total","classification":{"name":"total","color":[255, 255, 0]}}},{"type":"Feature","id":"2ede2aa1-2fda-4533-947d-f01d615b8b6c","geometry":{"type":"Polygon","coordinates":[[[1733, 1722],[1733, 1872],[2871, 1872],[2871, 1722],[1733, 1722]]]},"properties":{"objectType":"annotation","name":"address","classification":{"name":"address","color":[0, 0, 255]}}},{"type":"Feature","id":"1ce78d26-d325-493d-bff3-843ef8c9a97e","geometry":{"type":"Polygon","coordinates":[[[2069, 1557],[2069, 1621],[2375, 1621],[2375, 1557],[2069, 1557]]]},"properties":{"objectType":"annotation","name":"date","classification":{"name":"date","color":[0, 255, 0]}}},{"type":"Feature","id":"4cec2eac-b15b-44a6-bef1-942bb5b88221","geometry":{"type":"Polygon","coordinates":[[[1640, 1477],[1640, 1537],[2962, 1537],[2962, 1477],[1640, 1477]]]},"properties":{"objectType":"annotation","name":"company","classification":{"name":"company","color":[255, 0, 0]}}}]}