{"type":"FeatureCollection","features":[{"type":"Feature","id":"abc4a8c7-edd7-4bb7-a77a-4c1c51d8094c","geometry":{"type":"Polygon","coordinates":[[[658, 1839],[658, 1885],[769, 1885],[769, 1839],[658, 1839]]]},"properties":{"objectType":"annotation","name":"total","classification":{"name":"total","color":[255, 255, 0]}}},{"type":"Feature","id":"bd943da5-1129-4196-b7aa-25f360254349","geometry":{"type":"Polygon","coordinates":[[[218, 1304],[218, 1337],[414, 1337],[414, 1304],[218, 1304]]]},"properties":{"objectType":"annotation","name":"date","classification":{"name":"date","color":[0, 255, 0]}}},{"type":"Feature","id":"9aaf2bb0-842d-4390-8bc8-d9abe5d7d390","geometry":{"type":"Polygon","coordinates":[[[178, 940],[178, 1054],[713, 1054],[713, 940],[178, 940]]]},"properties":{"objectType":"annotation","name":"address","classification":{"name":"address","color":[0, 0, 255]}}},{"type":"Feature","id":"bd49b7e9-26c3-4bf6-9040-f82a1d05c518","geometry":{"type":"Polygon","coordinates":[[[196, 531],[196, 806],[691, 806],[691, 531],[196, 531]]]},"properties":{"objectType":"annotation","name":"company","classification":{"name":"company","color":[255, 0, 0]}}}]}