{"type":"FeatureCollection","features":[{"type":"Feature","id":"4c22f9ce-998c-4e42-b96a-6dcfb803be0a","geometry":{"type":"Polygon","coordinates":[[[1698, 1247],[1698, 1321],[2969, 1321],[2969, 1247],[1698, 1247]]]},"properties":{"objectType":"annotation","name":"company","classification":{"name":"company","color":[255, 0, 0]}}},{"type":"Feature","id":"6f0cff33-ca76-41b9-ab7b-17873afc56a9","geometry":{"type":"Polygon","coordinates":[[[1619, 1332],[1619, 1509],[3054, 1509],[3054, 1332],[1619, 1332]]]},"properties":{"objectType":"annotation","name":"address","classification":{"name":"address","color":[0, 0, 255]}}},{"type":"Feature","id":"dfdbd4c9-7fec-4643-8320-12072d6ca926","geometry":{"type":"Polygon","coordinates":[[[2697, 2113],[2697, 2207],[3140, 2207],[3140, 2113],[2697, 2113]]]},"properties":{"objectType":"annotation","name":"date","classification":{"name":"date","color":[0, 255, 0]}}},{"type":"Feature","id":"1dfaa145-1d9e-4430-b35e-b745f3b818f5","geometry":{"type":"Polygon","coordinates":[[[2706, 3169],[2706, 3282],[2999, 3282],[2999, 3169],[2706, 3169]]]},"properties":{"objectType":"annotation","name":"total","classification":{"name":"total","color":[255, 255, 0]}}}]}