{"type":"FeatureCollection","features":[{"type":"Feature","id":"feecebc0-39fe-4a2c-a6a2-7a5588e8aab8","geometry":{"type":"Polygon","coordinates":[[[604, 1335],[604, 1372],[744, 1372],[744, 1335],[604, 1335]]]},"properties":{"objectType":"annotation","name":"total","classification":{"name":"total","color":[255, 255, 0]}}},{"type":"Feature","id":"fc36f137-9cbd-4105-9c24-da2e0e207901","geometry":{"type":"Polygon","coordinates":[[[197, 700],[197, 737],[376, 737],[376, 700],[197, 700]]]},"properties":{"objectType":"annotation","name":"date","classification":{"name":"date","color":[0, 255, 0]}}},{"type":"Feature","id":"02ccf533-d491-4c96-a57f-85a38c8fac04","geometry":{"type":"Polygon","coordinates":[[[231, 273],[231, 311],[551, 311],[551, 273],[231, 273]]]},"properties":{"objectType":"annotation","name":"company","classification":{"name":"company","color":[255, 0, 0]}}},{"type":"Feature","id":"0bc33a09-02e8-4a2d-a7c0-5726f02c12de","geometry":{"type":"Polygon","coordinates":[[[108, 358],[108, 484],[687, 484],[687, 358],[108, 358]]]},"properties":{"objectType":"annotation","name":"address","classification":{"name":"address","color":[0, 0, 255]}}}]}