{"type":"FeatureCollection","features":[{"type":"Feature","id":"f0f9089a-2171-4081-a348-5234b07463b0","geometry":{"type":"Polygon","coordinates":[[[604, 939],[604, 963],[658, 963],[658, 939],[604, 939]]]},"properties":{"objectType":"annotation","name":"total","classification":{"name":"total","color":[255, 255, 0]}}},{"type":"Feature","id":"96da9e82-e839-41d4-8f26-cda42ff9b2cb","geometry":{"type":"Polygon","coordinates":[[[570, 521],[570, 545],[705, 545],[705, 521],[570, 521]]]},"properties":{"objectType":"annotation","name":"date","classification":{"name":"date","color":[0, 255, 0]}}},{"type":"Feature","id":"5f2ade5a-bae1-456f-a724-b5bce86a45fe","geometry":{"type":"Polygon","coordinates":[[[68, 273],[68, 340],[693, 340],[693, 273],[68, 273]]]},"properties":{"objectType":"annotation","name":"address","classification":{"name":"address","color":[0, 0, 255]}}},{"type":"Feature","id":"d96c382d-9294-4002-8122-4562afe3e702","geometry":{"type":"Polygon","coordinates":[[[162, 192],[162, 223],[602, 223],[602, 192],[162, 192]]]},"properties":{"objectType":"annotation","name":"company","classification":{"name":"company","color":[255, 0, 0]}}}]}