{"type":"FeatureCollection","features":[{"type":"Feature","id":"4159c160-e376-4985-9e56-52f4fc7ca4dc","geometry":{"type":"Polygon","coordinates":[[[671, 1526],[671, 1555],[757, 1555],[757, 1526],[671, 1526]]]},"properties":{"objectType":"annotation","name":"total","classification":{"name":"total","color":[255, 255, 0]}}},{"type":"Feature","id":"42bd98d5-d66b-43eb-bfe4-83f54f1b75a7","geometry":{"type":"Polygon","coordinates":[[[662, 694],[662, 724],[834, 724],[834, 694],[662, 694]]]},"properties":{"objectType":"annotation","name":"date","classification":{"name":"date","color":[0, 255, 0]}}},{"type":"Feature","id":"899f74f3-c633-4fd9-8dc3-dddc155ee34f","geometry":{"type":"Polygon","coordinates":[[[240, 317],[240, 447],[677, 447],[677, 317],[240, 317]]]},"properties":{"objectType":"annotation","name":"address","classification":{"name":"address","color":[0, 0, 255]}}},{"type":"Feature","id":"397bf741-471d-4484-8c18-83b3d155c72f","geometry":{"type":"Polygon","coordinates":[[[89, 214],[89, 253],[829, 253],[829, 214],[89, 214]]]},"properties":{"objectType":"annotation","name":"company","classification":{"name":"company","color":[255, 0, 0]}}}]}