{"type":"FeatureCollection","features":[{"type":"Feature","id":"025d40e4-61ee-40f3-b84f-2d548a2d5fbc","geometry":{"type":"Polygon","coordinates":[[[72, 198],[72, 277],[503, 277],[503, 198],[72, 198]]]},"properties":{"objectType":"annotation","name":"company","classification":{"name":"company","color":[255, 0, 0]}}},{"type":"Feature","id":"17daf704-774e-4854-99ca-ec584ae19639","geometry":{"type":"Polygon","coordinates":[[[104, 297],[104, 377],[469, 377],[469, 297],[104, 297]]]},"properties":{"objectType":"annotation","name":"address","classification":{"name":"address","color":[0, 0, 255]}}},{"type":"Feature","id":"b75cc7eb-74dc-4b59-afd5-84d97db8f5ed","geometry":{"type":"Polygon","coordinates":[[[403, 946],[403, 976],[571, 976],[571, 946],[403, 946]]]},"properties":{"objectType":"annotation","name":"total","classification":{"name":"total","color":[255, 255, 0]}}},{"type":"Feature","id":"56d0d2a8-469d-42d2-81ee-c3e295b46082","geometry":{"type":"Polygon","coordinates":[[[373, 588],[373, 631],[523, 631],[523, 588],[373, 588]]]},"properties":{"objectType":"annotation","name":"date","classification":{"name":"date","color":[0, 255, 0]}}}]}