{"type":"FeatureCollection","features":[{"type":"Feature","id":"f797765b-9b24-4faa-84d2-633aaa2c7243","geometry":{"type":"Polygon","coordinates":[[[184, 334],[184, 375],[698, 375],[698, 334],[184, 334]]]},"properties":{"objectType":"annotation","name":"company","classification":{"name":"company","color":[255, 0, 0]}}},{"type":"Feature","id":"087b48df-a98a-48b1-89f1-f595c6163de5","geometry":{"type":"Polygon","coordinates":[[[120, 381],[120, 525],[762, 525],[762, 381],[120, 381]]]},"properties":{"objectType":"annotation","name":"address","classification":{"name":"address","color":[0, 0, 255]}}},{"type":"Feature","id":"751f4b96-8a66-47a0-9255-8bfc1e9f5141","geometry":{"type":"Polygon","coordinates":[[[59, 1392],[59, 1434],[289, 1434],[289, 1392],[59, 1392]]]},"properties":{"objectType":"annotation","name":"date","classification":{"name":"date","color":[0, 255, 0]}}},{"type":"Feature","id":"459f91ef-97b2-431b-8074-79ec5ff0bf98","geometry":{"type":"Polygon","coordinates":[[[725, 1131],[725, 1187],[841, 1187],[841, 1131],[725, 1131]]]},"properties":{"objectType":"annotation","name":"total","classification":{"name":"total","color":[255, 255, 0]}}}]}