{"type":"FeatureCollection","features":[{"type":"Feature","id":"88fdaabb-5729-47f0-b677-0a46956b09be","geometry":{"type":"Polygon","coordinates":[[[693, 2964],[693, 2996],[807, 2996],[807, 2964],[693, 2964]]]},"properties":{"objectType":"annotation","name":"total","classification":{"name":"total","color":[255, 255, 0]}}},{"type":"Feature","id":"07179b2d-1dea-4308-951c-75d545bf7c07","geometry":{"type":"Polygon","coordinates":[[[279, 367],[279, 547],[649, 547],[649, 367],[279, 367]]]},"properties":{"objectType":"annotation","name":"address","classification":{"name":"address","color":[0, 0, 255]}}},{"type":"Feature","id":"95c84c04-ef44-4900-9015-13751bdd2569","geometry":{"type":"Polygon","coordinates":[[[98, 268],[98, 315],[832, 315],[832, 268],[98, 268]]]},"properties":{"objectType":"annotation","name":"company","classification":{"name":"company","color":[255, 0, 0]}}},{"type":"Feature","id":"3b18db98-3ee2-4d8c-9e1c-ae7e10639eae","geometry":{"type":"Polygon","coordinates":[[[710, 1053],[710, 1083],[879, 1083],[879, 1053],[710, 1053]]]},"properties":{"objectType":"annotation","name":"date","classification":{"name":"date","color":[0, 255, 0]}}}]}