{"type":"FeatureCollection","features":[{"type":"Feature","id":"f1872f60-a7c9-4484-b01b-405ff3b1b4f6","geometry":{"type":"Polygon","coordinates":[[[60, 246],[60, 281],[445, 281],[445, 246],[60, 246]]]},"properties":{"objectType":"annotation","name":"company","classification":{"name":"company","color":[255, 0, 0]}}},{"type":"Feature","id":"17a84bb5-f33c-4c4c-b7bf-a91e9be26a84","geometry":{"type":"Polygon","coordinates":[[[61, 1184],[61, 1215],[212, 1215],[212, 1184],[61, 1184]]]},"properties":{"objectType":"annotation","name":"date","classification":{"name":"date","color":[0, 255, 0]}}},{"type":"Feature","id":"3c79d97d-8256-4372-a8a3-bfd90d9ded5c","geometry":{"type":"Polygon","coordinates":[[[446, 756],[446, 788],[540, 788],[540, 756],[446, 756]]]},"properties":{"objectType":"annotation","name":"total","classification":{"name":"total","color":[255, 255, 0]}}},{"type":"Feature","id":"dd9de71e-520c-4cb3-a932-61d78b919f4b","geometry":{"type":"Polygon","coordinates":[[[61, 356],[61, 426],[421, 426],[421, 356],[61, 356]]]},"properties":{"objectType":"annotation","name":"address","classification":{"name":"address","color":[0, 0, 255]}}}]}