{"type":"FeatureCollection","features":[{"type":"Feature","id":"1a6b6923-83b9-41f0-a6be-2e560d4217b3","geometry":{"type":"Polygon","coordinates":[[[83, 910],[83, 945],[224, 945],[224, 910],[83, 910]]]},"properties":{"objectType":"annotation","name":"date","classification":{"name":"date","color":[0, 255, 0]}}},{"type":"Feature","id":"d4571fad-4d73-4b6b-9e26-6de001c52ec5","geometry":{"type":"Polygon","coordinates":[[[592, 639],[592, 669],[648, 669],[648, 639],[592, 639]]]},"properties":{"objectType":"annotation","name":"total","classification":{"name":"total","color":[255, 255, 0]}}},{"type":"Feature","id":"7cdeaa7a-5c66-4c93-b1c4-9c265622ee46","geometry":{"type":"Polygon","coordinates":[[[209, 133],[209, 166],[435, 166],[435, 133],[209, 133]]]},"properties":{"objectType":"annotation","name":"company","classification":{"name":"company","color":[255, 0, 0]}}},{"type":"Feature","id":"29d4e4ad-101c-4b67-aacb-06ec8b4d0e8d","geometry":{"type":"Polygon","coordinates":[[[195, 172],[195, 282],[605, 282],[605, 172],[195, 172]]]},"properties":{"objectType":"annotation","name":"address","classification":{"name":"address","color":[0, 0, 255]}}}]}