{"type":"FeatureCollection","features":[{"type":"Feature","id":"f82ab29b-8444-48f4-b4d7-a831feffbb62","geometry":{"type":"Polygon","coordinates":[[[71, 318],[71, 375],[711, 375],[711, 318],[71, 318]]]},"properties":{"objectType":"annotation","name":"company","classification":{"name":"company","color":[255, 0, 0]}}},{"type":"Feature","id":"00e6ff3f-488c-4e6e-8f00-de0612accb14","geometry":{"type":"Polygon","coordinates":[[[69, 403],[69, 483],[709, 483],[709, 403],[69, 403]]]},"properties":{"objectType":"annotation","name":"address","classification":{"name":"address","color":[0, 0, 255]}}},{"type":"Feature","id":"263ea7d1-1281-447d-8692-efe8f1a09d0a","geometry":{"type":"Polygon","coordinates":[[[211, 635],[211, 683],[392, 683],[392, 635],[211, 635]]]},"properties":{"objectType":"annotation","name":"date","classification":{"name":"date","color":[0, 255, 0]}}},{"type":"Feature","id":"886a5bf1-702f-4460-91da-91db9724c360","geometry":{"type":"Polygon","coordinates":[[[498, 1237],[498, 1279],[709, 1279],[709, 1237],[498, 1237]]]},"properties":{"objectType":"annotation","name":"total","classification":{"name":"total","color":[255, 255, 0]}}}]}