{"type":"FeatureCollection","features":[{"type":"Feature","id":"f27561d7-8012-4bec-93bd-4a6d3a0c667f","geometry":{"type":"Polygon","coordinates":[[[28, 400],[28, 448],[650, 448],[650, 400],[28, 400]]]},"properties":{"objectType":"annotation","name":"company","classification":{"name":"company","color":[255, 0, 0]}}},{"type":"Feature","id":"4ad25320-8e21-4a4c-a0ba-23ec3cf05f86","geometry":{"type":"Polygon","coordinates":[[[19, 503],[19, 598],[608, 598],[608, 503],[19, 503]]]},"properties":{"objectType":"annotation","name":"address","classification":{"name":"address","color":[0, 0, 255]}}},{"type":"Feature","id":"b5cf912c-e0a9-4a2c-9ad1-5199f496bb35","geometry":{"type":"Polygon","coordinates":[[[599, 1193],[599, 1259],[724, 1259],[724, 1193],[599, 1193]]]},"properties":{"objectType":"annotation","name":"total","classification":{"name":"total","color":[255, 255, 0]}}},{"type":"Feature","id":"20981548-0a90-4ca8-86f6-7ad7eb60ba8f","geometry":{"type":"Polygon","coordinates":[[[394, 2101],[394, 2161],[578, 2161],[578, 2101],[394, 2101]]]},"properties":{"objectType":"annotation","name":"date","classification":{"name":"date","color":[0, 255, 0]}}}]}