{"type":"FeatureCollection","features":[{"type":"Feature","id":"f5933ef3-9820-4eea-b96b-a667f558acb8","geometry":{"type":"Polygon","coordinates":[[[450, 883],[450, 917],[516, 917],[516, 883],[450, 883]]]},"properties":{"objectType":"annotation","name":"total","classification":{"name":"total","color":[255, 255, 0]}}},{"type":"Feature","id":"da36ed75-cfaa-40f6-8d64-7c2599d9fdfa","geometry":{"type":"Polygon","coordinates":[[[31, 64],[31, 92],[603, 92],[603, 64],[31, 64]]]},"properties":{"objectType":"annotation","name":"company","classification":{"name":"company","color":[255, 0, 0]}}},{"type":"Feature","id":"9e102ac6-dea3-444a-b795-73f534ec9569","geometry":{"type":"Polygon","coordinates":[[[160, 91],[160, 141],[475, 141],[475, 91],[160, 91]]]},"properties":{"objectType":"annotation","name":"address","classification":{"name":"address","color":[0, 0, 255]}}},{"type":"Feature","id":"99b0eeef-00ef-4e2f-86e5-abbbe50c3f26","geometry":{"type":"Polygon","coordinates":[[[303, 453],[303, 491],[428, 491],[428, 453],[303, 453]]]},"properties":{"objectType":"annotation","name":"date","classification":{"name":"date","color":[0, 255, 0]}}}]}