{"type":"FeatureCollection","features":[{"type":"Feature","id":"c054543a-cd80-4272-a0b5-579c507d3bed","geometry":{"type":"Polygon","coordinates":[[[24, 73],[24, 98],[596, 98],[596, 73],[24, 73]]]},"properties":{"objectType":"annotation","name":"company","classification":{"name":"company","color":[255, 0, 0]}}},{"type":"Feature","id":"524c5c38-9fcc-4afe-803b-dd842f9c0198","geometry":{"type":"Polygon","coordinates":[[[156, 95],[156, 148],[467, 148],[467, 95],[156, 95]]]},"properties":{"objectType":"annotation","name":"address","classification":{"name":"address","color":[0, 0, 255]}}},{"type":"Feature","id":"b6b9f3a3-c61f-4aaf-b972-2bca43204f8f","geometry":{"type":"Polygon","coordinates":[[[384, 302],[384, 342],[519, 342],[519, 302],[384, 302]]]},"properties":{"objectType":"annotation","name":"date","classification":{"name":"date","color":[0, 255, 0]}}},{"type":"Feature","id":"d1502065-3f35-4bb6-8508-2c75f2fa466f","geometry":{"type":"Polygon","coordinates":[[[432, 888],[432, 932],[518, 932],[518, 888],[432, 888]]]},"properties":{"objectType":"annotation","name":"total","classification":{"name":"total","color":[255, 255, 0]}}}]}