{"type":"FeatureCollection","features":[{"type":"Feature","id":"92769473-4e35-4a7f-ae08-71338dbd0e99","geometry":{"type":"Polygon","coordinates":[[[39, 129],[39, 172],[529, 172],[529, 129],[39, 129]]]},"properties":{"objectType":"annotation","name":"company","classification":{"name":"company","color":[255, 0, 0]}}},{"type":"Feature","id":"d073ff18-9069-4b10-997d-ed0627351e3b","geometry":{"type":"Polygon","coordinates":[[[28, 179],[28, 225],[527, 225],[527, 179],[28, 179]]]},"properties":{"objectType":"annotation","name":"address","classification":{"name":"address","color":[0, 0, 255]}}},{"type":"Feature","id":"bf600f34-2b76-4d68-9939-78b46db98b3e","geometry":{"type":"Polygon","coordinates":[[[455, 779],[455, 823],[552, 823],[552, 779],[455, 779]]]},"properties":{"objectType":"annotation","name":"total","classification":{"name":"total","color":[255, 255, 0]}}},{"type":"Feature","id":"479db679-d02f-4121-8a77-904af54b74d2","geometry":{"type":"Polygon","coordinates":[[[388, 1027],[388, 1071],[532, 1071],[532, 1027],[388, 1027]]]},"properties":{"objectType":"annotation","name":"date","classification":{"name":"date","color":[0, 255, 0]}}}]}