{"type":"FeatureCollection","features":[{"type":"Feature","id":"c16e0ecb-b239-478e-a9ec-aa2f5eb97c16","geometry":{"type":"Polygon","coordinates":[[[449, 1005],[449, 1037],[510, 1037],[510, 1005],[449, 1005]]]},"properties":{"objectType":"annotation","name":"total","classification":{"name":"total","color":[255, 255, 0]}}},{"type":"Feature","id":"fd151cbf-964e-41a5-9612-ce02d7fe3fff","geometry":{"type":"Polygon","coordinates":[[[396, 329],[396, 348],[514, 348],[514, 329],[396, 329]]]},"properties":{"objectType":"annotation","name":"date","classification":{"name":"date","color":[0, 255, 0]}}},{"type":"Feature","id":"1e7ab65c-64ca-4090-8e51-b01377af6bc1","geometry":{"type":"Polygon","coordinates":[[[162, 120],[162, 165],[459, 165],[459, 120],[162, 120]]]},"properties":{"objectType":"annotation","name":"address","classification":{"name":"address","color":[0, 0, 255]}}},{"type":"Feature","id":"645cfd0e-4e40-46e2-9c9e-92e418febe17","geometry":{"type":"Polygon","coordinates":[[[36, 97],[36, 119],[473, 119],[473, 97],[36, 97]]]},"properties":{"objectType":"annotation","name":"company","classification":{"name":"company","color":[255, 0, 0]}}}]}