{"type":"FeatureCollection","features":[{"type":"Feature","id":"5f380c42-5b65-4a7f-a9ff-c53b6fb2881b","geometry":{"type":"Polygon","coordinates":[[[421, 1656],[421, 1716],[616, 1716],[616, 1656],[421, 1656]]]},"properties":{"objectType":"annotation","name":"total","classification":{"name":"total","color":[255, 255, 0]}}},{"type":"Feature","id":"efaf2ee2-dda7-4ca2-9bb4-ba3d6342252c","geometry":{"type":"Polygon","coordinates":[[[212, 1017],[212, 1049],[364, 1049],[364, 1017],[212, 1017]]]},"properties":{"objectType":"annotation","name":"date","classification":{"name":"date","color":[0, 255, 0]}}},{"type":"Feature","id":"160ab8f2-14d5-4dde-b453-ce8671d0cd64","geometry":{"type":"Polygon","coordinates":[[[130, 503],[130, 578],[601, 578],[601, 503],[130, 503]]]},"properties":{"objectType":"annotation","name":"company","classification":{"name":"company","color":[255, 0, 0]}}},{"type":"Feature","id":"10243081-6fe2-4a74-a309-45948f5672a9","geometry":{"type":"Polygon","coordinates":[[[127, 586],[127, 758],[614, 758],[614, 586],[127, 586]]]},"properties":{"objectType":"annotation","name":"address","classification":{"name":"address","color":[0, 0, 255]}}}]}