{"type":"FeatureCollection","features":[{"type":"Feature","id":"2bac259e-3996-4962-8a96-89a23657561c","geometry":{"type":"Polygon","coordinates":[[[706, 1160],[706, 1196],[813, 1196],[813, 1160],[706, 1160]]]},"properties":{"objectType":"annotation","name":"total","classification":{"name":"total","color":[255, 255, 0]}}},{"type":"Feature","id":"ea340e44-f5b4-43b3-bb96-634e4ac61baf","geometry":{"type":"Polygon","coordinates":[[[40, 756],[40, 795],[214, 795],[214, 756],[40, 756]]]},"properties":{"objectType":"annotation","name":"date","classification":{"name":"date","color":[0, 255, 0]}}},{"type":"Feature","id":"c204889c-18e7-4982-a5fd-f823c7c1214e","geometry":{"type":"Polygon","coordinates":[[[60, 459],[60, 596],[810, 596],[810, 459],[60, 459]]]},"properties":{"objectType":"annotation","name":"address","classification":{"name":"address","color":[0, 0, 255]}}},{"type":"Feature","id":"211e8ee5-7093-4fa8-9583-4a6cfbbae848","geometry":{"type":"Polygon","coordinates":[[[128, 191],[128, 345],[787, 345],[787, 191],[128, 191]]]},"properties":{"objectType":"annotation","name":"company","classification":{"name":"company","color":[255, 0, 0]}}}]}