{"type":"FeatureCollection","features":[{"type":"Feature","id":"f8361d2b-edbe-4bfc-a696-883d33cb88d4","geometry":{"type":"Polygon","coordinates":[[[51, 298],[51, 387],[524, 387],[524, 298],[51, 298]]]},"properties":{"objectType":"annotation","name":"address","classification":{"name":"address","color":[0, 0, 255]}}},{"type":"Feature","id":"a41b804d-5f9f-4c86-9912-a1d9122552d7","geometry":{"type":"Polygon","coordinates":[[[37, 257],[37, 296],[537, 296],[537, 257],[37, 257]]]},"properties":{"objectType":"annotation","name":"company","classification":{"name":"company","color":[255, 0, 0]}}},{"type":"Feature","id":"06b8c62f-a5c8-4a3b-a31d-5d133928cdde","geometry":{"type":"Polygon","coordinates":[[[561, 1788],[561, 1846],[705, 1846],[705, 1788],[561, 1788]]]},"properties":{"objectType":"annotation","name":"total","classification":{"name":"total","color":[255, 255, 0]}}},{"type":"Feature","id":"3bbcd540-8a34-4613-b10a-9cb7486a20cf","geometry":{"type":"Polygon","coordinates":[[[186, 697],[186, 734],[393, 734],[393, 697],[186, 697]]]},"properties":{"objectType":"annotation","name":"date","classification":{"name":"date","color":[0, 255, 0]}}}]}