{"type":"FeatureCollection","features":[{"type":"Feature","id":"7eca8b40-fb49-4951-9daa-a7775d4dcee8","geometry":{"type":"Polygon","coordinates":[[[123, 178],[123, 253],[593, 253],[593, 178],[123, 178]]]},"properties":{"objectType":"annotation","name":"company","classification":{"name":"company","color":[255, 0, 0]}}},{"type":"Feature","id":"816d4d44-9e03-441a-b057-608dbe7a7246","geometry":{"type":"Polygon","coordinates":[[[562, 891],[562, 924],[653, 924],[653, 891],[562, 891]]]},"properties":{"objectType":"annotation","name":"total","classification":{"name":"total","color":[255, 255, 0]}}},{"type":"Feature","id":"862081b8-3d6d-4b1b-80db-c02945899e17","geometry":{"type":"Polygon","coordinates":[[[236, 578],[236, 608],[388, 608],[388, 578],[236, 578]]]},"properties":{"objectType":"annotation","name":"date","classification":{"name":"date","color":[0, 255, 0]}}},{"type":"Feature","id":"c39869e3-5705-4722-bc9b-bcca27b62831","geometry":{"type":"Polygon","coordinates":[[[130, 303],[130, 409],[585, 409],[585, 303],[130, 303]]]},"properties":{"objectType":"annotation","name":"address","classification":{"name":"address","color":[0, 0, 255]}}}]}