{"type":"FeatureCollection","features":[{"type":"Feature","id":"9f00fae8-3a4a-46b0-a93d-a827e5b79409","geometry":{"type":"Polygon","coordinates":[[[597, 1059],[597, 1081],[665, 1081],[665, 1059],[597, 1059]]]},"properties":{"objectType":"annotation","name":"total","classification":{"name":"total","color":[255, 255, 0]}}},{"type":"Feature","id":"6f81670e-00d7-43ac-aa35-1d3a595110d8","geometry":{"type":"Polygon","coordinates":[[[223, 687],[223, 713],[367, 713],[367, 687],[223, 687]]]},"properties":{"objectType":"annotation","name":"date","classification":{"name":"date","color":[0, 255, 0]}}},{"type":"Feature","id":"456b2960-4a28-4694-a5cf-ee85c2c4eb50","geometry":{"type":"Polygon","coordinates":[[[178, 443],[178, 546],[537, 546],[537, 443],[178, 443]]]},"properties":{"objectType":"annotation","name":"address","classification":{"name":"address","color":[0, 0, 255]}}},{"type":"Feature","id":"d4aa71a1-c8c8-4747-b9b8-f3173e19873e","geometry":{"type":"Polygon","coordinates":[[[109, 333],[109, 360],[608, 360],[608, 333],[109, 333]]]},"properties":{"objectType":"annotation","name":"company","classification":{"name":"company","color":[255, 0, 0]}}}]}