{"type":"FeatureCollection","features":[{"type":"Feature","id":"a500b255-6aff-4b87-a428-ce527dc7d359","geometry":{"type":"Polygon","coordinates":[[[49, 341],[49, 441],[622, 441],[622, 341],[49, 341]]]},"properties":{"objectType":"annotation","name":"address","classification":{"name":"address","color":[0, 0, 255]}}},{"type":"Feature","id":"57cd4b96-d557-4ee2-8be6-6d83d9fa0a57","geometry":{"type":"Polygon","coordinates":[[[151, 268],[151, 311],[549, 311],[549, 268],[151, 268]]]},"properties":{"objectType":"annotation","name":"company","classification":{"name":"company","color":[255, 0, 0]}}},{"type":"Feature","id":"456d0881-d08d-4978-af84-66316c5aa13e","geometry":{"type":"Polygon","coordinates":[[[22, 1136],[22, 1178],[166, 1178],[166, 1136],[22, 1136]]]},"properties":{"objectType":"annotation","name":"date","classification":{"name":"date","color":[0, 255, 0]}}},{"type":"Feature","id":"ac893865-8642-491c-bf7a-370d2eb7d939","geometry":{"type":"Polygon","coordinates":[[[585, 942],[585, 979],[694, 979],[694, 942],[585, 942]]]},"properties":{"objectType":"annotation","name":"total","classification":{"name":"total","color":[255, 255, 0]}}}]}