{"type":"FeatureCollection","features":[{"type":"Feature","id":"254e9df5-21a7-40b8-864a-46848d07a54e","geometry":{"type":"Polygon","coordinates":[[[451, 890],[451, 924],[513, 924],[513, 890],[451, 890]]]},"properties":{"objectType":"annotation","name":"total","classification":{"name":"total","color":[255, 255, 0]}}},{"type":"Feature","id":"4590105e-5f0c-4efe-b60f-91b9c752d674","geometry":{"type":"Polygon","coordinates":[[[306, 468],[306, 488],[415, 488],[415, 468],[306, 468]]]},"properties":{"objectType":"annotation","name":"date","classification":{"name":"date","color":[0, 255, 0]}}},{"type":"Feature","id":"0c299091-2193-4e4b-afee-5af965b8f806","geometry":{"type":"Polygon","coordinates":[[[165, 98],[165, 144],[461, 144],[461, 98],[165, 98]]]},"properties":{"objectType":"annotation","name":"address","classification":{"name":"address","color":[0, 0, 255]}}},{"type":"Feature","id":"e5578415-c2c8-476d-bdf1-ef8c498a64a9","geometry":{"type":"Polygon","coordinates":[[[39, 75],[39, 97],[476, 97],[476, 75],[39, 75]]]},"properties":{"objectType":"annotation","name":"company","classification":{"name":"company","color":[255, 0, 0]}}}]}