{"type":"FeatureCollection","features":[{"type":"Feature","id":"112ef8ee-72aa-4a17-834e-311f3cd07467","geometry":{"type":"Polygon","coordinates":[[[538, 864],[538, 890],[612, 890],[612, 864],[538, 864]]]},"properties":{"objectType":"annotation","name":"total","classification":{"name":"total","color":[255, 255, 0]}}},{"type":"Feature","id":"d432ec08-9887-4eaa-8d31-718b9914346a","geometry":{"type":"Polygon","coordinates":[[[432, 466],[432, 493],[552, 493],[552, 466],[432, 466]]]},"properties":{"objectType":"annotation","name":"date","classification":{"name":"date","color":[0, 255, 0]}}},{"type":"Feature","id":"58a18a3d-bbe1-457a-a971-9c95b0371929","geometry":{"type":"Polygon","coordinates":[[[43, 226],[43, 338],[581, 338],[581, 226],[43, 226]]]},"properties":{"objectType":"annotation","name":"address","classification":{"name":"address","color":[0, 0, 255]}}},{"type":"Feature","id":"190de22a-79db-467f-bcb2-527cc00b76d4","geometry":{"type":"Polygon","coordinates":[[[39, 192],[39, 222],[400, 222],[400, 192],[39, 192]]]},"properties":{"objectType":"annotation","name":"company","classification":{"name":"company","color":[255, 0, 0]}}}]}