{"type":"FeatureCollection","features":[{"type":"Feature","id":"75eb3c46-43cc-44c7-9c2b-65773fce0c9f","geometry":{"type":"Polygon","coordinates":[[[90, 364],[90, 437],[838, 437],[838, 364],[90, 364]]]},"properties":{"objectType":"annotation","name":"company","classification":{"name":"company","color":[255, 0, 0]}}},{"type":"Feature","id":"1d02eb2f-b290-4049-9cf6-4fd57c65b3ff","geometry":{"type":"Polygon","coordinates":[[[93, 463],[93, 568],[850, 568],[850, 463],[93, 463]]]},"properties":{"objectType":"annotation","name":"address","classification":{"name":"address","color":[0, 0, 255]}}},{"type":"Feature","id":"4f7067e8-902c-46f7-8a4c-96003f63a629","geometry":{"type":"Polygon","coordinates":[[[247, 725],[247, 792],[460, 792],[460, 725],[247, 725]]]},"properties":{"objectType":"annotation","name":"date","classification":{"name":"date","color":[0, 255, 0]}}},{"type":"Feature","id":"be15cb6a-f503-42cb-ae84-1720b17cd235","geometry":{"type":"Polygon","coordinates":[[[585, 1608],[585, 1675],[827, 1675],[827, 1608],[585, 1608]]]},"properties":{"objectType":"annotation","name":"total","classification":{"name":"total","color":[255, 255, 0]}}}]}