{"type":"FeatureCollection","features":[{"type":"Feature","id":"c9fbec6f-9adf-458e-85fe-f810bf02205e","geometry":{"type":"Polygon","coordinates":[[[46, 128],[46, 181],[528, 181],[528, 128],[46, 128]]]},"properties":{"objectType":"annotation","name":"company","classification":{"name":"company","color":[255, 0, 0]}}},{"type":"Feature","id":"44cb751a-3123-4728-886e-2c12cbe5abb3","geometry":{"type":"Polygon","coordinates":[[[52, 186],[52, 232],[546, 232],[546, 186],[52, 186]]]},"properties":{"objectType":"annotation","name":"address","classification":{"name":"address","color":[0, 0, 255]}}},{"type":"Feature","id":"d53b8608-c9ed-48d4-9a90-952809e41836","geometry":{"type":"Polygon","coordinates":[[[479, 699],[479, 741],[564, 741],[564, 699],[479, 699]]]},"properties":{"objectType":"annotation","name":"total","classification":{"name":"total","color":[255, 255, 0]}}},{"type":"Feature","id":"160e6a7c-d409-4672-b515-5df458d7f191","geometry":{"type":"Polygon","coordinates":[[[413, 944],[413, 980],[550, 980],[550, 944],[413, 944]]]},"properties":{"objectType":"annotation","name":"date","classification":{"name":"date","color":[0, 255, 0]}}}]}