{"type":"FeatureCollection","features":[{"type":"Feature","id":"0458db4b-b6e4-4c52-adb4-dd4f4ef3eb8a","geometry":{"type":"Polygon","coordinates":[[[288, 167],[288, 208],[639, 208],[639, 167],[288, 167]]]},"properties":{"objectType":"annotation","name":"company","classification":{"name":"company","color":[255, 0, 0]}}},{"type":"Feature","id":"d0e81305-e3c1-48ce-9ca4-1f745b063732","geometry":{"type":"Polygon","coordinates":[[[636, 1215],[636, 1256],[743, 1256],[743, 1215],[636, 1215]]]},"properties":{"objectType":"annotation","name":"total","classification":{"name":"total","color":[255, 255, 0]}}},{"type":"Feature","id":"e098b6e4-9bc0-40d8-8c87-516c5d9a3bb5","geometry":{"type":"Polygon","coordinates":[[[619, 693],[619, 735],[763, 735],[763, 693],[619, 693]]]},"properties":{"objectType":"annotation","name":"date","classification":{"name":"date","color":[0, 255, 0]}}},{"type":"Feature","id":"d486a061-b18b-4e62-acb1-f66fbc9ed40f","geometry":{"type":"Polygon","coordinates":[[[284, 328],[284, 451],[638, 451],[638, 328],[284, 328]]]},"properties":{"objectType":"annotation","name":"address","classification":{"name":"address","color":[0, 0, 255]}}}]}