{"type":"FeatureCollection","features":[{"type":"Feature","id":"23c24e58-18c1-4872-b6d0-47e934b6f8b7","geometry":{"type":"Polygon","coordinates":[[[7, 1065],[7, 1092],[136, 1092],[136, 1065],[7, 1065]]]},"properties":{"objectType":"annotation","name":"date","classification":{"name":"date","color":[0, 255, 0]}}},{"type":"Feature","id":"2c2d12c5-67e0-4c5c-9cd2-6ae2c4d07118","geometry":{"type":"Polygon","coordinates":[[[582, 865],[582, 893],[660, 893],[660, 865],[582, 865]]]},"properties":{"objectType":"annotation","name":"total","classification":{"name":"total","color":[255, 255, 0]}}},{"type":"Feature","id":"f214d0c8-ad76-426e-b089-1aacf72f0803","geometry":{"type":"Polygon","coordinates":[[[53, 327],[53, 424],[591, 424],[591, 327],[53, 327]]]},"properties":{"objectType":"annotation","name":"address","classification":{"name":"address","color":[0, 0, 255]}}},{"type":"Feature","id":"ce53459b-98fe-444b-ac85-ab687a026ad5","geometry":{"type":"Polygon","coordinates":[[[150, 260],[150, 292],[511, 292],[511, 260],[150, 260]]]},"properties":{"objectType":"annotation","name":"company","classification":{"name":"company","color":[255, 0, 0]}}}]}