{"type":"FeatureCollection","features":[{"type":"Feature","id":"0236f49b-0526-430d-808a-e5cbee0a469c","geometry":{"type":"Polygon","coordinates":[[[698, 1318],[698, 1349],[765, 1349],[765, 1318],[698, 1318]]]},"properties":{"objectType":"annotation","name":"total","classification":{"name":"total","color":[255, 255, 0]}}},{"type":"Feature","id":"f03b675c-5943-4359-bed4-54037cd6d55f","geometry":{"type":"Polygon","coordinates":[[[675, 695],[675, 725],[843, 725],[843, 695],[675, 695]]]},"properties":{"objectType":"annotation","name":"date","classification":{"name":"date","color":[0, 255, 0]}}},{"type":"Feature","id":"dbec5f6d-8274-43b1-bba4-252ad3d06464","geometry":{"type":"Polygon","coordinates":[[[251, 319],[251, 444],[686, 444],[686, 319],[251, 319]]]},"properties":{"objectType":"annotation","name":"address","classification":{"name":"address","color":[0, 0, 255]}}},{"type":"Feature","id":"a27d5980-8ebe-4f47-a07e-ad307a703952","geometry":{"type":"Polygon","coordinates":[[[101, 217],[101, 254],[839, 254],[839, 217],[101, 217]]]},"properties":{"objectType":"annotation","name":"company","classification":{"name":"company","color":[255, 0, 0]}}}]}