{"type":"FeatureCollection","features":[{"type":"Feature","id":"4f7c98ac-9345-4b26-867a-53fdb32368f5","geometry":{"type":"Polygon","coordinates":[[[433, 2122],[433, 2164],[579, 2164],[579, 2122],[433, 2122]]]},"properties":{"objectType":"annotation","name":"date","classification":{"name":"date","color":[0, 255, 0]}}},{"type":"Feature","id":"1f859c79-5467-45ea-9a42-e7612c4f57c7","geometry":{"type":"Polygon","coordinates":[[[632, 1220],[632, 1262],[724, 1262],[724, 1220],[632, 1220]]]},"properties":{"objectType":"annotation","name":"total","classification":{"name":"total","color":[255, 255, 0]}}},{"type":"Feature","id":"a6d75816-0822-4fd3-a254-c819a5f05f12","geometry":{"type":"Polygon","coordinates":[[[54, 462],[54, 601],[489, 601],[489, 462],[54, 462]]]},"properties":{"objectType":"annotation","name":"address","classification":{"name":"address","color":[0, 0, 255]}}},{"type":"Feature","id":"7ff9d610-562d-402c-9973-df24934e6866","geometry":{"type":"Polygon","coordinates":[[[54, 424],[54, 466],[669, 466],[669, 424],[54, 424]]]},"properties":{"objectType":"annotation","name":"company","classification":{"name":"company","color":[255, 0, 0]}}}]}