{"type":"FeatureCollection","features":[{"type":"Feature","id":"3e03ae99-4907-4da0-a4f2-4d4842c85895","geometry":{"type":"Polygon","coordinates":[[[66, 192],[66, 276],[519, 276],[519, 192],[66, 192]]]},"properties":{"objectType":"annotation","name":"company","classification":{"name":"company","color":[255, 0, 0]}}},{"type":"Feature","id":"d484bac3-de8a-4a66-93cc-b10f023bfed6","geometry":{"type":"Polygon","coordinates":[[[88, 299],[88, 369],[493, 369],[493, 299],[88, 299]]]},"properties":{"objectType":"annotation","name":"address","classification":{"name":"address","color":[0, 0, 255]}}},{"type":"Feature","id":"9cec8283-4712-486e-8859-b01b8d6e7eb4","geometry":{"type":"Polygon","coordinates":[[[383, 595],[383, 623],[526, 623],[526, 595],[383, 595]]]},"properties":{"objectType":"annotation","name":"date","classification":{"name":"date","color":[0, 255, 0]}}},{"type":"Feature","id":"95cd04ed-5891-4099-a5c7-8509bc7bf3ba","geometry":{"type":"Polygon","coordinates":[[[405, 945],[405, 978],[552, 978],[552, 945],[405, 945]]]},"properties":{"objectType":"annotation","name":"total","classification":{"name":"total","color":[255, 255, 0]}}}]}