{"type":"FeatureCollection","features":[{"type":"Feature","id":"251df2dd-9aab-4dc7-88f0-0802726fec0e","geometry":{"type":"Polygon","coordinates":[[[626, 792],[626, 843],[773, 843],[773, 792],[626, 792]]]},"properties":{"objectType":"annotation","name":"date","classification":{"name":"date","color":[0, 255, 0]}}},{"type":"Feature","id":"15c00663-14f3-478b-ae6c-e750bf5529dc","geometry":{"type":"Polygon","coordinates":[[[189, 389],[189, 584],[626, 584],[626, 389],[189, 389]]]},"properties":{"objectType":"annotation","name":"address","classification":{"name":"address","color":[0, 0, 255]}}},{"type":"Feature","id":"a8da109a-cbe5-4df6-be78-e655b4933942","geometry":{"type":"Polygon","coordinates":[[[645, 1147],[645, 1183],[736, 1183],[736, 1147],[645, 1147]]]},"properties":{"objectType":"annotation","name":"total","classification":{"name":"total","color":[255, 255, 0]}}},{"type":"Feature","id":"afc1f335-1bd6-4065-b5e8-610fdfaa3dbc","geometry":{"type":"Polygon","coordinates":[[[149, 338],[149, 386],[649, 386],[649, 338],[149, 338]]]},"properties":{"objectType":"annotation","name":"company","classification":{"name":"company","color":[255, 0, 0]}}}]}