{"type":"FeatureCollection","features":[{"type":"Feature","id":"7c3ad2fe-53f2-463a-8c86-5715710739d9","geometry":{"type":"Polygon","coordinates":[[[46, 186],[46, 231],[509, 231],[509, 186],[46, 186]]]},"properties":{"objectType":"annotation","name":"address","classification":{"name":"address","color":[0, 0, 255]}}},{"type":"Feature","id":"30f4818a-d57b-448a-84d4-1439c1deee00","geometry":{"type":"Polygon","coordinates":[[[31, 138],[31, 176],[522, 176],[522, 138],[31, 138]]]},"properties":{"objectType":"annotation","name":"company","classification":{"name":"company","color":[255, 0, 0]}}},{"type":"Feature","id":"98c43806-c262-4e84-aaec-6e118f42049d","geometry":{"type":"Polygon","coordinates":[[[474, 700],[474, 745],[537, 745],[537, 700],[474, 700]]]},"properties":{"objectType":"annotation","name":"total","classification":{"name":"total","color":[255, 255, 0]}}},{"type":"Feature","id":"c3db1bc2-3404-4910-b03d-3d99bd9dfb79","geometry":{"type":"Polygon","coordinates":[[[166, 973],[166, 1003],[305, 1003],[305, 973],[166, 973]]]},"properties":{"objectType":"annotation","name":"date","classification":{"name":"date","color":[0, 255, 0]}}}]}