{"type":"FeatureCollection","features":[{"type":"Feature","id":"1f8e200c-aae0-411a-83d1-5d0b3b66fca1","geometry":{"type":"Polygon","coordinates":[[[227, 271],[227, 309],[611, 309],[611, 271],[227, 271]]]},"properties":{"objectType":"annotation","name":"company","classification":{"name":"company","color":[255, 0, 0]}}},{"type":"Feature","id":"1c6e631b-1e1b-4c8c-a556-ec00b93de272","geometry":{"type":"Polygon","coordinates":[[[112, 354],[112, 483],[708, 483],[708, 354],[112, 354]]]},"properties":{"objectType":"annotation","name":"address","classification":{"name":"address","color":[0, 0, 255]}}},{"type":"Feature","id":"7588e072-9a67-4ae9-944e-a9527ce37ca4","geometry":{"type":"Polygon","coordinates":[[[602, 1272],[602, 1340],[773, 1340],[773, 1272],[602, 1272]]]},"properties":{"objectType":"annotation","name":"total","classification":{"name":"total","color":[255, 255, 0]}}},{"type":"Feature","id":"12127a78-1ec2-489c-9bd5-7657efbc411b","geometry":{"type":"Polygon","coordinates":[[[192, 696],[192, 733],[402, 733],[402, 696],[192, 696]]]},"properties":{"objectType":"annotation","name":"date","classification":{"name":"date","color":[0, 255, 0]}}}]}