{"type":"FeatureCollection","features":[{"type":"Feature","id":"8e894ae8-a20a-4bc2-ae0c-4964fb911c8d","geometry":{"type":"Polygon","coordinates":[[[568, 1077],[568, 1105],[635, 1105],[635, 1077],[568, 1077]]]},"properties":{"objectType":"annotation","name":"total","classification":{"name":"total","color":[255, 255, 0]}}},{"type":"Feature","id":"d2ed4a88-df63-4a63-b2b2-e2813341c3d5","geometry":{"type":"Polygon","coordinates":[[[283, 725],[283, 754],[455, 754],[455, 725],[283, 725]]]},"properties":{"objectType":"annotation","name":"date","classification":{"name":"date","color":[0, 255, 0]}}},{"type":"Feature","id":"8dc2c6f5-cb6d-4e31-a92a-40f83863698c","geometry":{"type":"Polygon","coordinates":[[[115, 278],[115, 392],[701, 392],[701, 278],[115, 278]]]},"properties":{"objectType":"annotation","name":"address","classification":{"name":"address","color":[0, 0, 255]}}},{"type":"Feature","id":"a350f2b2-408f-43f1-8183-50068da352c4","geometry":{"type":"Polygon","coordinates":[[[123, 225],[123, 256],[788, 256],[788, 225],[123, 225]]]},"properties":{"objectType":"annotation","name":"company","classification":{"name":"company","color":[255, 0, 0]}}}]}