{"type":"FeatureCollection","features":[{"type":"Feature","id":"866f4679-f7b5-42e3-aff5-2c3bcfaa0536","geometry":{"type":"Polygon","coordinates":[[[572, 857],[572, 885],[641, 885],[641, 857],[572, 857]]]},"properties":{"objectType":"annotation","name":"total","classification":{"name":"total","color":[255, 255, 0]}}},{"type":"Feature","id":"2b24f5d8-3d77-4807-8ab2-32b5a25bdb61","geometry":{"type":"Polygon","coordinates":[[[20, 538],[20, 569],[160, 569],[160, 538],[20, 538]]]},"properties":{"objectType":"annotation","name":"date","classification":{"name":"date","color":[0, 255, 0]}}},{"type":"Feature","id":"e16d7a60-4c8e-4175-882c-bbbbe59587f5","geometry":{"type":"Polygon","coordinates":[[[35, 297],[35, 367],[639, 367],[639, 297],[35, 297]]]},"properties":{"objectType":"annotation","name":"address","classification":{"name":"address","color":[0, 0, 255]}}},{"type":"Feature","id":"3cca9c11-6929-46f4-bb54-7787e6d50695","geometry":{"type":"Polygon","coordinates":[[[90, 86],[90, 208],[619, 208],[619, 86],[90, 86]]]},"properties":{"objectType":"annotation","name":"company","classification":{"name":"company","color":[255, 0, 0]}}}]}