{"type":"FeatureCollection","features":[{"type":"Feature","id":"7be40935-b75d-4764-b124-742ecfa4c629","geometry":{"type":"Polygon","coordinates":[[[663, 1328],[663, 1360],[774, 1360],[774, 1328],[663, 1328]]]},"properties":{"objectType":"annotation","name":"total","classification":{"name":"total","color":[255, 255, 0]}}},{"type":"Feature","id":"a995a8fe-a484-4cef-a887-2041e1dc6dec","geometry":{"type":"Polygon","coordinates":[[[674, 700],[674, 731],[846, 731],[846, 700],[674, 700]]]},"properties":{"objectType":"annotation","name":"date","classification":{"name":"date","color":[0, 255, 0]}}},{"type":"Feature","id":"a9fc1182-f443-4d20-894b-8dd298aec3ce","geometry":{"type":"Polygon","coordinates":[[[253, 321],[253, 448],[689, 448],[689, 321],[253, 321]]]},"properties":{"objectType":"annotation","name":"address","classification":{"name":"address","color":[0, 0, 255]}}},{"type":"Feature","id":"e42279b3-2954-46e1-b373-9457a23172d6","geometry":{"type":"Polygon","coordinates":[[[103, 216],[103, 257],[842, 257],[842, 216],[103, 216]]]},"properties":{"objectType":"annotation","name":"company","classification":{"name":"company","color":[255, 0, 0]}}}]}