{"type":"FeatureCollection","features":[{"type":"Feature","id":"0c4de953-95b2-41d6-940a-1f32dfdc7d4d","geometry":{"type":"Polygon","coordinates":[[[659, 2140],[659, 2174],[768, 2174],[768, 2140],[659, 2140]]]},"properties":{"objectType":"annotation","name":"total","classification":{"name":"total","color":[255, 255, 0]}}},{"type":"Feature","id":"e7f6c53b-9a3e-4a04-baa6-daabc74a3567","geometry":{"type":"Polygon","coordinates":[[[229, 933],[229, 968],[410, 968],[410, 933],[229, 933]]]},"properties":{"objectType":"annotation","name":"date","classification":{"name":"date","color":[0, 255, 0]}}},{"type":"Feature","id":"d9b89b48-7923-4979-9863-b13b6a79d78b","geometry":{"type":"Polygon","coordinates":[[[17, 127],[17, 164],[581, 164],[581, 127],[17, 127]]]},"properties":{"objectType":"annotation","name":"company","classification":{"name":"company","color":[255, 0, 0]}}},{"type":"Feature","id":"64c137ee-5b04-47e8-83ce-64cf686b29a6","geometry":{"type":"Polygon","coordinates":[[[20, 191],[20, 230],[745, 230],[745, 191],[20, 191]]]},"properties":{"objectType":"annotation","name":"address","classification":{"name":"address","color":[0, 0, 255]}}}]}