{"type":"FeatureCollection","features":[{"type":"Feature","id":"ac800dea-58a4-44a8-b819-448202448679","geometry":{"type":"Polygon","coordinates":[[[667, 1243],[667, 1271],[779, 1271],[779, 1243],[667, 1243]]]},"properties":{"objectType":"annotation","name":"total","classification":{"name":"total","color":[255, 255, 0]}}},{"type":"Feature","id":"51fa7007-d372-4e14-96ba-6d9f5768e3e6","geometry":{"type":"Polygon","coordinates":[[[292, 455],[292, 484],[436, 484],[436, 455],[292, 455]]]},"properties":{"objectType":"annotation","name":"date","classification":{"name":"date","color":[0, 255, 0]}}},{"type":"Feature","id":"467fab8a-e87c-463f-8ba5-faad8e10f450","geometry":{"type":"Polygon","coordinates":[[[71, 192],[71, 341],[467, 341],[467, 192],[71, 192]]]},"properties":{"objectType":"annotation","name":"address","classification":{"name":"address","color":[0, 0, 255]}}},{"type":"Feature","id":"9397a2e9-4046-4de1-9f79-99337cbfb19f","geometry":{"type":"Polygon","coordinates":[[[70, 144],[70, 178],[600, 178],[600, 144],[70, 144]]]},"properties":{"objectType":"annotation","name":"company","classification":{"name":"company","color":[255, 0, 0]}}}]}