{"type":"FeatureCollection","features":[{"type":"Feature","id":"5cd0e06e-022c-414d-96c4-36de51275efa","geometry":{"type":"Polygon","coordinates":[[[1498, 1738],[1498, 2006],[2878, 2006],[2878, 1738],[1498, 1738]]]},"properties":{"objectType":"annotation","name":"address","classification":{"name":"address","color":[0, 0, 255]}}},{"type":"Feature","id":"9b9583ba-eaf1-4295-b531-948491091115","geometry":{"type":"Polygon","coordinates":[[[1490, 1475],[1490, 1580],[2829, 1580],[2829, 1475],[1490, 1475]]]},"properties":{"objectType":"annotation","name":"company","classification":{"name":"company","color":[255, 0, 0]}}},{"type":"Feature","id":"3c8680f9-ae78-4bee-9dda-7533d54a9539","geometry":{"type":"Polygon","coordinates":[[[2037, 2713],[2037, 2839],[2508, 2839],[2508, 2713],[2037, 2713]]]},"properties":{"objectType":"annotation","name":"date","classification":{"name":"date","color":[0, 255, 0]}}},{"type":"Feature","id":"93d1f936-4fb4-408b-834c-6cacb9637389","geometry":{"type":"Polygon","coordinates":[[[2650, 3207],[2650, 3358],[3027, 3358],[3027, 3207],[2650, 3207]]]},"properties":{"objectType":"annotation","name":"total","classification":{"name":"total","color":[255, 255, 0]}}}]}