{"type":"FeatureCollection","features":[{"type":"Feature","id":"2a6c03bd-0192-4cfa-ba40-01ffd9ecd00d","geometry":{"type":"Polygon","coordinates":[[[601, 1415],[601, 1454],[741, 1454],[741, 1415],[601, 1415]]]},"properties":{"objectType":"annotation","name":"total","classification":{"name":"total","color":[255, 255, 0]}}},{"type":"Feature","id":"63b1249c-38ce-41c5-91cb-2610c4f9240a","geometry":{"type":"Polygon","coordinates":[[[199, 694],[199, 731],[374, 731],[374, 694],[199, 694]]]},"properties":{"objectType":"annotation","name":"date","classification":{"name":"date","color":[0, 255, 0]}}},{"type":"Feature","id":"3fa09c30-8b67-42b8-8dfd-80bcc808ca8e","geometry":{"type":"Polygon","coordinates":[[[108, 353],[108, 478],[688, 478],[688, 353],[108, 353]]]},"properties":{"objectType":"annotation","name":"address","classification":{"name":"address","color":[0, 0, 255]}}},{"type":"Feature","id":"de4fc95a-6fba-4ef0-91f1-003224dca9a6","geometry":{"type":"Polygon","coordinates":[[[232, 267],[232, 304],[552, 304],[552, 267],[232, 267]]]},"properties":{"objectType":"annotation","name":"company","classification":{"name":"company","color":[255, 0, 0]}}}]}