{"type":"FeatureCollection","features":[{"type":"Feature","id":"8c51b779-54f0-4fb9-b953-2c03c2564f2d","geometry":{"type":"Polygon","coordinates":[[[180, 366],[180, 402],[671, 402],[671, 366],[180, 366]]]},"properties":{"objectType":"annotation","name":"company","classification":{"name":"company","color":[255, 0, 0]}}},{"type":"Feature","id":"a4fab3b5-55f0-4be8-a235-201306633da5","geometry":{"type":"Polygon","coordinates":[[[657, 772],[657, 805],[800, 805],[800, 772],[657, 772]]]},"properties":{"objectType":"annotation","name":"date","classification":{"name":"date","color":[0, 255, 0]}}},{"type":"Feature","id":"e39538c4-bbd6-46e0-ba7d-4a5647f91feb","geometry":{"type":"Polygon","coordinates":[[[196, 416],[196, 603],[671, 603],[671, 416],[196, 416]]]},"properties":{"objectType":"annotation","name":"address","classification":{"name":"address","color":[0, 0, 255]}}},{"type":"Feature","id":"6a835451-7774-460f-8f19-3b885074cbae","geometry":{"type":"Polygon","coordinates":[[[663, 1017],[663, 1060],[782, 1060],[782, 1017],[663, 1017]]]},"properties":{"objectType":"annotation","name":"total","classification":{"name":"total","color":[255, 255, 0]}}}]}