{"type":"FeatureCollection","features":[{"type":"Feature","id":"16be258a-3675-4678-b2cf-ed30caad7498","geometry":{"type":"Polygon","coordinates":[[[18, 134],[18, 215],[398, 215],[398, 134],[18, 134]]]},"properties":{"objectType":"annotation","name":"address","classification":{"name":"address","color":[0, 0, 255]}}},{"type":"Feature","id":"9a848395-cb07-49a7-bb87-33f321fa345e","geometry":{"type":"Polygon","coordinates":[[[11, 72],[11, 111],[542, 111],[542, 72],[11, 72]]]},"properties":{"objectType":"annotation","name":"company","classification":{"name":"company","color":[255, 0, 0]}}},{"type":"Feature","id":"23bb9de3-ed18-43c2-b8c9-f2433e5b87f8","geometry":{"type":"Polygon","coordinates":[[[489, 647],[489, 671],[558, 671],[558, 647],[489, 647]]]},"properties":{"objectType":"annotation","name":"total","classification":{"name":"total","color":[255, 255, 0]}}},{"type":"Feature","id":"eb624a52-a779-48ab-ac7a-60b0e6669481","geometry":{"type":"Polygon","coordinates":[[[9, 344],[9, 372],[171, 372],[171, 344],[9, 344]]]},"properties":{"objectType":"annotation","name":"date","classification":{"name":"date","color":[0, 255, 0]}}}]}