{"type":"FeatureCollection","features":[{"type":"Feature","id":"40f69f0e-a56a-404f-bb9e-2fe42d5cfb5b","geometry":{"type":"Polygon","coordinates":[[[382, 320],[382, 344],[682, 344],[682, 320],[382, 320]]]},"properties":{"objectType":"annotation","name":"company","classification":{"name":"company","color":[255, 0, 0]}}},{"type":"Feature","id":"f54d2e09-a892-4e55-aaf9-501ce577c5bd","geometry":{"type":"Polygon","coordinates":[[[406, 364],[406, 417],[655, 417],[655, 364],[406, 364]]]},"properties":{"objectType":"annotation","name":"address","classification":{"name":"address","color":[0, 0, 255]}}},{"type":"Feature","id":"630f1842-63a8-4165-b03b-8066478d1193","geometry":{"type":"Polygon","coordinates":[[[638, 830],[638, 849],[696, 849],[696, 830],[638, 830]]]},"properties":{"objectType":"annotation","name":"total","classification":{"name":"total","color":[255, 255, 0]}}},{"type":"Feature","id":"17b08aa7-df3c-437f-a8c2-496f61ef7f74","geometry":{"type":"Polygon","coordinates":[[[627, 515],[627, 531],[714, 531],[714, 515],[627, 515]]]},"properties":{"objectType":"annotation","name":"date","classification":{"name":"date","color":[0, 255, 0]}}}]}