{"type":"FeatureCollection","features":[{"type":"Feature","id":"a9cd3ac0-ab3a-4b02-bb16-3369e18bb68a","geometry":{"type":"Polygon","coordinates":[[[450, 1020],[450, 1052],[508, 1052],[508, 1020],[450, 1020]]]},"properties":{"objectType":"annotation","name":"total","classification":{"name":"total","color":[255, 255, 0]}}},{"type":"Feature","id":"ee2be541-d060-42df-a572-65c1b8891334","geometry":{"type":"Polygon","coordinates":[[[394, 388],[394, 406],[513, 406],[513, 388],[394, 388]]]},"properties":{"objectType":"annotation","name":"date","classification":{"name":"date","color":[0, 255, 0]}}},{"type":"Feature","id":"5747b541-e2a8-44ed-9096-b0ef610b3768","geometry":{"type":"Polygon","coordinates":[[[160, 176],[160, 222],[457, 222],[457, 176],[160, 176]]]},"properties":{"objectType":"annotation","name":"address","classification":{"name":"address","color":[0, 0, 255]}}},{"type":"Feature","id":"f337c6bb-97e6-4029-9d36-3ebe47ac7bd5","geometry":{"type":"Polygon","coordinates":[[[36, 154],[36, 175],[473, 175],[473, 154],[36, 154]]]},"properties":{"objectType":"annotation","name":"company","classification":{"name":"company","color":[255, 0, 0]}}}]}