{"type":"FeatureCollection","features":[{"type":"Feature","id":"de895804-2569-45de-9f8c-7b699acf9857","geometry":{"type":"Polygon","coordinates":[[[63, 121],[63, 167],[753, 167],[753, 121],[63, 121]]]},"properties":{"objectType":"annotation","name":"company","classification":{"name":"company","color":[255, 0, 0]}}},{"type":"Feature","id":"fac6686b-6ceb-4033-9dc2-ecaa7953cd42","geometry":{"type":"Polygon","coordinates":[[[13, 225],[13, 375],[823, 375],[823, 225],[13, 225]]]},"properties":{"objectType":"annotation","name":"address","classification":{"name":"address","color":[0, 0, 255]}}},{"type":"Feature","id":"9a412af6-6063-439e-a064-b8a321cb2bf6","geometry":{"type":"Polygon","coordinates":[[[364, 781],[364, 839],[590, 839],[590, 781],[364, 781]]]},"properties":{"objectType":"annotation","name":"date","classification":{"name":"date","color":[0, 255, 0]}}},{"type":"Feature","id":"e39b3146-8a1d-4429-a31c-66128c356c3b","geometry":{"type":"Polygon","coordinates":[[[693, 1273],[693, 1330],[808, 1330],[808, 1273],[693, 1273]]]},"properties":{"objectType":"annotation","name":"total","classification":{"name":"total","color":[255, 255, 0]}}}]}