{"type":"FeatureCollection","features":[{"type":"Feature","id":"2e1b7bfc-9156-4687-a363-65b65888ba35","geometry":{"type":"Polygon","coordinates":[[[452, 949],[452, 969],[521, 969],[521, 949],[452, 949]]]},"properties":{"objectType":"annotation","name":"total","classification":{"name":"total","color":[255, 255, 0]}}},{"type":"Feature","id":"f5599972-4d4e-45c4-af68-4166a02daed7","geometry":{"type":"Polygon","coordinates":[[[462, 501],[462, 523],[577, 523],[577, 501],[462, 501]]]},"properties":{"objectType":"annotation","name":"date","classification":{"name":"date","color":[0, 255, 0]}}},{"type":"Feature","id":"17f13819-cf57-4848-b8d0-84b31dee3c8c","geometry":{"type":"Polygon","coordinates":[[[177, 201],[177, 289],[420, 289],[420, 201],[177, 201]]]},"properties":{"objectType":"annotation","name":"address","classification":{"name":"address","color":[0, 0, 255]}}},{"type":"Feature","id":"c8c21631-d32b-464d-904a-1acd71b1faeb","geometry":{"type":"Polygon","coordinates":[[[95, 138],[95, 164],[502, 164],[502, 138],[95, 138]]]},"properties":{"objectType":"annotation","name":"company","classification":{"name":"company","color":[255, 0, 0]}}}]}