{"type":"FeatureCollection","features":[{"type":"Feature","id":"bfa383ff-2033-4c71-9698-3fed816d2ade","geometry":{"type":"Polygon","coordinates":[[[95, 208],[95, 250],[831, 250],[831, 208],[95, 208]]]},"properties":{"objectType":"annotation","name":"company","classification":{"name":"company","color":[255, 0, 0]}}},{"type":"Feature","id":"08e5e8cb-4e5d-4414-8f34-23827c487fc9","geometry":{"type":"Polygon","coordinates":[[[676, 1318],[676, 1349],[763, 1349],[763, 1318],[676, 1318]]]},"properties":{"objectType":"annotation","name":"total","classification":{"name":"total","color":[255, 255, 0]}}},{"type":"Feature","id":"f769fbc1-750f-444c-873c-afabc9e4cbb3","geometry":{"type":"Polygon","coordinates":[[[671, 693],[671, 723],[839, 723],[839, 693],[671, 693]]]},"properties":{"objectType":"annotation","name":"date","classification":{"name":"date","color":[0, 255, 0]}}},{"type":"Feature","id":"683d592a-3ccf-4282-9738-f5e65d2d0eea","geometry":{"type":"Polygon","coordinates":[[[246, 316],[246, 445],[681, 445],[681, 316],[246, 316]]]},"properties":{"objectType":"annotation","name":"address","classification":{"name":"address","color":[0, 0, 255]}}}]}