{"type":"FeatureCollection","features":[{"type":"Feature","id":"458b1992-fb8d-4331-ba85-c5b20c2edbad","geometry":{"type":"Polygon","coordinates":[[[551, 607],[551, 641],[700, 641],[700, 607],[551, 607]]]},"properties":{"objectType":"annotation","name":"date","classification":{"name":"date","color":[0, 255, 0]}}},{"type":"Feature","id":"6f52c758-14a8-431b-b77a-d9f07c460ec6","geometry":{"type":"Polygon","coordinates":[[[58, 303],[58, 439],[568, 439],[568, 303],[58, 303]]]},"properties":{"objectType":"annotation","name":"address","classification":{"name":"address","color":[0, 0, 255]}}},{"type":"Feature","id":"96f61f5d-1a16-4605-87e2-bda9773ff2ac","geometry":{"type":"Polygon","coordinates":[[[59, 253],[59, 289],[510, 289],[510, 253],[59, 253]]]},"properties":{"objectType":"annotation","name":"company","classification":{"name":"company","color":[255, 0, 0]}}},{"type":"Feature","id":"f5abbf81-bc94-40c1-ab8f-8cac9d3c5ac2","geometry":{"type":"Polygon","coordinates":[[[680, 1359],[680, 1393],[775, 1393],[775, 1359],[680, 1359]]]},"properties":{"objectType":"annotation","name":"total","classification":{"name":"total","color":[255, 255, 0]}}}]}