{"type":"FeatureCollection","features":[{"type":"Feature","id":"bcb4c5ee-26cc-4562-a6a2-8f090aa26c59","geometry":{"type":"Polygon","coordinates":[[[605, 801],[605, 821],[663, 821],[663, 801],[605, 801]]]},"properties":{"objectType":"annotation","name":"total","classification":{"name":"total","color":[255, 255, 0]}}},{"type":"Feature","id":"852036a4-f681-4d3b-a6b8-7b34f6dbb241","geometry":{"type":"Polygon","coordinates":[[[222, 479],[222, 505],[365, 505],[365, 479],[222, 479]]]},"properties":{"objectType":"annotation","name":"date","classification":{"name":"date","color":[0, 255, 0]}}},{"type":"Feature","id":"9c7ee15e-0119-41c4-911e-cdef1689a3df","geometry":{"type":"Polygon","coordinates":[[[113, 236],[113, 306],[600, 306],[600, 236],[113, 236]]]},"properties":{"objectType":"annotation","name":"address","classification":{"name":"address","color":[0, 0, 255]}}},{"type":"Feature","id":"e1a1f9b3-692a-4ef2-b736-a8bf498102df","geometry":{"type":"Polygon","coordinates":[[[148, 195],[148, 223],[567, 223],[567, 195],[148, 195]]]},"properties":{"objectType":"annotation","name":"company","classification":{"name":"company","color":[255, 0, 0]}}}]}