{"type":"FeatureCollection","features":[{"type":"Feature","id":"99c3a7a6-9e68-44c4-ad8a-7d4c3aaf61c4","geometry":{"type":"Polygon","coordinates":[[[46, 205],[46, 270],[521, 270],[521, 205],[46, 205]]]},"properties":{"objectType":"annotation","name":"company","classification":{"name":"company","color":[255, 0, 0]}}},{"type":"Feature","id":"52577f2c-bd14-4b54-8da5-1603e832bfd6","geometry":{"type":"Polygon","coordinates":[[[84, 305],[84, 382],[478, 382],[478, 305],[84, 305]]]},"properties":{"objectType":"annotation","name":"address","classification":{"name":"address","color":[0, 0, 255]}}},{"type":"Feature","id":"bf0a214f-7499-4c40-ad0c-44331e48d9f7","geometry":{"type":"Polygon","coordinates":[[[370, 592],[370, 637],[528, 637],[528, 592],[370, 592]]]},"properties":{"objectType":"annotation","name":"date","classification":{"name":"date","color":[0, 255, 0]}}},{"type":"Feature","id":"00bce7f9-85c3-473d-99c1-8df4ae9dd919","geometry":{"type":"Polygon","coordinates":[[[432, 944],[432, 980],[538, 980],[538, 944],[432, 944]]]},"properties":{"objectType":"annotation","name":"total","classification":{"name":"total","color":[255, 255, 0]}}}]}