{"type":"FeatureCollection","features":[{"type":"Feature","id":"7d1e4a01-fce0-4ec9-8d7e-94bb40e5fc21","geometry":{"type":"Polygon","coordinates":[[[154, 134],[154, 154],[471, 154],[471, 134],[154, 134]]]},"properties":{"objectType":"annotation","name":"company","classification":{"name":"company","color":[255, 0, 0]}}},{"type":"Feature","id":"dd209577-336f-4021-8ba1-042764b04a67","geometry":{"type":"Polygon","coordinates":[[[115, 337],[115, 355],[212, 355],[212, 337],[115, 337]]]},"properties":{"objectType":"annotation","name":"date","classification":{"name":"date","color":[0, 255, 0]}}},{"type":"Feature","id":"d8033ad0-014d-44a6-8ee8-d95cab69a372","geometry":{"type":"Polygon","coordinates":[[[132, 182],[132, 268],[491, 268],[491, 182],[132, 182]]]},"properties":{"objectType":"annotation","name":"address","classification":{"name":"address","color":[0, 0, 255]}}},{"type":"Feature","id":"a468754b-52e3-414e-a356-80e7a6c123b1","geometry":{"type":"Polygon","coordinates":[[[408, 534],[408, 568],[540, 568],[540, 534],[408, 534]]]},"properties":{"objectType":"annotation","name":"total","classification":{"name":"total","color":[255, 255, 0]}}}]}