{"type":"FeatureCollection","features":[{"type":"Feature","id":"d035bab1-c010-4bd8-8808-be6d44499d0c","geometry":{"type":"Polygon","coordinates":[[[105, 353],[105, 478],[687, 478],[687, 353],[105, 353]]]},"properties":{"objectType":"annotation","name":"address","classification":{"name":"address","color":[0, 0, 255]}}},{"type":"Feature","id":"ccd29abd-2024-4952-bf44-0adad72bf980","geometry":{"type":"Polygon","coordinates":[[[215, 268],[215, 305],[564, 305],[564, 268],[215, 268]]]},"properties":{"objectType":"annotation","name":"company","classification":{"name":"company","color":[255, 0, 0]}}},{"type":"Feature","id":"5100cb4f-e5ac-4fff-b909-63dfc11de709","geometry":{"type":"Polygon","coordinates":[[[189, 694],[189, 737],[386, 737],[386, 694],[189, 694]]]},"properties":{"objectType":"annotation","name":"date","classification":{"name":"date","color":[0, 255, 0]}}},{"type":"Feature","id":"c352cd84-9994-4ca6-a016-885601b5e589","geometry":{"type":"Polygon","coordinates":[[[598, 1292],[598, 1341],[751, 1341],[751, 1292],[598, 1292]]]},"properties":{"objectType":"annotation","name":"total","classification":{"name":"total","color":[255, 255, 0]}}}]}