{"type":"FeatureCollection","features":[{"type":"Feature","id":"0f22c5e0-6e3b-4180-abf7-a979dde09197","geometry":{"type":"Polygon","coordinates":[[[340, 1903],[340, 1926],[470, 1926],[470, 1903],[340, 1903]]]},"properties":{"objectType":"annotation","name":"date","classification":{"name":"date","color":[0, 255, 0]}}},{"type":"Feature","id":"58985acf-684e-49dd-8cd1-ce78ad5c2bd3","geometry":{"type":"Polygon","coordinates":[[[599, 990],[599, 1012],[654, 1012],[654, 990],[599, 990]]]},"properties":{"objectType":"annotation","name":"total","classification":{"name":"total","color":[255, 255, 0]}}},{"type":"Feature","id":"b090a76d-0d87-476b-8a4a-4901f01529d9","geometry":{"type":"Polygon","coordinates":[[[166, 435],[166, 537],[680, 537],[680, 435],[166, 435]]]},"properties":{"objectType":"annotation","name":"address","classification":{"name":"address","color":[0, 0, 255]}}},{"type":"Feature","id":"2f837e46-69c2-443b-856c-df5b0f1e50b3","geometry":{"type":"Polygon","coordinates":[[[154, 400],[154, 434],[543, 434],[543, 400],[154, 400]]]},"properties":{"objectType":"annotation","name":"company","classification":{"name":"company","color":[255, 0, 0]}}}]}