{"type":"FeatureCollection","features":[{"type":"Feature","id":"f4b5c9cb-79b0-42cc-8dfd-c9529ad21acf","geometry":{"type":"Polygon","coordinates":[[[1614, 380],[1614, 465],[3139, 465],[3139, 380],[1614, 380]]]},"properties":{"objectType":"annotation","name":"company","classification":{"name":"company","color":[255, 0, 0]}}},{"type":"Feature","id":"51cf6bbe-267e-43e1-8802-d45d843a7c49","geometry":{"type":"Polygon","coordinates":[[[1650, 594],[1650, 920],[3103, 920],[3103, 594],[1650, 594]]]},"properties":{"objectType":"annotation","name":"address","classification":{"name":"address","color":[0, 0, 255]}}},{"type":"Feature","id":"442c4e0d-d0e5-451c-975b-1991b9ecf135","geometry":{"type":"Polygon","coordinates":[[[2787, 2698],[2787, 2817],[3121, 2817],[3121, 2698],[2787, 2698]]]},"properties":{"objectType":"annotation","name":"total","classification":{"name":"total","color":[255, 255, 0]}}},{"type":"Feature","id":"574f0ecb-f1df-4421-8cd7-01add15add10","geometry":{"type":"Polygon","coordinates":[[[1777, 1308],[1777, 1434],[2192, 1434],[2192, 1308],[1777, 1308]]]},"properties":{"objectType":"annotation","name":"date","classification":{"name":"date","color":[0, 255, 0]}}}]}