{"type":"FeatureCollection","features":[{"type":"Feature","id":"490633ef-73f1-4eb5-97b1-8314a02d00e3","geometry":{"type":"Polygon","coordinates":[[[46, 133],[46, 170],[523, 170],[523, 133],[46, 133]]]},"properties":{"objectType":"annotation","name":"company","classification":{"name":"company","color":[255, 0, 0]}}},{"type":"Feature","id":"3cc91dc7-ffaa-49a7-aaf6-a12ff4bdf7b9","geometry":{"type":"Polygon","coordinates":[[[396, 943],[396, 968],[526, 968],[526, 943],[396, 943]]]},"properties":{"objectType":"annotation","name":"date","classification":{"name":"date","color":[0, 255, 0]}}},{"type":"Feature","id":"3dd16bc3-d8f6-47c3-869e-4a4707031485","geometry":{"type":"Polygon","coordinates":[[[469, 558],[469, 581],[546, 581],[546, 558],[469, 558]]]},"properties":{"objectType":"annotation","name":"total","classification":{"name":"total","color":[255, 255, 0]}}},{"type":"Feature","id":"8db0390c-0aa1-47dd-a22a-b5c63c7b30e6","geometry":{"type":"Polygon","coordinates":[[[35, 181],[35, 227],[542, 227],[542, 181],[35, 181]]]},"properties":{"objectType":"annotation","name":"address","classification":{"name":"address","color":[0, 0, 255]}}}]}