{"type":"FeatureCollection","features":[{"type":"Feature","id":"e1417323-b6bd-44ab-a223-6c59211b5d12","geometry":{"type":"Polygon","coordinates":[[[642, 1696],[642, 1727],[728, 1727],[728, 1696],[642, 1696]]]},"properties":{"objectType":"annotation","name":"total","classification":{"name":"total","color":[255, 255, 0]}}},{"type":"Feature","id":"6855f52d-1aa4-4984-8a79-04a33ed67a93","geometry":{"type":"Polygon","coordinates":[[[204, 822],[204, 856],[366, 856],[366, 822],[204, 822]]]},"properties":{"objectType":"annotation","name":"date","classification":{"name":"date","color":[0, 255, 0]}}},{"type":"Feature","id":"cde6d936-bc08-44f4-a436-36e91c4d1ce7","geometry":{"type":"Polygon","coordinates":[[[89, 445],[89, 532],[682, 532],[682, 445],[89, 445]]]},"properties":{"objectType":"annotation","name":"address","classification":{"name":"address","color":[0, 0, 255]}}},{"type":"Feature","id":"965c798c-a1b7-4b60-ac52-80ebcb981ec4","geometry":{"type":"Polygon","coordinates":[[[161, 364],[161, 405],[441, 405],[441, 364],[161, 364]]]},"properties":{"objectType":"annotation","name":"company","classification":{"name":"company","color":[255, 0, 0]}}}]}