{"type":"FeatureCollection","features":[{"type":"Feature","id":"6909080f-260f-48f4-96bf-23526df50411","geometry":{"type":"Polygon","coordinates":[[[71, 237],[71, 264],[388, 264],[388, 237],[71, 237]]]},"properties":{"objectType":"annotation","name":"company","classification":{"name":"company","color":[255, 0, 0]}}},{"type":"Feature","id":"295efb0d-9283-4c2d-b2ed-dc36d96f0679","geometry":{"type":"Polygon","coordinates":[[[92, 321],[92, 452],[384, 452],[384, 321],[92, 321]]]},"properties":{"objectType":"annotation","name":"address","classification":{"name":"address","color":[0, 0, 255]}}},{"type":"Feature","id":"f69f99ea-f430-4606-bf92-89d566c9cf5b","geometry":{"type":"Polygon","coordinates":[[[49, 496],[49, 522],[189, 522],[189, 496],[49, 496]]]},"properties":{"objectType":"annotation","name":"date","classification":{"name":"date","color":[0, 255, 0]}}},{"type":"Feature","id":"69c94ca4-041f-4e2a-a7a2-f226be7d0b83","geometry":{"type":"Polygon","coordinates":[[[346, 976],[346, 1021],[410, 1021],[410, 976],[346, 976]]]},"properties":{"objectType":"annotation","name":"total","classification":{"name":"total","color":[255, 255, 0]}}}]}