{"type":"FeatureCollection","features":[{"type":"Feature","id":"432e999a-5ec3-4d08-b803-51e93f6b2e36","geometry":{"type":"Polygon","coordinates":[[[153, 333],[153, 378],[715, 378],[715, 333],[153, 333]]]},"properties":{"objectType":"annotation","name":"company","classification":{"name":"company","color":[255, 0, 0]}}},{"type":"Feature","id":"42e88442-e468-459e-8fc3-97dbaaa0046f","geometry":{"type":"Polygon","coordinates":[[[30, 1386],[30, 1430],[215, 1430],[215, 1386],[30, 1386]]]},"properties":{"objectType":"annotation","name":"date","classification":{"name":"date","color":[0, 255, 0]}}},{"type":"Feature","id":"9696c54f-7dee-4182-a636-937d95fb3eea","geometry":{"type":"Polygon","coordinates":[[[748, 1052],[748, 1095],[865, 1095],[865, 1052],[748, 1052]]]},"properties":{"objectType":"annotation","name":"total","classification":{"name":"total","color":[255, 255, 0]}}},{"type":"Feature","id":"7f0d373c-3fe2-4f0b-bd90-98f2b6fa03b8","geometry":{"type":"Polygon","coordinates":[[[86, 419],[86, 545],[781, 545],[781, 419],[86, 419]]]},"properties":{"objectType":"annotation","name":"address","classification":{"name":"address","color":[0, 0, 255]}}}]}