{"type":"FeatureCollection","features":[{"type":"Feature","id":"7d4e24df-fb30-44f9-ae06-c8e1a562e582","geometry":{"type":"Polygon","coordinates":[[[2966, 2954],[2966, 3006],[3073, 3006],[3073, 2954],[2966, 2954]]]},"properties":{"objectType":"annotation","name":"total","classification":{"name":"total","color":[255, 255, 0]}}},{"type":"Feature","id":"324bf756-49a1-423d-a0b6-f3f44bd80031","geometry":{"type":"Polygon","coordinates":[[[1752, 1888],[1752, 2062],[2891, 2062],[2891, 1888],[1752, 1888]]]},"properties":{"objectType":"annotation","name":"address","classification":{"name":"address","color":[0, 0, 255]}}},{"type":"Feature","id":"43b0e171-24ba-4647-8757-1604e597522d","geometry":{"type":"Polygon","coordinates":[[[2080, 1737],[2080, 1806],[2390, 1806],[2390, 1737],[2080, 1737]]]},"properties":{"objectType":"annotation","name":"date","classification":{"name":"date","color":[0, 255, 0]}}},{"type":"Feature","id":"109af29b-e983-4d87-a5df-555a08ac6d0e","geometry":{"type":"Polygon","coordinates":[[[1652, 1639],[1652, 1736],[2976, 1736],[2976, 1639],[1652, 1639]]]},"properties":{"objectType":"annotation","name":"company","classification":{"name":"company","color":[255, 0, 0]}}}]}