{"type":"FeatureCollection","features":[{"type":"Feature","id":"ab2055ac-e33c-4db6-bc08-db123cb8b48e","geometry":{"type":"Polygon","coordinates":[[[34, 128],[34, 172],[533, 172],[533, 128],[34, 128]]]},"properties":{"objectType":"annotation","name":"company","classification":{"name":"company","color":[255, 0, 0]}}},{"type":"Feature","id":"3cc6e4d4-d2c0-451e-9c52-f23f8c4e8264","geometry":{"type":"Polygon","coordinates":[[[22, 180],[22, 217],[540, 217],[540, 180],[22, 180]]]},"properties":{"objectType":"annotation","name":"address","classification":{"name":"address","color":[0, 0, 255]}}},{"type":"Feature","id":"f8a69c7f-17a0-4e7a-91d1-ae8c55475ac8","geometry":{"type":"Polygon","coordinates":[[[398, 944],[398, 973],[542, 973],[542, 944],[398, 944]]]},"properties":{"objectType":"annotation","name":"date","classification":{"name":"date","color":[0, 255, 0]}}},{"type":"Feature","id":"bdd46b46-7e12-49de-bffb-5b7732f2fb14","geometry":{"type":"Polygon","coordinates":[[[473, 694],[473, 733],[554, 733],[554, 694],[473, 694]]]},"properties":{"objectType":"annotation","name":"total","classification":{"name":"total","color":[255, 255, 0]}}}]}