{"type":"FeatureCollection","features":[{"type":"Feature","id":"2fbeb31f-3481-4b4c-9202-bce59ffe0e98","geometry":{"type":"Polygon","coordinates":[[[72, 240],[72, 344],[561, 344],[561, 240],[72, 240]]]},"properties":{"objectType":"annotation","name":"company","classification":{"name":"company","color":[255, 0, 0]}}},{"type":"Feature","id":"b2843ab1-ef46-4976-bb35-fa47782e2ee6","geometry":{"type":"Polygon","coordinates":[[[72, 345],[72, 432],[561, 432],[561, 345],[72, 345]]]},"properties":{"objectType":"annotation","name":"address","classification":{"name":"address","color":[0, 0, 255]}}},{"type":"Feature","id":"99bd63af-9b28-493c-8972-accd41907860","geometry":{"type":"Polygon","coordinates":[[[457, 923],[457, 976],[595, 976],[595, 923],[457, 923]]]},"properties":{"objectType":"annotation","name":"total","classification":{"name":"total","color":[255, 255, 0]}}},{"type":"Feature","id":"4cb3d625-f127-44a1-aad6-e82caae506a5","geometry":{"type":"Polygon","coordinates":[[[108, 575],[108, 612],[245, 612],[245, 575],[108, 575]]]},"properties":{"objectType":"annotation","name":"date","classification":{"name":"date","color":[0, 255, 0]}}}]}