{"type":"FeatureCollection","features":[{"type":"Feature","id":"a5a5bef5-1adc-4220-b124-8bc5cae7f8c0","geometry":{"type":"Polygon","coordinates":[[[751, 1042],[751, 1075],[818, 1075],[818, 1042],[751, 1042]]]},"properties":{"objectType":"annotation","name":"total","classification":{"name":"total","color":[255, 255, 0]}}},{"type":"Feature","id":"c8bf47a4-0512-486f-9976-2a95051dede2","geometry":{"type":"Polygon","coordinates":[[[321, 640],[321, 676],[480, 676],[480, 640],[321, 640]]]},"properties":{"objectType":"annotation","name":"date","classification":{"name":"date","color":[0, 255, 0]}}},{"type":"Feature","id":"3264fe5f-354e-4755-a999-0f7f5f80546b","geometry":{"type":"Polygon","coordinates":[[[291, 208],[291, 250],[566, 250],[566, 208],[291, 208]]]},"properties":{"objectType":"annotation","name":"company","classification":{"name":"company","color":[255, 0, 0]}}},{"type":"Feature","id":"85252fef-0899-4d5a-9686-620bebe634c3","geometry":{"type":"Polygon","coordinates":[[[197, 290],[197, 468],[806, 468],[806, 290],[197, 290]]]},"properties":{"objectType":"annotation","name":"address","classification":{"name":"address","color":[0, 0, 255]}}}]}