{"type":"FeatureCollection","features":[{"type":"Feature","id":"ef3a14fb-e626-47aa-ae5f-d045176ad2d6","geometry":{"type":"Polygon","coordinates":[[[25, 325],[25, 396],[342, 396],[342, 325],[25, 325]]]},"properties":{"objectType":"annotation","name":"address","classification":{"name":"address","color":[0, 0, 255]}}},{"type":"Feature","id":"14c0e895-f35c-4181-b3a8-4b981ee59894","geometry":{"type":"Polygon","coordinates":[[[11, 269],[11, 316],[471, 316],[471, 269],[11, 269]]]},"properties":{"objectType":"annotation","name":"company","classification":{"name":"company","color":[255, 0, 0]}}},{"type":"Feature","id":"5f20684f-64eb-45fb-b1b2-abf9fcd198cb","geometry":{"type":"Polygon","coordinates":[[[219, 502],[219, 543],[358, 543],[358, 502],[219, 502]]]},"properties":{"objectType":"annotation","name":"date","classification":{"name":"date","color":[0, 255, 0]}}},{"type":"Feature","id":"366a236e-5863-4589-8559-8341737a276c","geometry":{"type":"Polygon","coordinates":[[[457, 1005],[457, 1056],[588, 1056],[588, 1005],[457, 1005]]]},"properties":{"objectType":"annotation","name":"total","classification":{"name":"total","color":[255, 255, 0]}}}]}