{"type":"FeatureCollection","features":[{"type":"Feature","id":"188e7fd4-2c92-4bf8-b55a-2f14661d9545","geometry":{"type":"Polygon","coordinates":[[[48, 121],[48, 159],[578, 159],[578, 121],[48, 121]]]},"properties":{"objectType":"annotation","name":"company","classification":{"name":"company","color":[255, 0, 0]}}},{"type":"Feature","id":"70c701a5-d33d-45ff-9e37-5ce3bde2767f","geometry":{"type":"Polygon","coordinates":[[[167, 160],[167, 283],[450, 283],[450, 160],[167, 160]]]},"properties":{"objectType":"annotation","name":"address","classification":{"name":"address","color":[0, 0, 255]}}},{"type":"Feature","id":"b4771460-5cf1-44d6-a4e3-1bc19a39f6e2","geometry":{"type":"Polygon","coordinates":[[[237, 423],[237, 449],[366, 449],[366, 423],[237, 423]]]},"properties":{"objectType":"annotation","name":"date","classification":{"name":"date","color":[0, 255, 0]}}},{"type":"Feature","id":"4327b70e-8710-4543-9202-58d1ebdc5c48","geometry":{"type":"Polygon","coordinates":[[[469, 932],[469, 961],[555, 961],[555, 932],[469, 932]]]},"properties":{"objectType":"annotation","name":"total","classification":{"name":"total","color":[255, 255, 0]}}}]}