{"type":"FeatureCollection","features":[{"type":"Feature","id":"be965d5c-a8de-4694-9937-187864f5bf28","geometry":{"type":"Polygon","coordinates":[[[215, 308],[215, 367],[675, 367],[675, 308],[215, 308]]]},"properties":{"objectType":"annotation","name":"company","classification":{"name":"company","color":[255, 0, 0]}}},{"type":"Feature","id":"3588e3d8-19ab-48f2-ab44-3638a35dfb64","geometry":{"type":"Polygon","coordinates":[[[98, 428],[98, 574],[743, 574],[743, 428],[98, 428]]]},"properties":{"objectType":"annotation","name":"address","classification":{"name":"address","color":[0, 0, 255]}}},{"type":"Feature","id":"e1565a1a-2ba1-4f17-92d3-506e908f57e6","geometry":{"type":"Polygon","coordinates":[[[728, 1234],[728, 1287],[834, 1287],[834, 1234],[728, 1234]]]},"properties":{"objectType":"annotation","name":"total","classification":{"name":"total","color":[255, 255, 0]}}},{"type":"Feature","id":"08252a74-acd8-4b16-b709-5b68abae2152","geometry":{"type":"Polygon","coordinates":[[[50, 1532],[50, 1571],[225, 1571],[225, 1532],[50, 1532]]]},"properties":{"objectType":"annotation","name":"date","classification":{"name":"date","color":[0, 255, 0]}}}]}