{"type":"FeatureCollection","features":[{"type":"Feature","id":"d59a5af1-830b-4f28-b247-e10966a9eafc","geometry":{"type":"Polygon","coordinates":[[[534, 631],[534, 668],[654, 668],[654, 631],[534, 631]]]},"properties":{"objectType":"annotation","name":"date","classification":{"name":"date","color":[0, 255, 0]}}},{"type":"Feature","id":"ba9ca00f-8004-4d5e-bdec-d693dfe11c69","geometry":{"type":"Polygon","coordinates":[[[135, 281],[135, 324],[562, 324],[562, 281],[135, 281]]]},"properties":{"objectType":"annotation","name":"company","classification":{"name":"company","color":[255, 0, 0]}}},{"type":"Feature","id":"f08af4b4-6f27-4248-a56d-13c821ec2634","geometry":{"type":"Polygon","coordinates":[[[546, 974],[546, 1009],[628, 1009],[628, 974],[546, 974]]]},"properties":{"objectType":"annotation","name":"total","classification":{"name":"total","color":[255, 255, 0]}}},{"type":"Feature","id":"6d5e9524-e608-4087-a95a-93adc9f4a2d8","geometry":{"type":"Polygon","coordinates":[[[135, 334],[135, 501],[560, 501],[560, 334],[135, 334]]]},"properties":{"objectType":"annotation","name":"address","classification":{"name":"address","color":[0, 0, 255]}}}]}