{"type":"FeatureCollection","features":[{"type":"Feature","id":"d3f7fa4b-0701-43a4-8b2c-08f54840edf7","geometry":{"type":"Polygon","coordinates":[[[25, 74],[25, 97],[598, 97],[598, 74],[25, 74]]]},"properties":{"objectType":"annotation","name":"company","classification":{"name":"company","color":[255, 0, 0]}}},{"type":"Feature","id":"53131d5c-c78b-4501-b88c-e28a7b26751f","geometry":{"type":"Polygon","coordinates":[[[147, 100],[147, 149],[463, 149],[463, 100],[147, 100]]]},"properties":{"objectType":"annotation","name":"address","classification":{"name":"address","color":[0, 0, 255]}}},{"type":"Feature","id":"50e73acf-ec90-4680-a118-31af34128365","geometry":{"type":"Polygon","coordinates":[[[431, 909],[431, 958],[524, 958],[524, 909],[431, 909]]]},"properties":{"objectType":"annotation","name":"total","classification":{"name":"total","color":[255, 255, 0]}}},{"type":"Feature","id":"72ab22da-bd8b-4521-855d-ad8c8a64f537","geometry":{"type":"Polygon","coordinates":[[[290, 461],[290, 493],[421, 493],[421, 461],[290, 461]]]},"properties":{"objectType":"annotation","name":"date","classification":{"name":"date","color":[0, 255, 0]}}}]}