{"type":"FeatureCollection","features":[{"type":"Feature","id":"e77efb2e-aec2-4fea-a12d-0689d06d4234","geometry":{"type":"Polygon","coordinates":[[[3067, 2696],[3067, 2757],[3248, 2757],[3248, 2696],[3067, 2696]]]},"properties":{"objectType":"annotation","name":"total","classification":{"name":"total","color":[255, 255, 0]}}},{"type":"Feature","id":"1a34caea-adfe-4688-a696-320310edac34","geometry":{"type":"Polygon","coordinates":[[[2271, 1720],[2271, 1802],[2873, 1802],[2873, 1720],[2271, 1720]]]},"properties":{"objectType":"annotation","name":"company"}},{"type":"Feature","id":"fb8d7fa0-681e-43ae-8439-aa1d317c5101","geometry":{"type":"Polygon","coordinates":[[[2349, 4078],[2349, 4142],[2645, 4142],[2645, 4078],[2349, 4078]]]},"properties":{"objectType":"annotation","name":"date","classification":{"name":"date","color":[0, 255, 0]}}},{"type":"Feature","id":"503980f1-46ad-4475-8161-a983b133d752","geometry":{"type":"Polygon","coordinates":[[[2276, 1843],[2276, 2013],[3295, 2013],[3295, 1843],[2276, 1843]]]},"properties":{"objectType":"annotation","name":"address","classification":{"name":"address","color":[0, 0, 255]}}}]}