{"type":"FeatureCollection","features":[{"type":"Feature","id":"500ebda9-7710-42f0-a859-57ad794264da","geometry":{"type":"Polygon","coordinates":[[[541, 837],[541, 859],[606, 859],[606, 837],[541, 837]]]},"properties":{"objectType":"annotation","name":"total","classification":{"name":"total","color":[255, 255, 0]}}},{"type":"Feature","id":"7e8004b6-83cf-4f34-b0ec-ddad2e1a2739","geometry":{"type":"Polygon","coordinates":[[[201, 531],[201, 557],[342, 557],[342, 531],[201, 531]]]},"properties":{"objectType":"annotation","name":"date","classification":{"name":"date","color":[0, 255, 0]}}},{"type":"Feature","id":"f816da4a-7453-4421-bd9f-20937d7e8a70","geometry":{"type":"Polygon","coordinates":[[[116, 259],[116, 361],[560, 361],[560, 259],[116, 259]]]},"properties":{"objectType":"annotation","name":"address","classification":{"name":"address","color":[0, 0, 255]}}},{"type":"Feature","id":"4124f771-13b9-4872-82ac-8ae0efd03bce","geometry":{"type":"Polygon","coordinates":[[[51, 224],[51, 259],[472, 259],[472, 224],[51, 224]]]},"properties":{"objectType":"annotation","name":"company","classification":{"name":"company","color":[255, 0, 0]}}}]}