{"type":"FeatureCollection","features":[{"type":"Feature","id":"93fd72f9-cc2c-4426-a085-9bc76dba2bc0","geometry":{"type":"Polygon","coordinates":[[[350, 1308],[350, 1364],[563, 1364],[563, 1308],[350, 1308]]]},"properties":{"objectType":"annotation","name":"total","classification":{"name":"total","color":[255, 255, 0]}}},{"type":"Feature","id":"e14bdda4-4bc2-4d0a-8a6d-3b279de60753","geometry":{"type":"Polygon","coordinates":[[[184, 723],[184, 754],[348, 754],[348, 723],[184, 723]]]},"properties":{"objectType":"annotation","name":"date","classification":{"name":"date","color":[0, 255, 0]}}},{"type":"Feature","id":"2df65ecf-d62e-470e-aa38-9e956dc23972","geometry":{"type":"Polygon","coordinates":[[[45, 402],[45, 434],[430, 434],[430, 402],[45, 402]]]},"properties":{"objectType":"annotation","name":"company","classification":{"name":"company","color":[255, 0, 0]}}}]}