{"type":"FeatureCollection","features":[{"type":"Feature","id":"f60fb955-60d8-4a2d-9a53-8a78411d9247","geometry":{"type":"Polygon","coordinates":[[[30, 109],[30, 131],[606, 131],[606, 109],[30, 109]]]},"properties":{"objectType":"annotation","name":"company","classification":{"name":"company","color":[255, 0, 0]}}},{"type":"Feature","id":"98e1652e-3ddc-4aa4-9f4f-dc0225b68b73","geometry":{"type":"Polygon","coordinates":[[[444, 921],[444, 969],[540, 969],[540, 921],[444, 921]]]},"properties":{"objectType":"annotation","name":"total","classification":{"name":"total","color":[255, 255, 0]}}},{"type":"Feature","id":"2c76bd57-d1df-42bf-97ee-d0bfd3765dad","geometry":{"type":"Polygon","coordinates":[[[160, 134],[160, 182],[476, 182],[476, 134],[160, 134]]]},"properties":{"objectType":"annotation","name":"address","classification":{"name":"address","color":[0, 0, 255]}}},{"type":"Feature","id":"7d0d72c3-1469-4e13-a06e-a81c33eba443","geometry":{"type":"Polygon","coordinates":[[[304, 497],[304, 528],[430, 528],[430, 497],[304, 497]]]},"properties":{"objectType":"annotation","name":"date","classification":{"name":"date","color":[0, 255, 0]}}}]}