{"type":"FeatureCollection","features":[{"type":"Feature","id":"958d80f3-e642-4013-b1cf-c10bc2b386eb","geometry":{"type":"Polygon","coordinates":[[[205, 252],[205, 294],[764, 294],[764, 252],[205, 252]]]},"properties":{"objectType":"annotation","name":"company","classification":{"name":"company","color":[255, 0, 0]}}},{"type":"Feature","id":"5535bb2d-f1d7-4ab9-8aff-f2cd5ff83d7c","geometry":{"type":"Polygon","coordinates":[[[691, 1352],[691, 1409],[879, 1409],[879, 1352],[691, 1352]]]},"properties":{"objectType":"annotation","name":"total","classification":{"name":"total","color":[255, 255, 0]}}},{"type":"Feature","id":"b4948e97-97dd-4644-99f8-1759d09223e4","geometry":{"type":"Polygon","coordinates":[[[188, 689],[188, 725],[371, 725],[371, 689],[188, 689]]]},"properties":{"objectType":"annotation","name":"date","classification":{"name":"date","color":[0, 255, 0]}}},{"type":"Feature","id":"01aae6b2-a07c-44cd-aa39-251913fe099a","geometry":{"type":"Polygon","coordinates":[[[87, 337],[87, 414],[854, 414],[854, 337],[87, 337]]]},"properties":{"objectType":"annotation","name":"address","classification":{"name":"address","color":[0, 0, 255]}}}]}