{"type":"FeatureCollection","features":[{"type":"Feature","id":"36fae10f-b3df-47d9-a521-ca50467a50df","geometry":{"type":"Polygon","coordinates":[[[62, 204],[62, 276],[493, 276],[493, 204],[62, 204]]]},"properties":{"objectType":"annotation","name":"company","classification":{"name":"company","color":[255, 0, 0]}}},{"type":"Feature","id":"ee697b91-5d6b-46c3-aa01-442dc206e05a","geometry":{"type":"Polygon","coordinates":[[[86, 302],[86, 383],[479, 383],[479, 302],[86, 302]]]},"properties":{"objectType":"annotation","name":"address","classification":{"name":"address","color":[0, 0, 255]}}},{"type":"Feature","id":"4eb99fcd-6cf9-4e6d-b1bb-214d1608a8bd","geometry":{"type":"Polygon","coordinates":[[[395, 947],[395, 985],[545, 985],[545, 947],[395, 947]]]},"properties":{"objectType":"annotation","name":"total","classification":{"name":"total","color":[255, 255, 0]}}},{"type":"Feature","id":"8f71eab6-d0b6-4262-bde6-70c971071782","geometry":{"type":"Polygon","coordinates":[[[360, 598],[360, 629],[515, 629],[515, 598],[360, 598]]]},"properties":{"objectType":"annotation","name":"date","classification":{"name":"date","color":[0, 255, 0]}}}]}