{"type":"FeatureCollection","features":[{"type":"Feature","id":"3558bb19-748f-4224-bbee-a27d24337f56","geometry":{"type":"Polygon","coordinates":[[[28, 185],[28, 212],[598, 212],[598, 185],[28, 185]]]},"properties":{"objectType":"annotation","name":"company","classification":{"name":"company","color":[255, 0, 0]}}},{"type":"Feature","id":"01a1530e-7cb6-4cd6-8e09-988315811e2d","geometry":{"type":"Polygon","coordinates":[[[160, 205],[160, 254],[476, 254],[476, 205],[160, 205]]]},"properties":{"objectType":"annotation","name":"address","classification":{"name":"address","color":[0, 0, 255]}}},{"type":"Feature","id":"afa432ff-ef9a-4877-982a-ae703c1b5bad","geometry":{"type":"Polygon","coordinates":[[[296, 575],[296, 601],[423, 601],[423, 575],[296, 575]]]},"properties":{"objectType":"annotation","name":"date","classification":{"name":"date","color":[0, 255, 0]}}},{"type":"Feature","id":"9ef75ecb-a3cb-40c7-9c70-e984d440be40","geometry":{"type":"Polygon","coordinates":[[[432, 1001],[432, 1036],[526, 1036],[526, 1001],[432, 1001]]]},"properties":{"objectType":"annotation","name":"total","classification":{"name":"total","color":[255, 255, 0]}}}]}