{"type":"FeatureCollection","features":[{"type":"Feature","id":"f8182d26-7e21-42b1-ba00-7ee0b2be1b57","geometry":{"type":"Polygon","coordinates":[[[449, 903],[449, 935],[509, 935],[509, 903],[449, 903]]]},"properties":{"objectType":"annotation","name":"total","classification":{"name":"total","color":[255, 255, 0]}}},{"type":"Feature","id":"b3ad8947-19f5-4c24-8b79-b84f20f0942d","geometry":{"type":"Polygon","coordinates":[[[394, 299],[394, 317],[515, 317],[515, 299],[394, 299]]]},"properties":{"objectType":"annotation","name":"date","classification":{"name":"date","color":[0, 255, 0]}}},{"type":"Feature","id":"ef3c8488-fd01-4fa7-88ac-115857aaa469","geometry":{"type":"Polygon","coordinates":[[[162, 90],[162, 135],[459, 135],[459, 90],[162, 90]]]},"properties":{"objectType":"annotation","name":"address","classification":{"name":"address","color":[0, 0, 255]}}},{"type":"Feature","id":"8924c665-de85-4b7b-96d4-d0bc62f075a2","geometry":{"type":"Polygon","coordinates":[[[37, 66],[37, 86],[474, 86],[474, 66],[37, 66]]]},"properties":{"objectType":"annotation","name":"company","classification":{"name":"company","color":[255, 0, 0]}}}]}