{"type":"FeatureCollection","features":[{"type":"Feature","id":"544ac1a2-688e-4531-9f73-15c4b9a80b8d","geometry":{"type":"Polygon","coordinates":[[[430, 1442],[430, 1489],[592, 1489],[592, 1442],[430, 1442]]]},"properties":{"objectType":"annotation","name":"total","classification":{"name":"total","color":[255, 255, 0]}}},{"type":"Feature","id":"8a4b71f6-05b8-473f-b954-fd1f5a9f631b","geometry":{"type":"Polygon","coordinates":[[[159, 785],[159, 811],[299, 811],[299, 785],[159, 785]]]},"properties":{"objectType":"annotation","name":"date","classification":{"name":"date","color":[0, 255, 0]}}},{"type":"Feature","id":"85ad019a-111a-46ac-ab9a-c87e309fc4d9","geometry":{"type":"Polygon","coordinates":[[[92, 348],[92, 514],[525, 514],[525, 348],[92, 348]]]},"properties":{"objectType":"annotation","name":"address","classification":{"name":"address","color":[0, 0, 255]}}},{"type":"Feature","id":"393711d6-6ca4-4edc-b9dd-45fc16152226","geometry":{"type":"Polygon","coordinates":[[[132, 241],[132, 306],[496, 306],[496, 241],[132, 241]]]},"properties":{"objectType":"annotation","name":"company","classification":{"name":"company","color":[255, 0, 0]}}}]}