{"type":"FeatureCollection","features":[{"type":"Feature","id":"b5b4a8d4-81cb-4809-9838-31d42ea6ad81","geometry":{"type":"Polygon","coordinates":[[[2894, 3446],[2894, 3493],[3080, 3493],[3080, 3446],[2894, 3446]]]},"properties":{"objectType":"annotation","name":"total","classification":{"name":"total","color":[255, 255, 0]}}},{"type":"Feature","id":"f42b7b62-3b3c-4d34-b3d3-0ffa1e8e801c","geometry":{"type":"Polygon","coordinates":[[[2898, 1998],[2898, 2056],[3203, 2056],[3203, 1998],[2898, 1998]]]},"properties":{"objectType":"annotation","name":"date","classification":{"name":"date","color":[0, 255, 0]}}},{"type":"Feature","id":"dcbbec2a-f38f-48ec-87fb-867f786c67b6","geometry":{"type":"Polygon","coordinates":[[[1782, 1221],[1782, 1468],[3201, 1468],[3201, 1221],[1782, 1221]]]},"properties":{"objectType":"annotation","name":"address","classification":{"name":"address","color":[0, 0, 255]}}},{"type":"Feature","id":"1b7b649d-6dbc-4156-b821-bfa9b9a26f6d","geometry":{"type":"Polygon","coordinates":[[[2237, 922],[2237, 972],[2745, 972],[2745, 922],[2237, 922]]]},"properties":{"objectType":"annotation","name":"company","classification":{"name":"company","color":[255, 0, 0]}}}]}