{"type":"FeatureCollection","features":[{"type":"Feature","id":"f73b0833-27aa-475a-8f97-bfbc4f77fa42","geometry":{"type":"Polygon","coordinates":[[[229, 267],[229, 306],[564, 306],[564, 267],[229, 267]]]},"properties":{"objectType":"annotation","name":"company","classification":{"name":"company","color":[255, 0, 0]}}},{"type":"Feature","id":"0f53caca-16c0-46bc-8144-1b6e15053b0f","geometry":{"type":"Polygon","coordinates":[[[114, 355],[114, 480],[697, 480],[697, 355],[114, 355]]]},"properties":{"objectType":"annotation","name":"address","classification":{"name":"address","color":[0, 0, 255]}}},{"type":"Feature","id":"d21f9ca9-d8f5-496c-92ae-5bb1d3854aeb","geometry":{"type":"Polygon","coordinates":[[[172, 699],[172, 735],[391, 735],[391, 699],[172, 699]]]},"properties":{"objectType":"annotation","name":"date","classification":{"name":"date","color":[0, 255, 0]}}},{"type":"Feature","id":"02481088-2598-48d4-8b5a-c56c680f3639","geometry":{"type":"Polygon","coordinates":[[[593, 1372],[593, 1428],[763, 1428],[763, 1372],[593, 1372]]]},"properties":{"objectType":"annotation","name":"total","classification":{"name":"total","color":[255, 255, 0]}}}]}