{"type":"FeatureCollection","features":[{"type":"Feature","id":"34d247fd-be7b-4dd7-b953-b73010fd423b","geometry":{"type":"Polygon","coordinates":[[[538, 1033],[538, 1060],[611, 1060],[611, 1033],[538, 1033]]]},"properties":{"objectType":"annotation","name":"total","classification":{"name":"total","color":[255, 255, 0]}}},{"type":"Feature","id":"321aa13d-1b53-4001-9d27-966652fd5671","geometry":{"type":"Polygon","coordinates":[[[524, 642],[524, 669],[639, 669],[639, 642],[524, 642]]]},"properties":{"objectType":"annotation","name":"date","classification":{"name":"date","color":[0, 255, 0]}}},{"type":"Feature","id":"f3bc0696-a913-43ca-b5b0-00d847b05ddc","geometry":{"type":"Polygon","coordinates":[[[156, 327],[156, 476],[538, 476],[538, 327],[156, 327]]]},"properties":{"objectType":"annotation","name":"address","classification":{"name":"address","color":[0, 0, 255]}}},{"type":"Feature","id":"c1562e45-9f96-44cd-910d-8429a051bfb5","geometry":{"type":"Polygon","coordinates":[[[140, 291],[140, 319],[383, 319],[383, 291],[140, 291]]]},"properties":{"objectType":"annotation","name":"company","classification":{"name":"company","color":[255, 0, 0]}}}]}