{"type":"FeatureCollection","features":[{"type":"Feature","id":"8d7d5709-a308-49f9-8d5c-5f63f697d80b","geometry":{"type":"Polygon","coordinates":[[[144, 337],[144, 385],[642, 385],[642, 337],[144, 337]]]},"properties":{"objectType":"annotation","name":"company","classification":{"name":"company","color":[255, 0, 0]}}},{"type":"Feature","id":"ea961f30-684e-4a44-895b-24908363daa0","geometry":{"type":"Polygon","coordinates":[[[645, 778],[645, 813],[789, 813],[789, 778],[645, 778]]]},"properties":{"objectType":"annotation","name":"date","classification":{"name":"date","color":[0, 255, 0]}}},{"type":"Feature","id":"250f99cd-a332-4208-8762-d94aa9cd2c48","geometry":{"type":"Polygon","coordinates":[[[657, 1124],[657, 1160],[762, 1160],[762, 1124],[657, 1124]]]},"properties":{"objectType":"annotation","name":"total","classification":{"name":"total","color":[255, 255, 0]}}},{"type":"Feature","id":"3b779d46-f5b5-4d67-829d-d1f41bce47ad","geometry":{"type":"Polygon","coordinates":[[[169, 382],[169, 581],[645, 581],[645, 382],[169, 382]]]},"properties":{"objectType":"annotation","name":"address","classification":{"name":"address","color":[0, 0, 255]}}}]}