{"type":"FeatureCollection","features":[{"type":"Feature","id":"436ec0c4-96f8-4228-acdb-e5c1cc6d7321","geometry":{"type":"Polygon","coordinates":[[[224, 1050],[224, 1076],[297, 1076],[297, 1050],[224, 1050]]]},"properties":{"objectType":"annotation","name":"total","classification":{"name":"total","color":[255, 255, 0]}}},{"type":"Feature","id":"5d98cefa-33ef-42f8-89a1-d7e872738942","geometry":{"type":"Polygon","coordinates":[[[487, 430],[487, 455],[633, 455],[633, 430],[487, 430]]]},"properties":{"objectType":"annotation","name":"date","classification":{"name":"date","color":[0, 255, 0]}}},{"type":"Feature","id":"384606b3-8e66-42e0-8a83-48abd9108291","geometry":{"type":"Polygon","coordinates":[[[57, 191],[57, 258],[492, 258],[492, 191],[57, 191]]]},"properties":{"objectType":"annotation","name":"address","classification":{"name":"address","color":[0, 0, 255]}}},{"type":"Feature","id":"a17c3dc6-df09-4015-b55a-96ff2b428798","geometry":{"type":"Polygon","coordinates":[[[59, 157],[59, 191],[400, 191],[400, 157],[59, 157]]]},"properties":{"objectType":"annotation","name":"company","classification":{"name":"company","color":[255, 0, 0]}}}]}