{"type":"FeatureCollection","features":[{"type":"Feature","id":"57be15ff-dce6-48a3-85bc-a8352a4e36ef","geometry":{"type":"Polygon","coordinates":[[[571, 803],[571, 827],[624, 827],[624, 803],[571, 803]]]},"properties":{"objectType":"annotation","name":"total","classification":{"name":"total","color":[255, 255, 0]}}},{"type":"Feature","id":"6dd9253d-8251-4378-85c3-f6fd89000233","geometry":{"type":"Polygon","coordinates":[[[404, 368],[404, 396],[535, 396],[535, 368],[404, 368]]]},"properties":{"objectType":"annotation","name":"date","classification":{"name":"date","color":[0, 255, 0]}}},{"type":"Feature","id":"3e4e5b26-6595-44e3-a0a0-8f19a7a96c86","geometry":{"type":"Polygon","coordinates":[[[123, 122],[123, 233],[589, 233],[589, 122],[123, 122]]]},"properties":{"objectType":"annotation","name":"address","classification":{"name":"address","color":[0, 0, 255]}}},{"type":"Feature","id":"098d0e28-606e-430f-a491-6f218af3078c","geometry":{"type":"Polygon","coordinates":[[[202, 60],[202, 98],[515, 98],[515, 60],[202, 60]]]},"properties":{"objectType":"annotation","name":"company","classification":{"name":"company","color":[255, 0, 0]}}}]}