{"type":"FeatureCollection","features":[{"type":"Feature","id":"0efd1f7c-6f53-4a18-a08a-f21995548507","geometry":{"type":"Polygon","coordinates":[[[452, 946],[452, 979],[510, 979],[510, 946],[452, 946]]]},"properties":{"objectType":"annotation","name":"total","classification":{"name":"total","color":[255, 255, 0]}}},{"type":"Feature","id":"734a8f99-f9be-4eea-9676-22426c538799","geometry":{"type":"Polygon","coordinates":[[[305, 480],[305, 499],[413, 499],[413, 480],[305, 480]]]},"properties":{"objectType":"annotation","name":"date","classification":{"name":"date","color":[0, 255, 0]}}},{"type":"Feature","id":"1ba89fdd-d50d-459d-89d9-61cda3f9b2f7","geometry":{"type":"Polygon","coordinates":[[[37, 87],[37, 110],[472, 110],[472, 87],[37, 87]]]},"properties":{"objectType":"annotation","name":"company","classification":{"name":"company","color":[255, 0, 0]}}},{"type":"Feature","id":"478e1b8c-04f3-41b5-98c7-eb66eb79e8a7","geometry":{"type":"Polygon","coordinates":[[[162, 111],[162, 157],[457, 157],[457, 111],[162, 111]]]},"properties":{"objectType":"annotation","name":"address","classification":{"name":"address","color":[0, 0, 255]}}}]}