{"type":"FeatureCollection","features":[{"type":"Feature","id":"a6d1513a-0ba4-48a8-b88c-5e57b8026b1d","geometry":{"type":"Polygon","coordinates":[[[194, 121],[194, 162],[579, 162],[579, 121],[194, 121]]]},"properties":{"objectType":"annotation","name":"company","classification":{"name":"company","color":[255, 0, 0]}}},{"type":"Feature","id":"97f53059-7588-4cd2-8a18-2904d0ad2a1e","geometry":{"type":"Polygon","coordinates":[[[181, 162],[181, 281],[596, 281],[596, 162],[181, 162]]]},"properties":{"objectType":"annotation","name":"address","classification":{"name":"address","color":[0, 0, 255]}}},{"type":"Feature","id":"7cca3152-0c43-4916-932c-2514383ea3f9","geometry":{"type":"Polygon","coordinates":[[[583, 801],[583, 832],[654, 832],[654, 801],[583, 801]]]},"properties":{"objectType":"annotation","name":"total","classification":{"name":"total","color":[255, 255, 0]}}},{"type":"Feature","id":"418f524b-db54-422c-83c0-614322aeba26","geometry":{"type":"Polygon","coordinates":[[[85, 1088],[85, 1128],[251, 1128],[251, 1088],[85, 1088]]]},"properties":{"objectType":"annotation","name":"date","classification":{"name":"date","color":[0, 255, 0]}}}]}