{"type":"FeatureCollection","features":[{"type":"Feature","id":"6ec87e01-f5c4-4886-af45-db09bda1c932","geometry":{"type":"Polygon","coordinates":[[[21, 132],[21, 172],[533, 172],[533, 132],[21, 132]]]},"properties":{"objectType":"annotation","name":"company","classification":{"name":"company","color":[255, 0, 0]}}},{"type":"Feature","id":"41ba3e2b-f00d-4cdf-bf51-38e1e9f73f5e","geometry":{"type":"Polygon","coordinates":[[[31, 183],[31, 229],[523, 229],[523, 183],[31, 183]]]},"properties":{"objectType":"annotation","name":"address","classification":{"name":"address","color":[0, 0, 255]}}},{"type":"Feature","id":"4881ea88-3c73-4647-8b31-e15b7288d5b6","geometry":{"type":"Polygon","coordinates":[[[462, 553],[462, 590],[541, 590],[541, 553],[462, 553]]]},"properties":{"objectType":"annotation","name":"total","classification":{"name":"total","color":[255, 255, 0]}}},{"type":"Feature","id":"92eeee0c-453c-438b-bb37-86fb8ccd6609","geometry":{"type":"Polygon","coordinates":[[[398, 945],[398, 969],[523, 969],[523, 945],[398, 945]]]},"properties":{"objectType":"annotation","name":"date","classification":{"name":"date","color":[0, 255, 0]}}}]}