{"type":"FeatureCollection","features":[{"type":"Feature","id":"bc25bc25-5822-4755-bc1b-6f2ec4121e2a","geometry":{"type":"Polygon","coordinates":[[[423, 751],[423, 773],[540, 773],[540, 751],[423, 751]]]},"properties":{"objectType":"annotation","name":"total","classification":{"name":"total","color":[255, 255, 0]}}},{"type":"Feature","id":"0f2b4a23-ffba-4e98-9fda-03b513575853","geometry":{"type":"Polygon","coordinates":[[[188, 453],[188, 479],[305, 479],[305, 453],[188, 453]]]},"properties":{"objectType":"annotation","name":"date","classification":{"name":"date","color":[0, 255, 0]}}},{"type":"Feature","id":"11da1c46-9f5f-4d76-ade3-cc4b3d3064b1","geometry":{"type":"Polygon","coordinates":[[[128, 217],[128, 274],[466, 274],[466, 217],[128, 217]]]},"properties":{"objectType":"annotation","name":"address","classification":{"name":"address","color":[0, 0, 255]}}},{"type":"Feature","id":"e29d32df-408f-4b02-98d8-f51f4486d8a9","geometry":{"type":"Polygon","coordinates":[[[104, 158],[104, 181],[506, 181],[506, 158],[104, 158]]]},"properties":{"objectType":"annotation","name":"company","classification":{"name":"company","color":[255, 0, 0]}}}]}