{"type":"FeatureCollection","features":[{"type":"Feature","id":"e304e24f-4a4f-4f80-8139-55e3ed933d83","geometry":{"type":"Polygon","coordinates":[[[252, 157],[252, 272],[717, 272],[717, 157],[252, 157]]]},"properties":{"objectType":"annotation","name":"company","classification":{"name":"company","color":[255, 0, 0]}}},{"type":"Feature","id":"99637ebc-615b-44b3-a0c2-47f8dc84206b","geometry":{"type":"Polygon","coordinates":[[[185, 316],[185, 436],[717, 436],[717, 316],[185, 316]]]},"properties":{"objectType":"annotation","name":"address","classification":{"name":"address","color":[0, 0, 255]}}},{"type":"Feature","id":"9b4319e4-66a8-411e-90f8-ba2793784cc6","geometry":{"type":"Polygon","coordinates":[[[671, 1238],[671, 1300],[880, 1300],[880, 1238],[671, 1238]]]},"properties":{"objectType":"annotation","name":"total","classification":{"name":"total","color":[255, 255, 0]}}},{"type":"Feature","id":"76b0be58-fdf0-4e26-8951-e978335f3a34","geometry":{"type":"Polygon","coordinates":[[[176, 664],[176, 718],[373, 718],[373, 664],[176, 664]]]},"properties":{"objectType":"annotation","name":"date","classification":{"name":"date","color":[0, 255, 0]}}}]}