{"type":"FeatureCollection","features":[{"type":"Feature","id":"cff80d9a-d960-4074-be30-695e15e2993b","geometry":{"type":"Polygon","coordinates":[[[679, 1321],[679, 1352],[765, 1352],[765, 1321],[679, 1321]]]},"properties":{"objectType":"annotation","name":"total","classification":{"name":"total","color":[255, 255, 0]}}},{"type":"Feature","id":"9a0596ef-7a13-4c61-97de-2079a1f3c380","geometry":{"type":"Polygon","coordinates":[[[673, 695],[673, 726],[840, 726],[840, 695],[673, 695]]]},"properties":{"objectType":"annotation","name":"date","classification":{"name":"date","color":[0, 255, 0]}}},{"type":"Feature","id":"f0a3cb23-2b32-4a6c-af95-e8876dcc2b23","geometry":{"type":"Polygon","coordinates":[[[249, 319],[249, 447],[684, 447],[684, 319],[249, 319]]]},"properties":{"objectType":"annotation","name":"address","classification":{"name":"address","color":[0, 0, 255]}}},{"type":"Feature","id":"df7d1d52-8785-40c0-aec0-ba46267baba6","geometry":{"type":"Polygon","coordinates":[[[97, 216],[97, 255],[835, 255],[835, 216],[97, 216]]]},"properties":{"objectType":"annotation","name":"company","classification":{"name":"company","color":[255, 0, 0]}}}]}