{"type":"FeatureCollection","features":[{"type":"Feature","id":"dd9b0d09-4734-48eb-928b-ba23ac0d1e8c","geometry":{"type":"Polygon","coordinates":[[[503, 878],[503, 911],[625, 911],[625, 878],[503, 878]]]},"properties":{"objectType":"annotation","name":"total","classification":{"name":"total","color":[255, 255, 0]}}},{"type":"Feature","id":"969e120c-1d3c-42ae-8aa1-27c258aa437a","geometry":{"type":"Polygon","coordinates":[[[360, 524],[360, 547],[508, 547],[508, 524],[360, 524]]]},"properties":{"objectType":"annotation","name":"date","classification":{"name":"date","color":[0, 255, 0]}}},{"type":"Feature","id":"c902d55c-5257-4daf-81fe-2e2f27273b8e","geometry":{"type":"Polygon","coordinates":[[[134, 265],[134, 379],[535, 379],[535, 265],[134, 265]]]},"properties":{"objectType":"annotation","name":"address","classification":{"name":"address","color":[0, 0, 255]}}},{"type":"Feature","id":"9e089f57-aaba-4a23-b1b0-1245d3134701","geometry":{"type":"Polygon","coordinates":[[[142, 223],[142, 258],[522, 258],[522, 223],[142, 223]]]},"properties":{"objectType":"annotation","name":"company","classification":{"name":"company","color":[255, 0, 0]}}}]}