{"type":"FeatureCollection","features":[{"type":"Feature","id":"a6712d6c-1fe2-46b5-bfa5-21a74c6497da","geometry":{"type":"Polygon","coordinates":[[[15, 63],[15, 90],[585, 90],[585, 63],[15, 63]]]},"properties":{"objectType":"annotation","name":"company","classification":{"name":"company","color":[255, 0, 0]}}},{"type":"Feature","id":"61b45aca-61c3-40ee-a241-8dbf6a53bbce","geometry":{"type":"Polygon","coordinates":[[[136, 90],[136, 135],[447, 135],[447, 90],[136, 90]]]},"properties":{"objectType":"annotation","name":"address","classification":{"name":"address","color":[0, 0, 255]}}},{"type":"Feature","id":"160da55c-9df0-45a2-9ba2-58832b2198d0","geometry":{"type":"Polygon","coordinates":[[[425, 875],[425, 921],[506, 921],[506, 875],[425, 875]]]},"properties":{"objectType":"annotation","name":"total","classification":{"name":"total","color":[255, 255, 0]}}},{"type":"Feature","id":"07a19c9d-5dc9-445f-a347-4ac1aa213c9f","geometry":{"type":"Polygon","coordinates":[[[279, 456],[279, 482],[404, 482],[404, 456],[279, 456]]]},"properties":{"objectType":"annotation","name":"date","classification":{"name":"date","color":[0, 255, 0]}}}]}