{"type":"FeatureCollection","features":[{"type":"Feature","id":"39dfd21c-93da-42e1-9197-dc43cbabe885","geometry":{"type":"Polygon","coordinates":[[[62, 170],[62, 202],[397, 202],[397, 170],[62, 170]]]},"properties":{"objectType":"annotation","name":"company","classification":{"name":"company","color":[255, 0, 0]}}},{"type":"Feature","id":"3a5e8adc-cf20-41a9-88fb-2c3901a4f6b0","geometry":{"type":"Polygon","coordinates":[[[265, 1041],[265, 1064],[338, 1064],[338, 1041],[265, 1041]]]},"properties":{"objectType":"annotation","name":"total","classification":{"name":"total","color":[255, 255, 0]}}},{"type":"Feature","id":"8fa9d1a7-2151-4581-a5cd-8f5dfb08448e","geometry":{"type":"Polygon","coordinates":[[[465, 502],[465, 530],[609, 530],[609, 502],[465, 502]]]},"properties":{"objectType":"annotation","name":"date","classification":{"name":"date","color":[0, 255, 0]}}},{"type":"Feature","id":"0465a9c4-acab-402b-ac0a-f379945b1676","geometry":{"type":"Polygon","coordinates":[[[65, 258],[65, 296],[638, 296],[638, 258],[65, 258]]]},"properties":{"objectType":"annotation","name":"address","classification":{"name":"address","color":[0, 0, 255]}}}]}