{"type":"FeatureCollection","features":[{"type":"Feature","id":"f9fe63f3-3c82-489b-9887-e90a36c43228","geometry":{"type":"Polygon","coordinates":[[[576, 912],[576, 938],[651, 938],[651, 912],[576, 912]]]},"properties":{"objectType":"annotation","name":"total","classification":{"name":"total","color":[255, 255, 0]}}},{"type":"Feature","id":"ca2a4b17-2ba3-4e20-a25c-843522f0ad07","geometry":{"type":"Polygon","coordinates":[[[409, 510],[409, 535],[529, 535],[529, 510],[409, 510]]]},"properties":{"objectType":"annotation","name":"date","classification":{"name":"date","color":[0, 255, 0]}}},{"type":"Feature","id":"c0e0b413-d9f3-41ac-841b-6ceb200c634d","geometry":{"type":"Polygon","coordinates":[[[153, 390],[153, 423],[528, 423],[528, 390],[153, 390]]]},"properties":{"objectType":"annotation","name":"address","classification":{"name":"address","color":[0, 0, 255]}}},{"type":"Feature","id":"121e1650-cd75-4841-9044-fd3c1b3247aa","geometry":{"type":"Polygon","coordinates":[[[136, 348],[136, 381],[541, 381],[541, 348],[136, 348]]]},"properties":{"objectType":"annotation","name":"company","classification":{"name":"company","color":[255, 0, 0]}}}]}