{"type":"FeatureCollection","features":[{"type":"Feature","id":"a04cf705-8893-40c4-a0ea-1570caf2f2b8","geometry":{"type":"Polygon","coordinates":[[[459, 723],[459, 741],[510, 741],[510, 723],[459, 723]]]},"properties":{"objectType":"annotation","name":"total","classification":{"name":"total","color":[255, 255, 0]}}},{"type":"Feature","id":"6346765e-c875-4e3b-8f42-8f4d392cc4dc","geometry":{"type":"Polygon","coordinates":[[[124, 376],[124, 401],[246, 401],[246, 376],[124, 376]]]},"properties":{"objectType":"annotation","name":"date","classification":{"name":"date","color":[0, 255, 0]}}},{"type":"Feature","id":"86c10c81-8271-4cd0-831f-67ae3e81c649","geometry":{"type":"Polygon","coordinates":[[[8, 201],[8, 254],[521, 254],[521, 201],[8, 201]]]},"properties":{"objectType":"annotation","name":"address","classification":{"name":"address","color":[0, 0, 255]}}},{"type":"Feature","id":"874efabe-ffc7-46c2-a28b-1144cb784d57","geometry":{"type":"Polygon","coordinates":[[[60, 148],[60, 171],[449, 171],[449, 148],[60, 148]]]},"properties":{"objectType":"annotation","name":"company","classification":{"name":"company","color":[255, 0, 0]}}}]}