{"type":"FeatureCollection","features":[{"type":"Feature","id":"d8c63904-e58c-4dea-a916-92cce7b6d926","geometry":{"type":"Polygon","coordinates":[[[640, 1418],[640, 1456],[837, 1456],[837, 1418],[640, 1418]]]},"properties":{"objectType":"annotation","name":"total","classification":{"name":"total","color":[255, 255, 0]}}},{"type":"Feature","id":"348cce6e-5e3b-4f17-9279-c1ef0a9e3e02","geometry":{"type":"Polygon","coordinates":[[[119, 376],[119, 517],[768, 517],[768, 376],[119, 376]]]},"properties":{"objectType":"annotation","name":"address","classification":{"name":"address","color":[0, 0, 255]}}},{"type":"Feature","id":"ac39a50b-6a74-4c97-811c-3c9b18d25b06","geometry":{"type":"Polygon","coordinates":[[[258, 275],[258, 314],[618, 314],[618, 275],[258, 275]]]},"properties":{"objectType":"annotation","name":"company","classification":{"name":"company","color":[255, 0, 0]}}},{"type":"Feature","id":"02aafa3f-cf90-4dee-8cc5-0614dfe350a9","geometry":{"type":"Polygon","coordinates":[[[220, 774],[220, 813],[418, 813],[418, 774],[220, 774]]]},"properties":{"objectType":"annotation","name":"date","classification":{"name":"date","color":[0, 255, 0]}}}]}