{"type":"FeatureCollection","features":[{"type":"Feature","id":"fe7ae073-1035-4298-b57d-f34207476ace","geometry":{"type":"Polygon","coordinates":[[[169, 1057],[169, 1076],[294, 1076],[294, 1057],[169, 1057]]]},"properties":{"objectType":"annotation","name":"date","classification":{"name":"date","color":[0, 255, 0]}}},{"type":"Feature","id":"cfa6ff3d-0511-4d4a-9cce-9fbaa4ed81a7","geometry":{"type":"Polygon","coordinates":[[[45, 176],[45, 223],[506, 223],[506, 176],[45, 176]]]},"properties":{"objectType":"annotation","name":"address","classification":{"name":"address","color":[0, 0, 255]}}},{"type":"Feature","id":"3b311cdf-33ea-4a23-a774-2e0daf6c7457","geometry":{"type":"Polygon","coordinates":[[[26, 129],[26, 166],[527, 166],[527, 129],[26, 129]]]},"properties":{"objectType":"annotation","name":"company","classification":{"name":"company","color":[255, 0, 0]}}},{"type":"Feature","id":"90150c8b-7ee9-484f-8492-456c98555771","geometry":{"type":"Polygon","coordinates":[[[456, 645],[456, 674],[566, 674],[566, 645],[456, 645]]]},"properties":{"objectType":"annotation","name":"total","classification":{"name":"total","color":[255, 255, 0]}}}]}