{"type":"FeatureCollection","features":[{"type":"Feature","id":"6d9322fd-c248-4b1b-a6be-0397c26417c1","geometry":{"type":"Polygon","coordinates":[[[253, 342],[253, 381],[630, 381],[630, 342],[253, 342]]]},"properties":{"objectType":"annotation","name":"company","classification":{"name":"company","color":[255, 0, 0]}}},{"type":"Feature","id":"b968dc0f-01d6-41e2-b877-78d478487128","geometry":{"type":"Polygon","coordinates":[[[84, 425],[84, 552],[773, 552],[773, 425],[84, 425]]]},"properties":{"objectType":"annotation","name":"address","classification":{"name":"address","color":[0, 0, 255]}}},{"type":"Feature","id":"7f501e45-7ffb-4cdd-907f-f204a2aa7332","geometry":{"type":"Polygon","coordinates":[[[773, 987],[773, 1023],[855, 1023],[855, 987],[773, 987]]]},"properties":{"objectType":"annotation","name":"total","classification":{"name":"total","color":[255, 255, 0]}}},{"type":"Feature","id":"307bd363-358d-4be1-9265-5e11e634481a","geometry":{"type":"Polygon","coordinates":[[[32, 1280],[32, 1317],[192, 1317],[192, 1280],[32, 1280]]]},"properties":{"objectType":"annotation","name":"date","classification":{"name":"date","color":[0, 255, 0]}}}]}