{"type":"FeatureCollection","features":[{"type":"Feature","id":"36f3b8fa-4408-4065-8c63-ca9356846d15","geometry":{"type":"Polygon","coordinates":[[[42, 318],[42, 349],[304, 349],[304, 318],[42, 318]]]},"properties":{"objectType":"annotation","name":"company","classification":{"name":"company","color":[255, 0, 0]}}},{"type":"Feature","id":"22a0289f-070d-4b11-985e-58d05bd326de","geometry":{"type":"Polygon","coordinates":[[[19, 356],[19, 429],[556, 429],[556, 356],[19, 356]]]},"properties":{"objectType":"annotation","name":"address","classification":{"name":"address","color":[0, 0, 255]}}},{"type":"Feature","id":"4bf20110-d089-4811-a04f-f46cd7f990be","geometry":{"type":"Polygon","coordinates":[[[116, 663],[116, 709],[247, 709],[247, 663],[116, 663]]]},"properties":{"objectType":"annotation","name":"date","classification":{"name":"date","color":[0, 255, 0]}}},{"type":"Feature","id":"965d6287-005c-49d6-871a-98116b6dcc08","geometry":{"type":"Polygon","coordinates":[[[408, 963],[408, 1014],[505, 1014],[505, 963],[408, 963]]]},"properties":{"objectType":"annotation","name":"total","classification":{"name":"total","color":[255, 255, 0]}}}]}