{"type":"FeatureCollection","features":[{"type":"Feature","id":"aaea4a62-31ab-4753-ae35-b77cbc8494d7","geometry":{"type":"Polygon","coordinates":[[[47, 181],[47, 229],[515, 229],[515, 181],[47, 181]]]},"properties":{"objectType":"annotation","name":"address","classification":{"name":"address","color":[0, 0, 255]}}},{"type":"Feature","id":"e3ebeabb-9e59-44c9-86c6-7b651300d93e","geometry":{"type":"Polygon","coordinates":[[[37, 134],[37, 176],[540, 176],[540, 134],[37, 134]]]},"properties":{"objectType":"annotation","name":"company","classification":{"name":"company","color":[255, 0, 0]}}},{"type":"Feature","id":"7c2dc92d-c762-4bcf-8405-08b828509485","geometry":{"type":"Polygon","coordinates":[[[470, 759],[470, 804],[540, 804],[540, 759],[470, 759]]]},"properties":{"objectType":"annotation","name":"total","classification":{"name":"total","color":[255, 255, 0]}}},{"type":"Feature","id":"298c4f06-857a-4f07-829e-8fa7339eaad2","geometry":{"type":"Polygon","coordinates":[[[395, 1000],[395, 1041],[534, 1041],[534, 1000],[395, 1000]]]},"properties":{"objectType":"annotation","name":"date","classification":{"name":"date","color":[0, 255, 0]}}}]}